X,Y,OBJECTID,SERVICECODE,SERVICECODEDESCRIPTION,SERVICETYPECODEDESCRIPTION,ORGANIZATIONACRONYM,SERVICECALLCOUNT,ADDDATE,RESOLUTIONDATE,SERVICEDUEDATE,SERVICEORDERDATE,INSPECTIONFLAG,INSPECTIONDATE,INSPECTORNAME,SERVICEORDERSTATUS,STATUS_CODE,SERVICEREQUESTID,PRIORITY,STREETADDRESS,XCOORD,YCOORD,LATITUDE,LONGITUDE,CITY,STATE,ZIPCODE,MARADDRESSREPOSITORYID,WARD
-76.98901817514357,38.90477979601917,194,S0311,Rodent Inspection and Treatment,DOH- Department Of Health,DOH,1,2020-03-30T20:09:54.000Z,,2020-04-20T20:09:54.000Z,2020-03-30T20:09:54.000Z,,,,Open,,20-00113952,Standard,1300 MONTELLO AVENUE NE,400952.74,137435.09,38.90477234,-76.98901589,WASHINGTON,DC,20002,68771,5
-76.999267210502722,38.925955302207896,195,S0311,Rodent Inspection and Treatment,DOH- Department Of Health,DOH,1,2020-03-30T21:51:02.000Z,,2020-04-20T21:51:02.000Z,2020-03-30T21:51:02.000Z,,,,Open,,20-00113996,Standard,2811 5TH STREET NE,400063.74,139785.69,38.92594784,-76.99926493,WASHINGTON,DC,20017,44518,5
-77.028790511166022,38.956025310594335,196,S0311,Rodent Inspection and Treatment,DOH- Department Of Health,DOH,1,2020-03-20T11:19:52.000Z,,2020-04-09T11:19:51.000Z,2020-03-20T11:19:52.000Z,,,,Open,,20-00101528,Standard,1218 KENNEDY STREET NW,397504.76,143124.12,38.95601785,-77.02878822,WASHINGTON,DC,20011,253041,4
-77.012396323367071,38.9143728206164,197,S0311,Rodent Inspection and Treatment,DOH- Department Of Health,DOH,1,2020-03-26T08:39:57.000Z,2020-04-01T10:17:48.000Z,2020-04-15T08:39:56.000Z,2020-03-26T08:39:57.000Z,1,2020-04-01T10:17:47.000Z,,Closed,,20-00108346,Standard,1806 1ST STREET NW,398925.11,138500.01,38.91436536,-77.01239404,WASHINGTON,DC,20001,227187,5
-77.043412856085368,38.933525663114537,198,S0311,Rodent Inspection and Treatment,DOH- Department Of Health,DOH,1,2020-03-17T15:05:00.000Z,,2020-04-06T15:05:00.000Z,2020-03-17T15:05:00.000Z,,,,Open,,20-00096968,Standard,1867 MONROE STREET NW,396236.17,140626.96,38.9335182,-77.04341056,WASHINGTON,DC,20010,233791,1
-77.022808229877896,38.934447825215585,199,S0311,Rodent Inspection and Treatment,DOH- Department Of Health,DOH,1,2020-03-31T20:53:14.000Z,,2020-04-21T20:53:14.000Z,2020-03-31T20:53:14.000Z,,,,Open,,20-00115705,Standard,716 OTIS PLACE NW,398022.68,140728.68,38.93444037,-77.02280594,WASHINGTON,DC,20010,228601,1
-77.024870716807584,38.907060470554669,200,S0311,Rodent Inspection and Treatment,DOH- Department Of Health,DOH,1,2020-03-19T19:19:28.000Z,2020-03-24T13:16:16.000Z,2020-04-08T19:19:28.000Z,2020-03-19T19:19:28.000Z,1,2020-03-24T13:16:15.000Z,,Closed,,20-00100873,Standard,922 N STREET NW,397843.03,137688.5,38.90705268,-77.02486843,WASHINGTON,DC,20001,239757,2
-76.978541467153974,38.938854130987302,201,S0311,Rodent Inspection and Treatment,DOH- Department Of Health,DOH,1,2020-03-28T03:01:48.000Z,2020-03-30T10:42:52.000Z,2020-04-17T03:01:48.000Z,2020-03-28T03:01:48.000Z,1,2020-03-30T10:42:52.000Z,,Closed,,20-00111253,Standard,4010 19TH STREET NE,401860.58,141217.79,38.93884667,-76.97853919,WASHINGTON,DC,20018,28179,5
-76.97922619223128,38.90388276484132,202,S0311,Rodent Inspection and Treatment,DOH- Department Of Health,DOH,1,2020-03-28T20:33:58.000Z,,2020-04-17T20:33:58.000Z,2020-03-28T20:33:58.000Z,,,,Open,,20-00111849,Standard,1726 L STREET NE,401802.1,137335.66,38.90387531,-76.97922391,WASHINGTON,DC,20002,56916,5
-77.013447922706305,38.950531505837901,203,S0311,Rodent Inspection and Treatment,DOH- Department Of Health,DOH,1,2020-03-17T13:40:25.000Z,2020-03-24T08:36:52.000Z,2020-04-06T13:40:25.000Z,2020-03-17T13:40:25.000Z,1,2020-03-18T09:25:00.000Z,,Closed,,20-00096727,Standard,4919 NEW HAMPSHIRE AVENUE NW,398834.5,142513.95,38.95052404,-77.01344563,WASHINGTON,DC,20011,243655,4
-76.97934023151474,38.904214472654289,204,S0311,Rodent Inspection and Treatment,DOH- Department Of Health,DOH,1,2020-03-25T20:08:47.000Z,2020-03-27T07:34:13.000Z,2020-04-14T20:08:47.000Z,2020-03-25T20:08:47.000Z,1,2020-03-27T07:33:00.000Z,,Closed,,20-00108085,Standard,1641 LANG PLACE NE,401792.2,137372.48,38.90420702,-76.97933795,WASHINGTON,DC,20002,58661,5
-77.026796483243572,38.928904707298159,205,S0311,Rodent Inspection and Treatment,DOH- Department Of Health,DOH,1,2020-03-30T04:46:11.000Z,2020-03-31T10:37:28.000Z,2020-04-20T04:46:11.000Z,2020-03-30T04:46:11.000Z,1,2020-03-31T10:37:27.000Z,,Closed,,20-00112285,Standard,1011 IRVING STREET NW,397676.71,140113.44,38.92889725,-77.02679419,WASHINGTON,DC,20010,231290,1
-77.003689471982099,38.960350060791541,206,S0311,Rodent Inspection and Treatment,DOH- Department Of Health,DOH,1,2020-03-25T10:17:36.000Z,2020-03-27T08:11:22.000Z,2020-04-14T10:17:36.000Z,2020-03-25T10:17:36.000Z,1,2020-03-26T11:39:00.000Z,,Closed,,20-00106993,Standard,225 NICHOLSON STREET NE,399680.43,143603.82,38.96034259,-77.00368718,WASHINGTON,DC,20011,49482,4
-76.997499083255249,38.955032064513453,207,S0311,Rodent Inspection and Treatment,DOH- Department Of Health,DOH,1,2020-04-01T12:05:13.000Z,,2020-04-22T12:05:13.000Z,2020-04-01T12:05:13.000Z,,,,Open,,20-00116508,Standard,540 INGRAHAM STREET NE,400216.97,143013.47,38.9550246,-76.9974968,WASHINGTON,DC,20011,9394,5
-77.015675886839773,38.942940309362491,208,S0311,Rodent Inspection and Treatment,DOH- Department Of Health,DOH,1,2020-03-26T14:29:37.000Z,2020-03-30T09:45:20.000Z,2020-04-15T14:29:37.000Z,2020-03-26T14:29:37.000Z,1,2020-03-30T09:45:19.000Z,,Closed,,20-00109129,Standard,4226 3RD STREET NW,398641.23,141671.29,38.94293285,-77.0156736,WASHINGTON,DC,20011,244126,4
-77.005477318052144,38.912840581194779,209,S0311,Rodent Inspection and Treatment,DOH- Department Of Health,DOH,1,2020-03-20T10:56:18.000Z,2020-03-24T07:14:13.000Z,2020-04-09T10:56:18.000Z,2020-03-20T10:56:18.000Z,1,2020-03-24T07:12:00.000Z,,Closed,,20-00101451,Standard,126 R STREET NE,399525.16,138329.86,38.91283279,-77.00547503,WASHINGTON,DC,20002,69406,5
-77.008444381223299,38.911686345903746,210,S0311,Rodent Inspection and Treatment,DOH- Department Of Health,DOH,1,2020-03-17T09:58:50.000Z,2020-03-20T09:15:43.000Z,2020-04-06T09:58:50.000Z,2020-03-17T09:58:50.000Z,1,2020-03-20T09:15:00.000Z,,Closed,,20-00096034,Standard,7 QUINCY PLACE NE,399267.82,138201.75,38.91167889,-77.00844209,WASHINGTON,DC,20002,232,5
-77.026902332718066,38.953909628140018,211,S0311,Rodent Inspection and Treatment,DOH- Department Of Health,DOH,1,2020-03-18T09:22:09.000Z,2020-03-20T08:56:12.000Z,2020-04-07T09:22:09.000Z,2020-03-18T09:22:09.000Z,1,2020-03-19T10:50:00.000Z,,Closed,,20-00097717,Standard,930 INGRAHAM STREET NW,397668.35,142889.21,38.95390216,-77.02690004,WASHINGTON,DC,20011,251675,4
-76.989699010747344,38.947551437146579,212,S0311,Rodent Inspection and Treatment,DOH- Department Of Health,DOH,1,2020-03-20T10:31:17.000Z,2020-03-25T07:20:11.000Z,2020-04-09T10:31:17.000Z,2020-03-20T10:31:17.000Z,1,2020-03-25T07:19:00.000Z,,Closed,,20-00101402,Standard,4801 SOUTH DAKOTA AVENUE NE,400893.15,142183.1,38.94754397,-76.98969673,WASHINGTON,DC,20017,17440,5
-77.00247333803955,38.919525407645502,213,S0311,Rodent Inspection and Treatment,DOH- Department Of Health,DOH,1,2020-04-01T21:25:29.000Z,,2020-04-22T21:25:29.000Z,2020-04-01T21:25:29.000Z,,,,Open,,20-00117333,Standard,230 RHODE ISLAND AVENUE NE,399785.71,139071.92,38.91951795,-77.00247105,WASHINGTON,DC,20002,48939,5
-76.995174823122298,38.958395407407146,214,S0311,Rodent Inspection and Treatment,DOH- Department Of Health,DOH,1,2020-03-27T14:51:40.000Z,,2020-04-17T14:51:40.000Z,2020-03-27T14:51:40.000Z,,,,Open,,20-00110641,Standard,5808 8TH STREET NE,400418.41,143386.84,38.95838794,-76.99517254,WASHINGTON,DC,20011,6335,4
-76.980142371594397,38.9064259819529,215,S0311,Rodent Inspection and Treatment,DOH- Department Of Health,DOH,1,2020-03-25T12:25:50.000Z,2020-03-27T08:50:19.000Z,2020-04-14T12:25:50.000Z,2020-03-25T12:25:50.000Z,1,2020-03-27T08:48:00.000Z,,Closed,,20-00107305,Standard,1239 16TH STREET NE,401722.57,137617.96,38.90641853,-76.98014009,WASHINGTON,DC,20002,70033,5
-77.020937104763846,38.929334159135877,216,S0311,Rodent Inspection and Treatment,DOH- Department Of Health,DOH,1,2020-03-30T22:52:26.000Z,2020-03-31T09:35:35.000Z,2020-04-20T22:52:25.000Z,2020-03-30T22:52:26.000Z,1,2020-03-31T09:35:34.000Z,,Closed,,20-00114013,Standard,539 IRVING STREET NW,398184.78,140160.98,38.9293267,-77.02093481,WASHINGTON,DC,20010,229282,1
-77.042885419128325,38.93351793053202,217,S0311,Rodent Inspection and Treatment,DOH- Department Of Health,DOH,1,2020-03-19T16:31:52.000Z,,2020-04-08T16:31:51.000Z,2020-03-19T16:31:52.000Z,,,,Open,,20-00100702,Standard,1849 MONROE STREET NW,396281.9,140626.08,38.93351047,-77.04288312,WASHINGTON,DC,20010,233794,1
-77.02649062574767,38.943478225344215,218,S0311,Rodent Inspection and Treatment,DOH- Department Of Health,DOH,1,2020-03-25T18:31:49.000Z,,2020-04-14T18:31:49.000Z,2020-03-25T18:31:49.000Z,,,,Open,,20-00108003,Standard,4317 IOWA AVENUE NW,397703.7,141731.22,38.94347076,-77.02648833,WASHINGTON,DC,20011,252613,4
-77.020577189278399,38.87947875399697,219,S0311,Rodent Inspection and Treatment,DOH- Department Of Health,DOH,1,2020-03-30T11:09:51.000Z,,2020-04-20T11:09:51.000Z,2020-03-30T11:09:51.000Z,,,,Open,,20-00112818,Standard,619 I STREET SW,398214.74,134626.62,38.87947097,-77.0205749,WASHINGTON,DC,20024,3805,6
-77.033147799670388,38.913880253903486,220,S0311,Rodent Inspection and Treatment,DOH- Department Of Health,DOH,1,2020-03-30T11:11:58.000Z,,2020-04-20T11:11:58.000Z,2020-03-30T11:11:58.000Z,,,,Open,,20-00112820,Standard,1414 S STREET NW,397125.39,138445.78,38.9138728,-77.03314551,WASHINGTON,DC,20009,240109,2
-77.017832676410919,38.945504118846664,221,S0311,Rodent Inspection and Treatment,DOH- Department Of Health,DOH,1,2020-03-25T12:45:57.000Z,,2020-04-14T12:45:57.000Z,2020-03-25T12:45:57.000Z,,,,Open,,20-00107345,Standard,4500 NEW HAMPSHIRE AVENUE NW,398454.31,141955.93,38.94549666,-77.01783038,WASHINGTON,DC,20011,248194,4
-77.0220511738612,38.936005145596006,222,S0311,Rodent Inspection and Treatment,DOH- Department Of Health,DOH,1,2020-03-24T11:37:22.000Z,,2020-04-13T11:37:22.000Z,2020-03-24T11:37:22.000Z,,,,Open,,20-00105591,Standard,728 QUEBEC PLACE NW,398088.36,140901.54,38.93599769,-77.02204888,WASHINGTON,DC,20010,228400,1
-76.999859099837224,38.96104276388845,223,S0311,Rodent Inspection and Treatment,DOH- Department Of Health,DOH,1,2020-03-24T11:38:19.000Z,2020-03-27T08:20:21.000Z,2020-04-13T11:38:19.000Z,2020-03-24T11:38:19.000Z,1,2020-03-27T09:24:00.000Z,,Closed,,20-00105597,Standard,535 OGLETHORPE STREET NE,400012.41,143680.71,38.9610353,-76.99985681,WASHINGTON,DC,20011,9774,4
-77.00133038776562,38.915349253755892,224,S0311,Rodent Inspection and Treatment,DOH- Department Of Health,DOH,1,2020-03-31T12:01:23.000Z,,2020-04-21T12:01:23.000Z,2020-03-31T12:01:23.000Z,,,,Open,,20-00114887,Standard,311 T STREET NE,399884.82,138608.33,38.9153418,-77.0013281,WASHINGTON,DC,20002,40325,5
-77.001675377265968,38.914994951477418,225,S0311,Rodent Inspection and Treatment,DOH- Department Of Health,DOH,1,2020-03-23T11:11:01.000Z,2020-03-25T07:25:14.000Z,2020-04-10T11:11:01.000Z,2020-03-23T11:11:01.000Z,1,2020-03-25T07:23:00.000Z,,Closed,,20-00103880,Standard,306 SEATON PLACE NE,399854.9,138569,38.91498749,-77.00167309,WASHINGTON,DC,20002,41003,5
-77.024386377391053,38.912816184089884,226,S0311,Rodent Inspection and Treatment,DOH- Department Of Health,DOH,1,2020-03-23T11:13:18.000Z,2020-03-23T12:51:48.000Z,2020-04-10T11:13:18.000Z,2020-03-23T11:13:18.000Z,1,2020-03-23T12:51:48.000Z,,Closed,,20-00103890,Standard,907 R STREET NW,397885.21,138327.42,38.91280873,-77.02438409,WASHINGTON,DC,20001,239617,6
-77.053345209611024,38.928215386456507,323,S0311,Rodent Inspection and Treatment,DOH- Department Of Health,DOH,1,2020-03-12T17:07:06.000Z,2020-03-12T20:47:57.000Z,2020-04-01T17:07:06.000Z,2020-03-12T17:07:06.000Z,1,2020-03-12T20:47:57.000Z,,Closed,,20-00090914,Standard,2331 CATHEDRAL AVENUE NW,395374.66,140037.93,38.92820793,-77.05334291,WASHINGTON,DC,20008,219215,3
-77.041103463318379,38.914691178929608,324,S0311,Rodent Inspection and Treatment,DOH- Department Of Health,DOH,1,2020-03-09T09:14:48.000Z,2020-03-13T11:20:17.000Z,2020-03-27T09:14:48.000Z,2020-03-09T09:14:48.000Z,1,2020-03-13T11:20:16.000Z,,Closed,,20-00084713,Standard,1756 SWANN STREET NW,396435.46,138536.08,38.91468372,-77.04110117,WASHINGTON,DC,20009,241542,2
-77.027398060275203,38.909455134639344,325,S0311,Rodent Inspection and Treatment,DOH- Department Of Health,DOH,1,2020-03-07T12:05:56.000Z,2020-03-11T08:45:15.000Z,2020-03-26T13:05:56.000Z,2020-03-07T12:05:56.000Z,1,2020-03-10T10:10:00.000Z,,Closed,,20-00083617,Standard,1426 11TH STREET NW,397623.9,137954.39,38.90944768,-77.02739577,WASHINGTON,DC,20001,225526,2
-76.988709755908303,38.844435107266669,326,S0311,Rodent Inspection and Treatment,DOH- Department Of Health,DOH,1,2020-03-09T09:15:42.000Z,2020-03-16T12:03:07.000Z,2020-03-27T09:15:42.000Z,2020-03-09T09:15:42.000Z,1,2020-03-16T12:03:06.000Z,,Closed,,20-00084718,Standard,1249 ALABAMA AVENUE SE,400980.32,130736.38,38.84442766,-76.98870748,WASHINGTON,DC,20032,69751,8
-76.958763898043088,38.893739413056167,327,S0311,Rodent Inspection and Treatment,DOH- Department Of Health,DOH,1,2020-03-03T07:16:18.000Z,2020-03-10T09:01:59.000Z,2020-03-23T08:16:18.000Z,2020-03-03T07:16:18.000Z,1,2020-03-20T15:57:13.000Z,,Closed,,20-00077882,Standard,3334 CLAY STREET NE,403577.49,136210.27,38.89373196,-76.95876163,WASHINGTON,DC,20019,36117,7
-77.006154619752664,38.84086904601066,328,S0311,Rodent Inspection and Treatment,DOH- Department Of Health,DOH,1,2020-03-03T08:22:54.000Z,2020-03-05T11:50:15.000Z,2020-03-23T09:22:54.000Z,2020-03-03T08:22:54.000Z,1,2020-03-05T11:50:14.000Z,,Closed,,20-00077973,Standard,131 RALEIGH STREET SE,399465.88,130340.48,38.8408616,-77.00615234,WASHINGTON,DC,20032,68495,8
-77.012396323367071,38.9143728206164,329,S0311,Rodent Inspection and Treatment,DOH- Department Of Health,DOH,1,2020-03-08T08:33:30.000Z,2020-03-09T12:20:08.000Z,2020-03-26T08:33:30.000Z,2020-03-08T08:33:30.000Z,1,2020-03-09T12:20:07.000Z,,Closed,,20-00084030,Standard,1806 1ST STREET NW,398925.11,138500.01,38.91436536,-77.01239404,WASHINGTON,DC,20001,227187,5
-76.930101259286914,38.882977518595887,330,S0311,Rodent Inspection and Treatment,DOH- Department Of Health,DOH,1,2020-04-01T20:19:11.000Z,,2020-04-22T20:19:11.000Z,2020-04-01T20:19:11.000Z,,,,Open,,20-00117303,Standard,5023 QUEEN'S STROLL PLACE SE,406064.93,135017.13,38.88296973,-76.930099,WASHINGTON,DC,20019,305264,7
-77.038054228339561,38.928566834776241,331,S0311,Rodent Inspection and Treatment,DOH- Department Of Health,DOH,1,2020-03-30T08:26:26.000Z,,2020-04-20T08:26:26.000Z,2020-03-30T08:26:26.000Z,,,,Open,,20-00112378,Standard,1640 IRVING STREET NW,396700.55,140076.28,38.92855938,-77.03805193,WASHINGTON,DC,20010,236300,1
-77.016706695288192,38.946998939505029,332,S0311,Rodent Inspection and Treatment,DOH- Department Of Health,DOH,1,2020-03-31T14:51:19.000Z,2020-04-01T08:47:53.000Z,2020-04-21T14:51:19.000Z,2020-03-31T14:51:19.000Z,1,2020-04-01T08:47:53.000Z,,Closed,,20-00115347,Standard,4618 NEW HAMPSHIRE AVENUE NW,398551.95,142121.85,38.94699148,-77.0167044,WASHINGTON,DC,20011,243943,4
-76.979537257847724,38.869656645346836,333,S0311,Rodent Inspection and Treatment,DOH- Department Of Health,DOH,1,2020-03-31T14:58:25.000Z,2020-04-01T08:58:04.000Z,2020-04-21T14:58:25.000Z,2020-03-31T14:58:25.000Z,1,2020-04-01T08:58:04.000Z,,Closed,,20-00115357,Standard,1728 R STREET SE,401775.97,133536.29,38.8696492,-76.97953498,WASHINGTON,DC,20020,56979,8
-77.015678320136189,38.942989944706142,334,S0311,Rodent Inspection and Treatment,DOH- Department Of Health,DOH,1,2020-03-25T10:33:04.000Z,,2020-04-14T10:33:04.000Z,2020-03-25T10:33:04.000Z,,,,Open,,20-00107031,Standard,4228 3RD STREET NW,398641.02,141676.8,38.94298248,-77.01567603,WASHINGTON,DC,20011,244125,4
-76.983870944968317,38.896652848087825,335,S0311,Rodent Inspection and Treatment,DOH- Department Of Health,DOH,1,2020-03-29T17:23:29.000Z,2020-04-01T09:13:02.000Z,2020-04-17T17:23:29.000Z,2020-03-29T17:23:29.000Z,1,2020-04-01T09:13:02.000Z,,Closed,,20-00112125,Standard,516 15TH STREET NE,401399.36,136533,38.89664539,-76.98386867,WASHINGTON,DC,20002,12230,6
-77.02732096115966,38.91165264801149,336,S0311,Rodent Inspection and Treatment,DOH- Department Of Health,DOH,1,2020-03-29T11:59:32.000Z,2020-03-31T07:34:26.000Z,2020-04-17T11:59:32.000Z,2020-03-29T11:59:32.000Z,1,2020-03-31T07:34:25.000Z,,Closed,,20-00111987,Standard,1616 11TH STREET NW,397630.66,138198.33,38.91164519,-77.02731867,WASHINGTON,DC,20001,239072,2
-77.023302597063235,38.952183155195115,337,S0311,Rodent Inspection and Treatment,DOH- Department Of Health,DOH,1,2020-03-27T14:19:07.000Z,2020-03-30T10:23:41.000Z,2020-04-17T14:19:07.000Z,2020-03-27T14:19:07.000Z,1,2020-03-30T10:23:41.000Z,,Closed,,20-00110575,Standard,731 GALLATIN STREET NW,397980.32,142697.47,38.95217569,-77.0233003,WASHINGTON,DC,20011,250136,4
-76.955393492888817,38.887056751776186,338,S0311,Rodent Inspection and Treatment,DOH- Department Of Health,DOH,1,2020-03-16T04:48:45.000Z,2020-03-16T10:29:45.000Z,2020-04-03T04:48:45.000Z,2020-03-16T04:48:45.000Z,1,2020-03-16T10:29:44.000Z,,Closed,,20-00093843,Standard,3532 MINNESOTA AVENUE SE,403870.24,135468.58,38.8870493,-76.95539122,WASHINGTON,DC,20019,33462,7
-77.072207696019532,38.920096231824061,339,S0311,Rodent Inspection and Treatment,DOH- Department Of Health,DOH,1,2020-04-01T06:35:17.000Z,,2020-04-22T06:35:17.000Z,2020-04-01T06:35:17.000Z,,,,Open,,20-00115806,Standard,2254 HALL PLACE NW,393738.39,139137.76,38.92008878,-77.07220539,WASHINGTON,DC,20007,284328,3
-77.011342805279554,38.902209587453648,340,S0311,Rodent Inspection and Treatment,DOH- Department Of Health,DOH,1,2020-04-01T15:26:45.000Z,,2020-04-22T15:26:45.000Z,2020-04-01T15:26:45.000Z,,,,Open,,20-00116992,Standard,64 K STREET NW,399016.31,137149.78,38.90220213,-77.01134052,WASHINGTON,DC,20001,279872,6
-77.019595313316003,38.932091655250119,341,S0311,Rodent Inspection and Treatment,DOH- Department Of Health,DOH,1,2020-03-28T12:36:11.000Z,,2020-04-17T12:36:11.000Z,2020-03-28T12:36:11.000Z,,,,Open,,20-00111422,Standard,455 LURAY PLACE NW,398301.19,140467.06,38.9320842,-77.01959302,WASHINGTON,DC,20010,229056,1
-76.983943741189066,38.902035444186652,342,S0311,Rodent Inspection and Treatment,DOH- Department Of Health,DOH,1,2020-03-17T15:29:33.000Z,2020-03-27T08:47:50.000Z,2020-04-06T15:29:33.000Z,2020-03-17T15:29:33.000Z,1,2020-03-27T08:46:00.000Z,,Closed,,20-00097009,Standard,1219 HOLBROOK STREET NE,401392.94,137130.51,38.90202799,-76.98394146,WASHINGTON,DC,20002,71235,5
-76.985949506107872,38.890749480935298,343,S0311,Rodent Inspection and Treatment,DOH- Department Of Health,DOH,1,2020-03-23T15:22:08.000Z,2020-03-26T07:49:20.000Z,2020-04-10T15:22:08.000Z,2020-03-23T15:22:08.000Z,1,2020-03-26T07:49:20.000Z,,Closed,,20-00104525,Standard,1375 A STREET NE,401219.15,135877.65,38.89074203,-76.98594723,WASHINGTON,DC,20002,65417,6
-77.016246977758755,38.942373609987627,344,S0311,Rodent Inspection and Treatment,DOH- Department Of Health,DOH,1,2020-03-18T13:54:09.000Z,2020-03-20T08:52:23.000Z,2020-04-07T13:54:09.000Z,2020-03-18T13:54:09.000Z,1,2020-03-19T11:23:00.000Z,,Closed,,20-00098468,Standard,321 UPSHUR STREET NW,398591.71,141608.39,38.94236615,-77.01624469,WASHINGTON,DC,20011,244117,4
-77.017396201668433,38.942320926260159,345,S0311,Rodent Inspection and Treatment,DOH- Department Of Health,DOH,1,2020-03-19T17:44:23.000Z,2020-03-23T08:21:35.000Z,2020-04-08T17:44:23.000Z,2020-03-19T17:44:23.000Z,1,2020-03-20T09:45:00.000Z,,Closed,,20-00100789,Standard,403 UPSHUR STREET NW,398492.08,141602.56,38.94231346,-77.01739391,WASHINGTON,DC,20011,248084,4
-76.976428748711996,38.895780924978027,346,S0311,Rodent Inspection and Treatment,DOH- Department Of Health,DOH,1,2020-03-30T13:01:38.000Z,2020-03-31T12:02:34.000Z,2020-04-20T13:01:37.000Z,2020-03-30T13:01:38.000Z,1,2020-03-31T12:02:34.000Z,,Closed,,20-00113131,Standard,438 20TH STREET NE,402044.98,136436.35,38.89577347,-76.97642647,WASHINGTON,DC,20002,22604,7
-76.991770032354736,38.900713380130199,347,S0311,Rodent Inspection and Treatment,DOH- Department Of Health,DOH,1,2020-03-25T08:04:44.000Z,2020-03-26T11:00:16.000Z,2020-04-14T08:04:44.000Z,2020-03-25T08:04:44.000Z,1,2020-03-26T11:00:15.000Z,,Closed,,20-00106763,Standard,812 11TH STREET NE,400714.09,136983.66,38.90070593,-76.99176775,WASHINGTON,DC,20002,80125,6
-77.033386117917573,38.936259644331692,348,S0311,Rodent Inspection and Treatment,DOH- Department Of Health,DOH,1,2020-03-31T18:03:25.000Z,,2020-04-21T18:03:25.000Z,2020-03-31T18:03:25.000Z,,,,Open,,20-00115632,Standard,1408 PERRY PLACE NW,397105.63,140930.09,38.93625218,-77.03338382,WASHINGTON,DC,20010,234736,1
-77.033383512481166,38.936607185301092,349,S0311,Rodent Inspection and Treatment,DOH- Department Of Health,DOH,1,2020-03-31T18:08:04.000Z,,2020-04-21T18:08:03.000Z,2020-03-31T18:08:04.000Z,,,,Open,,20-00115637,Standard,1407 PERRY PLACE NW,397105.87,140968.67,38.93659973,-77.03338122,WASHINGTON,DC,20010,234813,1
-77.023587580517059,38.966562352797766,350,S0311,Rodent Inspection and Treatment,DOH- Department Of Health,DOH,1,2020-03-30T16:41:08.000Z,2020-03-31T10:18:26.000Z,2020-04-20T16:41:08.000Z,2020-03-30T16:41:08.000Z,1,2020-03-31T10:18:25.000Z,,Closed,,20-00113705,Standard,728 SOMERSET PLACE NW,397956.03,144293.7,38.96655489,-77.02358529,WASHINGTON,DC,20011,250631,4
-77.030230296003836,38.916158803005175,351,S0311,Rodent Inspection and Treatment,DOH- Department Of Health,DOH,1,2020-03-27T12:21:00.000Z,,2020-04-17T12:21:00.000Z,2020-03-27T12:21:00.000Z,,,,Open,,20-00110320,Standard,1314 WALLACH PLACE NW,397378.5,138698.63,38.91615135,-77.030228,WASHINGTON,DC,20009,240424,1
-76.993325997088618,38.903299688585989,352,S0311,Rodent Inspection and Treatment,DOH- Department Of Health,DOH,1,2020-03-27T12:27:49.000Z,,2020-04-17T12:27:49.000Z,2020-03-27T12:27:49.000Z,,,,Open,,20-00110343,Standard,906 KENT PLACE NE,400579.1,137270.75,38.90329223,-76.99332372,WASHINGTON,DC,20002,81900,6
-76.999715399303938,38.886733399427847,353,S0311,Rodent Inspection and Treatment,DOH- Department Of Health,DOH,1,2020-03-18T13:46:53.000Z,2020-03-19T14:19:32.000Z,2020-04-07T13:46:53.000Z,2020-03-18T13:46:53.000Z,1,2020-03-19T14:19:00.000Z,,Closed,,20-00098446,Standard,420 SEWARD SQUARE SE,400024.89,135431.74,38.88672595,-76.99971312,WASHINGTON,DC,20003,280008,6
-76.985268554793393,38.891084238350217,354,S0311,Rodent Inspection and Treatment,DOH- Department Of Health,DOH,1,2020-03-26T14:22:46.000Z,2020-03-27T08:32:33.000Z,2020-04-15T14:22:46.000Z,2020-03-26T14:22:46.000Z,1,2020-03-27T08:32:32.000Z,,Closed,,20-00109116,Standard,101 14TH STREET NE,401278.22,135914.82,38.89107679,-76.98526628,WASHINGTON,DC,20002,75941,6
-77.015444093443008,38.902768085711983,355,S0311,Rodent Inspection and Treatment,DOH- Department Of Health,DOH,1,2020-03-31T13:12:10.000Z,2020-04-01T12:42:51.000Z,2020-04-21T13:12:10.000Z,2020-03-31T13:12:10.000Z,1,2020-04-01T12:42:51.000Z,,Closed,,20-00115080,Standard,307 K STREET NW,398660.57,137211.83,38.9027603,-77.0154418,WASHINGTON,DC,20001,312744,6
-77.008063775120178,38.916801576832938,356,S0311,Rodent Inspection and Treatment,DOH- Department Of Health,DOH,1,2020-03-27T16:15:59.000Z,2020-04-01T11:28:17.000Z,2020-04-17T16:15:59.000Z,2020-03-27T16:15:59.000Z,1,2020-04-01T11:28:17.000Z,,Closed,,20-00110815,Standard,23 U STREET NE,399300.88,138769.58,38.91679412,-77.00806149,WASHINGTON,DC,20002,49129,5
-77.065809838726906,38.906997739196704,357,S0311,Rodent Inspection and Treatment,DOH- Department Of Health,DOH,1,2020-03-16T14:39:12.000Z,2020-03-17T11:28:33.000Z,2020-04-03T14:39:11.000Z,2020-03-16T14:39:12.000Z,1,2020-03-17T11:28:33.000Z,,Closed,,20-00094915,Standard,3265 N STREET NW,394292.16,137683.3,38.90698995,-77.06580753,WASHINGTON,DC,20007,272323,2
-77.022996051173877,38.93997140688645,358,S0311,Rodent Inspection and Treatment,DOH- Department Of Health,DOH,1,2020-03-16T14:43:27.000Z,2020-03-17T11:20:06.000Z,2020-04-03T14:43:26.000Z,2020-03-16T14:43:27.000Z,1,2020-03-17T11:20:06.000Z,,Closed,,20-00094926,Standard,731 SHEPHERD STREET NW,398006.55,141341.85,38.93996395,-77.02299376,WASHINGTON,DC,20011,249699,4
-76.975453182861955,38.901119440387788,359,S0311,Rodent Inspection and Treatment,DOH- Department Of Health,DOH,1,2020-03-19T14:22:11.000Z,2020-03-23T07:10:05.000Z,2020-04-08T14:22:11.000Z,2020-03-19T14:22:11.000Z,1,2020-03-23T07:09:00.000Z,,Closed,,20-00100396,Standard,832 20TH STREET NE,402129.45,137028.99,38.90111199,-76.97545091,WASHINGTON,DC,20002,81122,5
-76.992058613925892,38.89631894059827,360,S0311,Rodent Inspection and Treatment,DOH- Department Of Health,DOH,1,2020-04-02T07:45:48.000Z,,2020-04-23T07:45:48.000Z,2020-04-02T07:45:48.000Z,,,,Open,,20-00117490,Standard,1007 MARYLAND AVENUE NE,400689.1,136495.84,38.89631115,-76.99205633,WASHINGTON,DC,20002,76422,6
-77.028656817788146,38.937432158680217,361,S0311,Rodent Inspection and Treatment,DOH- Department Of Health,DOH,1,2020-03-18T08:31:07.000Z,2020-03-24T08:30:50.000Z,2020-04-07T08:31:07.000Z,2020-03-18T08:31:07.000Z,1,2020-03-19T10:00:00.000Z,,Closed,,20-00097583,Standard,1238 QUINCY STREET NW,397515.7,141060.11,38.9374247,-77.02865452,WASHINGTON,DC,20011,224956,4
-77.022198752993972,38.933601882652376,362,S0311,Rodent Inspection and Treatment,DOH- Department Of Health,DOH,1,2020-03-19T23:47:58.000Z,,2020-04-08T23:47:58.000Z,2020-03-19T23:47:58.000Z,,,,Open,,20-00101015,Standard,3532 6TH STREET NW,398075.5,140634.76,38.93359442,-77.02219646,WASHINGTON,DC,20010,226331,1
-76.984795471008184,38.899860219621019,363,S0311,Rodent Inspection and Treatment,DOH- Department Of Health,DOH,1,2020-03-19T09:32:08.000Z,2020-03-19T13:47:16.000Z,2020-04-08T09:32:07.000Z,2020-03-19T09:32:08.000Z,1,2020-03-19T13:47:15.000Z,,Closed,,20-00099512,Standard,1416 MARYLAND AVENUE NE,401319.1,136889.03,38.89985277,-76.98479319,WASHINGTON,DC,20002,286158,6
-77.072092381888012,38.914279170722409,364,S0311,Rodent Inspection and Treatment,DOH- Department Of Health,DOH,1,2020-03-11T14:44:18.000Z,2020-03-13T15:47:29.000Z,2020-03-31T14:44:18.000Z,2020-03-11T14:44:18.000Z,1,2020-03-13T10:50:00.000Z,,Closed,,20-00088857,Standard,3624 S STREET NW,393747.88,138492.01,38.91427172,-77.07209008,WASHINGTON,DC,20007,270449,2
-76.999522464347933,38.877011129025099,365,S0311,Rodent Inspection and Treatment,DOH- Department Of Health,DOH,1,2020-03-07T17:01:37.000Z,2020-03-12T07:53:55.000Z,2020-03-26T18:01:37.000Z,2020-03-07T17:01:37.000Z,1,2020-03-12T07:52:00.000Z,,Closed,,20-00083861,Standard,1100 - 1199 BLOCK OF 5TH STREET SE,400041.634653996,134352.49378943,38.8770033454819,-76.9995201823619,WASHINGTON,DC,20003,815204,6
-76.989816592107019,38.899681678912089,366,S0311,Rodent Inspection and Treatment,DOH- Department Of Health,DOH,1,2020-03-05T16:50:11.000Z,2020-03-16T08:52:04.000Z,2020-03-25T17:50:11.000Z,2020-03-05T16:50:11.000Z,1,2020-03-16T08:52:03.000Z,,Closed,,20-00081965,Standard,1200 LINDEN PLACE NE,400883.55,136869.15,38.89967422,-76.98981431,WASHINGTON,DC,20002,72292,6
-76.990293974241055,38.843737365381173,367,S0311,Rodent Inspection and Treatment,DOH- Department Of Health,DOH,1,2020-03-09T15:01:03.000Z,2020-03-23T08:22:32.000Z,2020-03-27T15:01:03.000Z,2020-03-09T15:01:03.000Z,1,2020-03-16T11:21:00.000Z,,Closed,,20-00085513,Standard,3216 12TH STREET SE,400842.8,130658.91,38.84372992,-76.9902917,WASHINGTON,DC,20032,38423,8
-77.042962577193748,38.909158860368144,368,S0311,Rodent Inspection and Treatment,DOH- Department Of Health,DOH,1,2020-03-06T16:25:07.000Z,2020-03-12T08:21:24.000Z,2020-03-26T17:25:07.000Z,2020-03-06T16:25:07.000Z,1,2020-03-11T10:45:00.000Z,,Closed,,20-00083207,Standard,DUPONT CIRCLE NW AND CONNECTICUT AVENUE NW,396273.937500004,137922.021402616,38.9091510719604,-77.0429602797191,WASHINGTON,DC,20036,913887,2
-77.018066041007799,38.910914680630306,369,S0311,Rodent Inspection and Treatment,DOH- Department Of Health,DOH,1,2020-03-11T13:52:51.000Z,2020-03-16T14:45:23.000Z,2020-03-31T13:52:51.000Z,2020-03-11T13:52:51.000Z,1,2020-03-16T14:45:00.000Z,,Closed,,20-00088724,Standard,440 Q STREET NW,398433.32,138116.21,38.91090723,-77.01806375,WASHINGTON,DC,20001,218221,6
-77.022749911067535,38.951567368422467,370,S0311,Rodent Inspection and Treatment,DOH- Department Of Health,DOH,1,2020-03-08T00:38:34.000Z,2020-03-10T08:39:04.000Z,2020-03-26T01:38:34.000Z,2020-03-08T00:38:34.000Z,1,2020-03-09T11:38:00.000Z,,Closed,,20-00084001,Standard,5021 7TH PLACE NW,398028.21,142629.1,38.9515599,-77.02274762,WASHINGTON,DC,20011,250066,4
-77.024328544319289,38.897073739692459,371,S0311,Rodent Inspection and Treatment,DOH- Department Of Health,DOH,1,2020-03-11T21:57:05.000Z,2020-03-11T21:59:19.000Z,2020-03-31T21:57:05.000Z,2020-03-11T21:57:05.000Z,1,2020-03-11T21:59:00.000Z,,Closed,,20-00089381,Standard,900 F STREET NW,397889.76,136579.88,38.89706629,-77.02432625,WASHINGTON,DC,20004,243269,2
-76.99322788449544,38.921553012071413,372,S0311,Rodent Inspection and Treatment,DOH- Department Of Health,DOH,1,2020-03-12T08:11:10.000Z,2020-03-19T12:39:31.000Z,2020-04-01T08:11:10.000Z,2020-03-12T08:11:10.000Z,1,2020-03-19T12:39:31.000Z,,Closed,,20-00089551,Standard,2401 WASHINGTON PLACE NE,400587.46,139297.02,38.92154522,-76.9932256,WASHINGTON,DC,20018,309338,5
-77.022842755754382,38.947531461939896,373,S0311,Rodent Inspection and Treatment,DOH- Department Of Health,DOH,1,2020-03-13T19:41:44.000Z,2020-03-16T15:04:24.000Z,2020-04-02T19:41:44.000Z,2020-03-13T19:41:44.000Z,1,2020-03-16T11:35:00.000Z,,Closed,,20-00092720,Standard,34 SHERMAN CIRCLE NW,398020.05,142181.08,38.947524,-77.02284046,WASHINGTON,DC,20011,249899,4
-77.019977098450568,38.9297295218228,374,S0311,Rodent Inspection and Treatment,DOH- Department Of Health,DOH,1,2020-03-13T14:43:45.000Z,2020-03-17T10:47:23.000Z,2020-04-02T14:43:45.000Z,2020-03-13T14:43:45.000Z,1,2020-03-17T10:47:22.000Z,,Closed,,20-00092304,Standard,3114 WARDER STREET NW,398268.03,140204.85,38.92972173,-77.01997481,WASHINGTON,DC,20010,229283,1
-77.026752911540967,38.91636278888781,375,S0311,Rodent Inspection and Treatment,DOH- Department Of Health,DOH,1,2020-03-03T14:59:41.000Z,2020-03-05T08:26:39.000Z,2020-03-23T15:59:41.000Z,2020-03-03T14:59:41.000Z,1,2020-03-19T06:43:57.000Z,,Closed,,20-00078956,Standard,1921 11TH STREET NW,397680.08,138721.18,38.91635533,-77.02675062,WASHINGTON,DC,20001,239205,1
-77.02724715745903,38.930937959091771,376,S0311,Rodent Inspection and Treatment,DOH- Department Of Health,DOH,1,2020-03-13T12:36:51.000Z,2020-03-17T11:22:46.000Z,2020-04-02T12:36:51.000Z,2020-03-13T12:36:51.000Z,1,2020-03-17T11:22:46.000Z,,Closed,,20-00091966,Standard,1017 LAMONT STREET NW,397637.7,140339.16,38.9309305,-77.02724486,WASHINGTON,DC,20010,230977,1
-76.994207699261082,38.950352421050567,377,S0311,Rodent Inspection and Treatment,DOH- Department Of Health,DOH,1,2020-03-11T23:00:03.000Z,2020-03-24T07:26:56.000Z,2020-03-31T23:00:03.000Z,2020-03-11T23:00:03.000Z,1,2020-03-24T07:25:00.000Z,,Closed,,20-00089401,Standard,5030 SOUTH DAKOTA AVENUE NE,400502.29,142494,38.95034496,-76.99420541,WASHINGTON,DC,20017,14509,5
-77.029460886636627,38.968453472684821,378,S0311,Rodent Inspection and Treatment,DOH- Department Of Health,DOH,1,2020-03-07T21:25:01.000Z,2020-03-09T14:24:05.000Z,2020-03-26T22:25:01.000Z,2020-03-07T21:25:01.000Z,1,2020-03-10T00:03:00.000Z,,Closed,,20-00083960,Standard,6421 13TH STREET NW,397447.1,144503.78,38.96844601,-77.02945859,WASHINGTON,DC,20012,253273,4
-77.010640804210396,38.907433957486042,379,S0311,Rodent Inspection and Treatment,DOH- Department Of Health,DOH,1,2020-03-09T15:28:42.000Z,2020-03-11T11:06:16.000Z,2020-03-27T15:28:42.000Z,2020-03-09T15:28:42.000Z,1,2020-03-11T11:06:16.000Z,,Closed,,20-00085592,Standard,33 N STREET NW,399077.27,137729.72,38.9074265,-77.01063852,WASHINGTON,DC,20001,237051,5
-77.038481662086866,38.915582879335354,380,S0311,Rodent Inspection and Treatment,DOH- Department Of Health,DOH,1,2020-03-11T14:20:53.000Z,2020-03-13T11:01:34.000Z,2020-03-31T14:20:53.000Z,2020-03-11T14:20:53.000Z,1,2020-03-13T11:01:33.000Z,,Closed,,20-00088794,Standard,17TH STREET NW AND T STREET NW,396662.879994862,138634.967016689,38.9155750894654,-77.0384793656147,WASHINGTON,DC,20009,904108,2
-77.010877513746991,38.912797323470365,381,S0311,Rodent Inspection and Treatment,DOH- Department Of Health,DOH,1,2020-03-13T17:15:41.000Z,2020-03-16T10:09:26.000Z,2020-04-02T17:15:41.000Z,2020-03-13T17:15:41.000Z,1,2020-03-16T10:09:25.000Z,,Closed,,20-00092591,Standard,53 R STREET NW,399056.81,138325.1,38.91278987,-77.01087523,WASHINGTON,DC,20001,226876,5
-77.010935164788691,38.91279551642031,382,S0311,Rodent Inspection and Treatment,DOH- Department Of Health,DOH,1,2020-03-13T17:17:12.000Z,2020-03-16T10:12:48.000Z,2020-04-02T17:17:12.000Z,2020-03-13T17:17:12.000Z,1,2020-03-16T10:12:47.000Z,,Closed,,20-00092596,Standard,55 R STREET NW,399051.81,138324.9,38.91278806,-77.01093288,WASHINGTON,DC,20001,226868,5
-77.05789902791561,38.905624460353096,383,S0311,Rodent Inspection and Treatment,DOH- Department Of Health,DOH,1,2020-03-09T16:06:05.000Z,2020-03-13T15:37:51.000Z,2020-03-27T16:06:05.000Z,2020-03-09T16:06:05.000Z,1,2020-03-14T00:38:00.000Z,,Closed,,20-00085678,Standard,1211 29TH STREET NW,394978.21,137530.39,38.90561701,-77.05789673,WASHINGTON,DC,20007,272098,2
-76.989281543701949,38.902165235595128,384,S0311,Rodent Inspection and Treatment,DOH- Department Of Health,DOH,1,2020-03-11T11:42:27.000Z,2020-03-16T08:45:41.000Z,2020-03-31T11:42:27.000Z,2020-03-11T11:42:27.000Z,1,2020-03-16T08:45:40.000Z,,Closed,,20-00088380,Standard,1207 FLORIDA AVENUE NE,400929.93,137144.85,38.90215778,-76.98927926,WASHINGTON,DC,20002,71855,6
-77.05789902791561,38.905624460353096,385,S0311,Rodent Inspection and Treatment,DOH- Department Of Health,DOH,1,2020-03-09T16:13:30.000Z,2020-03-17T09:28:56.000Z,2020-03-27T16:13:29.000Z,2020-03-09T16:13:30.000Z,1,2020-03-13T12:38:00.000Z,,Closed,,20-00085696,Standard,1211 29TH STREET NW,394978.21,137530.39,38.90561701,-77.05789673,WASHINGTON,DC,20007,272098,2
-77.020491407258731,38.940745775306546,386,S0311,Rodent Inspection and Treatment,DOH- Department Of Health,DOH,1,2020-03-04T16:19:19.000Z,2020-03-11T08:24:58.000Z,2020-03-24T17:19:19.000Z,2020-03-04T16:19:19.000Z,1,2020-03-11T00:24:00.000Z,,Closed,,20-00080597,Standard,536 TAYLOR STREET NW,398223.71,141427.76,38.94073831,-77.02048911,WASHINGTON,DC,20011,247648,4
-77.007491697158301,38.917618580563641,387,S0311,Rodent Inspection and Treatment,DOH- Department Of Health,DOH,1,2020-03-27T16:19:12.000Z,2020-04-01T11:15:55.000Z,2020-04-17T16:19:12.000Z,2020-03-27T16:19:12.000Z,1,2020-04-01T11:15:54.000Z,,Closed,,20-00110827,Standard,46 RHODE ISLAND AVENUE NE,399350.5,138860.27,38.91761112,-77.00748941,WASHINGTON,DC,20002,19470,5
-77.033060637010038,38.919368335642922,388,S0311,Rodent Inspection and Treatment,DOH- Department Of Health,DOH,1,2020-03-26T10:11:46.000Z,,2020-04-15T10:11:45.000Z,2020-03-26T10:11:46.000Z,,,,Open,,20-00108531,Standard,1425 W STREET NW,397133.17,139055,38.91936088,-77.03305834,WASHINGTON,DC,20009,239919,1
-77.033788375620276,38.91936110097712,389,S0311,Rodent Inspection and Treatment,DOH- Department Of Health,DOH,1,2020-03-26T10:14:06.000Z,,2020-04-15T10:14:05.000Z,2020-03-26T10:14:06.000Z,,,,Open,,20-00108535,Standard,1447 W STREET NW,397070.06,139054.22,38.91935364,-77.03378608,WASHINGTON,DC,20009,239947,1
-76.972779054087738,38.896906808003315,390,S0311,Rodent Inspection and Treatment,DOH- Department Of Health,DOH,1,2020-03-31T14:59:30.000Z,,2020-04-21T14:59:30.000Z,2020-03-31T14:59:30.000Z,,,,Open,,20-00115362,Standard,528 24TH STREET NE,402361.55,136561.42,38.89689935,-76.97277678,WASHINGTON,DC,20002,10847,7
-76.973242551815758,38.896989251540667,391,S0311,Rodent Inspection and Treatment,DOH- Department Of Health,DOH,1,2020-03-31T15:05:15.000Z,,2020-04-21T15:05:15.000Z,2020-03-31T15:05:15.000Z,,,,Open,,20-00115376,Standard,535 23RD PLACE NE,402321.34,136570.56,38.8969818,-76.97324028,WASHINGTON,DC,20002,9750,7
-77.038300169893461,38.933834993939101,392,S0311,Rodent Inspection and Treatment,DOH- Department Of Health,DOH,1,2020-03-16T12:59:55.000Z,2020-03-18T10:53:00.000Z,2020-04-03T12:59:55.000Z,2020-03-16T12:59:55.000Z,1,2020-03-18T10:53:00.000Z,,Closed,,20-00094579,Standard,1646 NEWTON STREET NW,396679.47,140661.1,38.93382753,-77.03829787,WASHINGTON,DC,20010,233637,1
-77.002568140555937,38.913537116073989,393,S0311,Rodent Inspection and Treatment,DOH- Department Of Health,DOH,1,2020-03-17T14:51:05.000Z,2020-03-23T07:15:53.000Z,2020-04-06T14:51:05.000Z,2020-03-17T14:51:05.000Z,1,2020-03-23T07:12:00.000Z,,Closed,,20-00096934,Standard,226 RANDOLPH PLACE NE,399777.47,138407.17,38.91352966,-77.00256586,WASHINGTON,DC,20002,49352,5
-77.037741691861001,38.927700606514691,394,S0311,Rodent Inspection and Treatment,DOH- Department Of Health,DOH,1,2020-03-23T12:17:25.000Z,,2020-04-10T12:17:25.000Z,2020-03-23T12:17:25.000Z,,,,Open,,20-00104066,Standard,1616 HOBART STREET NW,396727.61,139980.11,38.92769315,-77.0377394,WASHINGTON,DC,20009,236350,1
-77.047476948795065,38.908052677067168,395,S0311,Rodent Inspection and Treatment,DOH- Department Of Health,DOH,1,2020-03-20T11:57:20.000Z,2020-03-24T10:16:47.000Z,2020-04-09T11:57:20.000Z,2020-03-20T11:57:20.000Z,1,2020-03-24T10:16:46.000Z,,Closed,,20-00101603,Standard,2123 NEWPORT PLACE NW,395882.33,137799.42,38.90804522,-77.04747465,WASHINGTON,DC,20037,242432,2
-76.980998276798829,38.848088201663018,396,S0311,Rodent Inspection and Treatment,DOH- Department Of Health,DOH,1,2020-04-01T09:03:34.000Z,2020-04-01T10:11:17.000Z,2020-04-22T09:03:34.000Z,2020-04-01T09:03:34.000Z,1,2020-04-01T10:11:16.000Z,,Closed,,20-00116067,Standard,3247 STANTON ROAD SE,401649.68,131142.01,38.84808076,-76.980996,WASHINGTON,DC,20020,155566,8
-77.020969108579024,38.935804099307475,397,S0311,Rodent Inspection and Treatment,DOH- Department Of Health,DOH,1,2020-03-19T13:12:39.000Z,,2020-04-08T13:12:39.000Z,2020-03-19T13:12:39.000Z,,,,Open,,20-00100168,Standard,3629 WARDER STREET NW,398182.17,140879.2,38.93579664,-77.02096682,WASHINGTON,DC,20010,228473,1
-76.996901976367596,38.88740178060408,398,S0311,Rodent Inspection and Treatment,DOH- Department Of Health,DOH,1,2020-03-19T13:15:25.000Z,,2020-04-08T13:15:25.000Z,2020-03-19T13:15:25.000Z,,,,Open,,20-00100175,Standard,644 NORTH CAROLINA AVENUE SE,400268.98,135505.94,38.88739433,-76.99689969,WASHINGTON,DC,20003,1836,6
-77.016390887921105,38.955211107316323,399,S0311,Rodent Inspection and Treatment,DOH- Department Of Health,DOH,1,2020-03-15T18:28:17.000Z,2020-03-16T15:11:37.000Z,2020-04-02T18:28:17.000Z,2020-03-15T18:28:17.000Z,1,2020-03-16T10:34:00.000Z,,Closed,,20-00093738,Standard,5324 KANSAS AVENUE NW,398579.49,143033.47,38.95520364,-77.0163886,WASHINGTON,DC,20011,249497,4
-77.008159235147247,38.914647226980648,400,S0311,Rodent Inspection and Treatment,DOH- Department Of Health,DOH,1,2020-03-23T17:54:27.000Z,2020-03-25T07:23:04.000Z,2020-04-10T17:54:27.000Z,2020-03-23T17:54:27.000Z,1,2020-03-25T07:21:00.000Z,,Closed,,20-00104737,Standard,25 SEATON PLACE NE,399292.58,138530.43,38.91463977,-77.00815695,WASHINGTON,DC,20002,46658,5
-77.008715086300597,38.925662749555201,401,S0311,Rodent Inspection and Treatment,DOH- Department Of Health,DOH,1,2020-03-16T15:02:21.000Z,2020-03-19T13:15:28.000Z,2020-04-03T15:02:21.000Z,2020-03-16T15:02:21.000Z,1,2020-03-19T13:15:27.000Z,,Closed,,20-00094963,Standard,2815 NORTH CAPITOL STREET NE,399244.49,139753.25,38.92565529,-77.0087128,WASHINGTON,DC,20002,44416,5
-77.012396323367071,38.9143728206164,402,S0311,Rodent Inspection and Treatment,DOH- Department Of Health,DOH,1,2020-03-26T13:22:21.000Z,2020-04-01T10:16:30.000Z,2020-04-15T13:22:21.000Z,2020-03-26T13:22:21.000Z,1,2020-04-01T10:16:30.000Z,,Closed,,20-00108986,Standard,1806 1ST STREET NW,398925.11,138500.01,38.91436536,-77.01239404,WASHINGTON,DC,20001,227187,5
-77.019087651737408,38.931802752763765,403,S0311,Rodent Inspection and Treatment,DOH- Department Of Health,DOH,1,2020-03-30T12:36:43.000Z,2020-03-31T09:22:35.000Z,2020-04-20T12:36:43.000Z,2020-03-30T12:36:43.000Z,1,2020-03-31T09:22:34.000Z,,Closed,,20-00113071,Standard,414 LURAY PLACE NW,398345.2,140434.98,38.93179529,-77.01908536,WASHINGTON,DC,20010,229068,1
-77.010935164788691,38.91279551642031,404,S0311,Rodent Inspection and Treatment,DOH- Department Of Health,DOH,1,2020-03-16T10:31:11.000Z,2020-03-19T12:37:48.000Z,2020-04-03T10:31:11.000Z,2020-03-16T10:31:11.000Z,1,2020-03-19T12:37:48.000Z,,Closed,,20-00094208,Standard,55 R STREET NW,399051.81,138324.9,38.91278806,-77.01093288,WASHINGTON,DC,20001,226868,5
-76.989912162129585,38.882546857984842,405,S0311,Rodent Inspection and Treatment,DOH- Department Of Health,DOH,1,2020-03-31T07:53:20.000Z,,2020-04-21T07:53:20.000Z,2020-03-31T07:53:20.000Z,,,,Open,,20-00114137,Standard,500 12TH STREET SE,400875.47,134967.05,38.88253907,-76.98990988,WASHINGTON,DC,20003,288394,6
-77.032442174743423,38.933987655937479,406,S0311,Rodent Inspection and Treatment,DOH- Department Of Health,DOH,1,2020-03-16T18:01:23.000Z,2020-03-17T11:34:50.000Z,2020-04-03T18:01:23.000Z,2020-03-16T18:01:23.000Z,1,2020-03-17T11:34:49.000Z,,Closed,,20-00095370,Standard,3461 14TH STREET NW,397187.38,140677.85,38.9339802,-77.03243988,WASHINGTON,DC,20010,230770,1
-77.033952634737673,38.915355228070524,407,S0311,Rodent Inspection and Treatment,DOH- Department Of Health,DOH,1,2020-03-17T12:36:50.000Z,2020-03-19T09:03:08.000Z,2020-04-06T12:36:50.000Z,2020-03-17T12:36:50.000Z,1,2020-03-19T09:03:08.000Z,,Closed,,20-00096528,Standard,1454 T STREET NW,397055.65,138609.54,38.91534777,-77.03395034,WASHINGTON,DC,20009,240024,2
-77.011577295909532,38.914282100614102,408,S0311,Rodent Inspection and Treatment,DOH- Department Of Health,DOH,1,2020-03-23T18:07:33.000Z,2020-03-24T09:14:01.000Z,2020-04-10T18:07:33.000Z,2020-03-23T18:07:33.000Z,1,2020-03-24T09:14:01.000Z,,Closed,,20-00104744,Standard,77 S STREET NW,398996.14,138489.93,38.91427464,-77.01157501,WASHINGTON,DC,20001,227088,5
-76.982101133368971,38.86207378358467,409,S0311,Rodent Inspection and Treatment,DOH- Department Of Health,DOH,1,2020-03-24T12:27:14.000Z,2020-04-01T09:34:00.000Z,2020-04-13T12:27:14.000Z,2020-03-24T12:27:14.000Z,1,2020-04-01T09:33:59.000Z,,Closed,,20-00105740,Standard,2315 GREEN STREET SE,401553.64,132694.49,38.86206634,-76.98209886,WASHINGTON,DC,20020,48805,8
-77.042302461570699,38.931686483884505,410,S0311,Rodent Inspection and Treatment,DOH- Department Of Health,DOH,1,2020-03-26T09:52:33.000Z,,2020-04-15T09:52:33.000Z,2020-03-26T09:52:33.000Z,,,,Open,,20-00108491,Standard,1825 LAMONT STREET NW,396332.35,140422.75,38.93167903,-77.04230016,WASHINGTON,DC,20010,233472,1
-77.021862008793349,38.936733952608499,411,S0311,Rodent Inspection and Treatment,DOH- Department Of Health,DOH,1,2020-03-16T17:31:21.000Z,2020-03-17T11:05:27.000Z,2020-04-03T17:31:21.000Z,2020-03-16T17:31:21.000Z,1,2020-03-17T11:05:26.000Z,,Closed,,20-00095318,Standard,708 ROCK CREEK CHURCH ROAD NW,398104.78,140982.44,38.93672649,-77.02185972,WASHINGTON,DC,20010,228435,1
-77.068112405349822,38.904146536703948,412,S0311,Rodent Inspection and Treatment,DOH- Department Of Health,DOH,1,2020-03-16T17:33:08.000Z,2020-03-17T13:00:09.000Z,2020-04-03T17:33:08.000Z,2020-03-16T17:33:08.000Z,1,2020-03-17T11:00:00.000Z,,Closed,,20-00095321,Standard,3401 WATER STREET NW,394092.21,137366.94,38.90413908,-77.0681101,WASHINGTON,DC,20007,309367,2
-76.98986145072088,38.883356437375333,413,S0311,Rodent Inspection and Treatment,DOH- Department Of Health,DOH,1,2020-03-31T07:56:41.000Z,,2020-04-21T07:56:41.000Z,2020-03-31T07:56:41.000Z,,,,Open,,20-00114148,Standard,420 12TH STREET SE,400879.86,135056.92,38.88334865,-76.98985917,WASHINGTON,DC,20003,294486,6
-77.007903230442338,38.964343030834286,414,S0311,Rodent Inspection and Treatment,DOH- Department Of Health,DOH,1,2020-03-16T12:55:15.000Z,2020-03-17T15:46:52.000Z,2020-04-03T12:55:15.000Z,2020-03-16T12:55:15.000Z,1,2020-03-18T00:33:00.000Z,,Closed,,20-00094560,Standard,6110 1ST PLACE NE,399315.26,144047.1,38.96433556,-77.00790094,WASHINGTON,DC,20011,4779,4
-77.025043725166114,38.935820683240109,415,S0311,Rodent Inspection and Treatment,DOH- Department Of Health,DOH,1,2020-03-24T23:47:13.000Z,,2020-04-13T23:47:13.000Z,2020-03-24T23:47:13.000Z,,,,Open,,20-00106678,Standard,3664 NEW HAMPSHIRE AVENUE NW,397828.9,140881.13,38.93581322,-77.02504143,WASHINGTON,DC,20010,232165,4
-76.976909455657761,38.940273256996235,416,S0311,Rodent Inspection and Treatment,DOH- Department Of Health,DOH,1,2020-03-27T15:32:30.000Z,2020-03-30T11:00:16.000Z,2020-04-17T15:32:29.000Z,2020-03-27T15:32:30.000Z,1,2020-03-30T11:00:15.000Z,,Closed,,20-00110725,Standard,1927 BUNKER HILL ROAD NE,402002.03,141375.36,38.94026579,-76.97690718,WASHINGTON,DC,20018,53722,5
-76.984182572933278,38.868414116350849,417,S0311,Rodent Inspection and Treatment,DOH- Department Of Health,DOH,1,2020-03-18T17:00:27.000Z,2020-03-31T09:48:38.000Z,2020-04-07T17:00:27.000Z,2020-03-18T17:00:27.000Z,1,2020-03-31T09:48:37.000Z,,Closed,,20-00098888,Standard,1422 S STREET SE,401372.87,133398.28,38.86840667,-76.9841803,WASHINGTON,DC,20020,64090,8
-76.994229085457491,38.902767162697941,418,S0311,Rodent Inspection and Treatment,DOH- Department Of Health,DOH,1,2020-03-29T22:21:38.000Z,,2020-04-17T22:21:38.000Z,2020-03-29T22:21:38.000Z,,,,Open,,20-00112246,Standard,814 K STREET NE,400500.77,137211.63,38.90275971,-76.9942268,WASHINGTON,DC,20002,80284,6
-76.988059325823457,38.882648207820509,419,S0311,Rodent Inspection and Treatment,DOH- Department Of Health,DOH,1,2020-03-31T08:00:01.000Z,,2020-04-21T08:00:01.000Z,2020-03-31T08:00:01.000Z,,,,Open,,20-00114159,Standard,502 13TH STREET SE,401036.23,134978.32,38.88264076,-76.98805705,WASHINGTON,DC,20003,15061,6
-77.028609812177763,38.91428619783958,420,S0311,Rodent Inspection and Treatment,DOH- Department Of Health,DOH,1,2020-03-18T21:34:01.000Z,2020-03-20T09:01:27.000Z,2020-04-07T21:34:01.000Z,2020-03-18T21:34:01.000Z,1,2020-03-20T09:00:00.000Z,,Closed,,20-00099200,Standard,1211 S STREET NW,397518.97,138490.71,38.91427874,-77.02860752,WASHINGTON,DC,20009,240838,1
-76.989614964425513,38.881468077367245,421,S0311,Rodent Inspection and Treatment,DOH- Department Of Health,DOH,1,2020-03-21T10:29:29.000Z,,2020-04-09T10:29:29.000Z,2020-03-21T10:29:29.000Z,,,,Open,,20-00102604,Standard,1218 G STREET SE,400901.27,134847.3,38.88146063,-76.98961269,WASHINGTON,DC,20003,71176,6
-77.018664430773143,38.929360037739556,422,S0311,Rodent Inspection and Treatment,DOH- Department Of Health,DOH,1,2020-03-29T14:08:51.000Z,,2020-04-17T14:08:51.000Z,2020-03-29T14:08:51.000Z,,,,Open,,20-00112030,Standard,424 IRVING STREET NW,398381.84,140163.81,38.92935258,-77.01866214,WASHINGTON,DC,20010,229365,1
-77.041246903459395,38.913893440062814,423,S0311,Rodent Inspection and Treatment,DOH- Department Of Health,DOH,1,2020-03-16T14:18:47.000Z,2020-03-17T13:03:14.000Z,2020-04-03T14:18:47.000Z,2020-03-16T14:18:47.000Z,1,2020-03-17T13:03:00.000Z,,Closed,,20-00094845,Standard,1754 S STREET NW,396422.98,138447.53,38.91388598,-77.04124461,WASHINGTON,DC,20009,241640,2
-77.040539002293926,38.928617887144135,424,S0311,Rodent Inspection and Treatment,DOH- Department Of Health,DOH,1,2020-04-01T07:51:44.000Z,,2020-04-22T07:51:44.000Z,2020-04-01T07:51:44.000Z,,,,Open,,20-00115867,Standard,1736 IRVING STREET NW,396485.1,140082.04,38.92861043,-77.0405367,WASHINGTON,DC,20010,236161,1
-77.019770634268909,38.945449306998697,425,S0311,Rodent Inspection and Treatment,DOH- Department Of Health,DOH,1,2020-03-24T13:34:07.000Z,,2020-04-13T13:34:07.000Z,2020-03-24T13:34:07.000Z,,,,Open,,20-00105932,Standard,507 ALLISON STREET NW,398286.31,141949.88,38.94544184,-77.01976834,WASHINGTON,DC,20011,247416,4
-77.042371246367367,38.918955361335158,426,S0311,Rodent Inspection and Treatment,DOH- Department Of Health,DOH,1,2020-04-02T09:24:18.000Z,,2020-04-23T09:24:18.000Z,2020-04-02T09:24:18.000Z,,,,Open,,20-00117678,Standard,1819 WYOMING AVENUE NW,396325.73,139009.49,38.91894791,-77.04236895,WASHINGTON,DC,20009,235452,1
-76.984870557456219,38.868694188880148,427,S0311,Rodent Inspection and Treatment,DOH- Department Of Health,DOH,1,2020-03-16T15:50:16.000Z,,2020-04-03T15:50:16.000Z,2020-03-16T15:50:16.000Z,,,,Open,,20-00095097,Standard,1403 RIDGE PLACE SE,401313.16,133429.36,38.86868674,-76.98486828,WASHINGTON,DC,20020,64954,8
-77.032531780539571,38.911972640847999,428,S0311,Rodent Inspection and Treatment,DOH- Department Of Health,DOH,1,2020-03-28T21:23:19.000Z,2020-03-31T07:38:21.000Z,2020-04-17T21:23:18.000Z,2020-03-28T21:23:19.000Z,1,2020-03-31T07:38:20.000Z,,Closed,,20-00111863,Standard,1409 CORCORAN STREET NW,397178.74,138234,38.91196519,-77.03252949,WASHINGTON,DC,20009,240212,2
-77.061865492242006,38.928077323100815,429,S0311,Rodent Inspection and Treatment,DOH- Department Of Health,DOH,1,2020-03-22T17:19:50.000Z,,2020-04-09T17:19:50.000Z,2020-03-22T17:19:50.000Z,,,,Open,,20-00103368,Standard,3102 HAWTHORNE STREET NW,394635.86,140023.07,38.92806987,-77.06186319,WASHINGTON,DC,20008,220271,3
-77.075094512561918,38.922756643526803,430,S0311,Rodent Inspection and Treatment,DOH- Department Of Health,DOH,1,2020-03-31T11:33:18.000Z,,2020-04-21T11:33:18.000Z,2020-03-31T11:33:18.000Z,,,,Open,,20-00114821,Standard,3803 CALVERT STREET NW,393488.29,139433.29,38.92274919,-77.0750922,WASHINGTON,DC,20007,270377,3
-77.032141514275423,38.934038365680323,431,S0311,Rodent Inspection and Treatment,DOH- Department Of Health,DOH,1,2020-03-31T11:37:35.000Z,,2020-04-21T11:37:35.000Z,2020-03-31T11:37:35.000Z,,,,Open,,20-00114828,Standard,1365 OAK STREET NW,397213.45,140683.47,38.93403091,-77.03213922,WASHINGTON,DC,20010,230750,1
-77.032797788642512,38.96338733625101,432,S0311,Rodent Inspection and Treatment,DOH- Department Of Health,DOH,1,2020-04-01T04:59:32.000Z,,2020-04-22T04:59:31.000Z,2020-04-01T04:59:32.000Z,,,,Open,,20-00115788,Standard,1371 PEABODY STREET NW,397157.72,143941.49,38.96337987,-77.03279549,WASHINGTON,DC,20011,258185,4
-76.998822582295077,38.845302439728023,433,S0311,Rodent Inspection and Treatment,DOH- Department Of Health,DOH,1,2020-03-19T14:47:50.000Z,2020-04-01T10:27:55.000Z,2020-04-08T14:47:50.000Z,2020-03-19T14:47:50.000Z,1,2020-04-01T10:27:55.000Z,,Closed,,20-00100459,Standard,555 NEWCOMB STREET SE,400102.41,130832.6,38.845295,-76.9988203,WASHINGTON,DC,20032,289905,8
-77.047941831663266,38.918621309047658,434,S0311,Rodent Inspection and Treatment,DOH- Department Of Health,DOH,1,2020-03-27T14:30:05.000Z,,2020-04-17T14:30:04.000Z,2020-03-27T14:30:05.000Z,,,,Open,,20-00110605,Standard,CONNECTICUT AVENUE NW AND KALORAMA ROAD NW,395842.624986105,138972.646377017,38.9186135189185,-77.0479395320594,WASHINGTON,DC,20008,902428,NULL
-76.983338045402931,38.86841426916768,435,S0311,Rodent Inspection and Treatment,DOH- Department Of Health,DOH,1,2020-03-27T14:01:04.000Z,2020-03-31T10:12:04.000Z,2020-04-17T14:01:04.000Z,2020-03-27T14:01:04.000Z,1,2020-03-31T10:12:04.000Z,,Closed,,20-00110547,Standard,1506 S STREET SE,401446.16,133398.31,38.86840682,-76.98333577,WASHINGTON,DC,20020,62368,8
-76.989892364979639,38.903517804560579,436,S0311,Rodent Inspection and Treatment,DOH- Department Of Health,DOH,1,2020-03-24T11:43:31.000Z,2020-03-27T07:43:12.000Z,2020-04-13T11:43:31.000Z,2020-03-24T11:43:31.000Z,1,2020-03-27T07:40:00.000Z,,Closed,,20-00105611,Standard,1126 MONTELLO AVENUE NE,400876.93,137294.99,38.90351035,-76.98989008,WASHINGTON,DC,20002,73455,5
-77.021466182934233,38.953290533339782,437,S0311,Rodent Inspection and Treatment,DOH- Department Of Health,DOH,1,2020-03-26T12:35:15.000Z,,2020-04-15T12:35:15.000Z,2020-03-26T12:35:15.000Z,,,,Open,,20-00108860,Standard,641 HAMILTON STREET NW,398139.53,142820.36,38.95328307,-77.02146389,WASHINGTON,DC,20011,246929,4
-77.052676264690845,38.900523247400521,438,S0311,Rodent Inspection and Treatment,DOH- Department Of Health,DOH,1,2020-03-29T12:44:34.000Z,2020-03-30T11:34:10.000Z,2020-04-17T12:44:34.000Z,2020-03-29T12:44:34.000Z,1,2020-03-30T11:34:10.000Z,,Closed,,20-00112003,Standard,2412 I STREET NW,395430.89,136963.84,38.9005158,-77.05267396,WASHINGTON,DC,20037,274020,2
-76.965017113025539,38.875273541893584,439,S0311,Rodent Inspection and Treatment,DOH- Department Of Health,DOH,1,2020-03-24T14:21:30.000Z,2020-03-25T18:34:28.000Z,2020-04-13T14:21:30.000Z,2020-03-24T14:21:30.000Z,1,2020-03-25T18:34:28.000Z,,Closed,,20-00106062,Standard,1205 30TH STREET SE,403035.8,134160.19,38.87526609,-76.96501484,WASHINGTON,DC,20019,71987,7
-77.01012018764456,38.951664091324822,440,S0311,Rodent Inspection and Treatment,DOH- Department Of Health,DOH,1,2020-03-18T11:47:04.000Z,2020-03-20T08:50:56.000Z,2020-04-07T11:47:04.000Z,2020-03-18T11:47:04.000Z,1,2020-03-19T10:05:00.000Z,,Closed,,20-00098080,Standard,44 FARRAGUT PLACE NW,399122.97,142639.64,38.95165663,-77.0101179,WASHINGTON,DC,20011,243562,4
-77.025805578725027,38.909465946921301,441,S0311,Rodent Inspection and Treatment,DOH- Department Of Health,DOH,1,2020-03-30T19:04:14.000Z,,2020-04-20T19:04:14.000Z,2020-03-30T19:04:14.000Z,,,,Open,,20-00113902,Standard,942 P STREET NW,397762.02,137955.55,38.90945849,-77.02580329,WASHINGTON,DC,20001,226019,2
-76.999719170719246,38.894970207054342,442,S0311,Rodent Inspection and Treatment,DOH- Department Of Health,DOH,1,2020-03-31T14:34:54.000Z,,2020-04-21T14:34:54.000Z,2020-03-31T14:34:54.000Z,,,,Open,,20-00115314,Standard,420 D STREET NE,400024.56,136346.09,38.89496275,-76.99971689,WASHINGTON,DC,20002,25690,6
-77.012442059570262,38.919430544155581,443,S0311,Rodent Inspection and Treatment,DOH- Department Of Health,DOH,1,2020-03-18T08:59:42.000Z,2020-03-20T10:25:18.000Z,2020-04-07T08:59:42.000Z,2020-03-18T08:59:42.000Z,1,2020-03-20T10:25:17.000Z,,Closed,,20-00097650,Standard,2204 1ST STREET NW,398921.22,139061.46,38.91942309,-77.01243977,WASHINGTON,DC,20001,227928,5
-77.024899019277015,38.915806213349683,444,S0311,Rodent Inspection and Treatment,DOH- Department Of Health,DOH,1,2020-03-18T09:02:36.000Z,2020-03-20T09:00:22.000Z,2020-04-07T09:02:35.000Z,2020-03-18T09:02:36.000Z,1,2020-03-20T08:57:00.000Z,,Closed,,20-00097654,Standard,923 T STREET NW,397840.84,138659.35,38.91579876,-77.02489673,WASHINGTON,DC,20001,239499,1
-76.996977477349915,38.955357971303869,445,S0311,Rodent Inspection and Treatment,DOH- Department Of Health,DOH,1,2020-03-18T08:02:52.000Z,2020-03-27T07:40:11.000Z,2020-04-07T08:02:52.000Z,2020-03-18T08:02:52.000Z,1,2020-03-27T07:39:00.000Z,,Closed,,20-00097546,Standard,5366 CHILLUM PLACE NE,400262.18,143049.65,38.95535051,-76.99697519,WASHINGTON,DC,20011,9469,5
-77.018313012497842,38.95805914522461,446,S0311,Rodent Inspection and Treatment,DOH- Department Of Health,DOH,1,2020-03-26T23:11:19.000Z,,2020-04-15T23:11:19.000Z,2020-03-26T23:11:19.000Z,,,,Open,,20-00109717,Standard,403 MISSOURI AVENUE NW,398412.95,143349.66,38.95805168,-77.01831072,WASHINGTON,DC,20011,248806,4
-77.013591757109381,38.920762747691882,447,S0311,Rodent Inspection and Treatment,DOH- Department Of Health,DOH,1,2020-03-16T13:21:28.000Z,2020-03-16T14:28:38.000Z,2020-04-03T13:21:28.000Z,2020-03-16T13:21:28.000Z,1,2020-03-16T14:28:37.000Z,,Closed,,20-00094657,Standard,142 BRYANT STREET NW,398821.54,139209.36,38.92075529,-77.01358947,WASHINGTON,DC,20001,228213,5
-76.98979624838222,38.947620449100945,448,S0311,Rodent Inspection and Treatment,DOH- Department Of Health,DOH,1,2020-03-20T11:15:24.000Z,2020-03-25T07:18:35.000Z,2020-04-09T11:15:24.000Z,2020-03-20T11:15:24.000Z,1,2020-03-25T07:18:00.000Z,,Closed,,20-00101509,Standard,4805 SOUTH DAKOTA AVENUE NE,400884.72,142190.76,38.94761299,-76.98979397,WASHINGTON,DC,20017,17282,5
-77.001530107990419,38.915764085128167,449,S0311,Rodent Inspection and Treatment,DOH- Department Of Health,DOH,1,2020-03-15T11:51:35.000Z,2020-03-16T12:43:20.000Z,2020-04-02T11:51:35.000Z,2020-03-15T11:51:35.000Z,1,2020-03-16T12:43:20.000Z,,Closed,,20-00093552,Standard,310 T STREET NE,399867.5,138654.38,38.91575663,-77.00152782,WASHINGTON,DC,20002,40671,5
-77.030024704019098,38.927119285299824,450,S0311,Rodent Inspection and Treatment,DOH- Department Of Health,DOH,1,2020-03-30T21:47:07.000Z,2020-03-31T10:09:30.000Z,2020-04-20T21:47:07.000Z,2020-03-30T21:47:07.000Z,1,2020-03-31T10:09:30.000Z,,Closed,,20-00113993,Standard,2910 13TH STREET NW,397396.73,139915.33,38.92711183,-77.03002241,WASHINGTON,DC,20009,231564,1
-76.972267303263251,38.897000464730006,451,S0311,Rodent Inspection and Treatment,DOH- Department Of Health,DOH,1,2020-03-29T16:09:13.000Z,2020-03-31T11:34:36.000Z,2020-04-17T16:09:13.000Z,2020-03-29T16:09:13.000Z,1,2020-03-31T11:34:35.000Z,,Closed,,20-00112089,Standard,537 24TH STREET NE,402405.94,136571.83,38.89699301,-76.97226503,WASHINGTON,DC,20002,9482,7
-77.010931458480158,38.954806913789113,453,S0311,Rodent Inspection and Treatment,DOH- Department Of Health,DOH,1,2020-03-21T12:57:30.000Z,2020-03-26T09:08:17.000Z,2020-04-09T12:57:30.000Z,2020-03-21T12:57:30.000Z,1,2020-03-24T09:37:00.000Z,,Closed,,20-00102724,Standard,5302 NEW HAMPSHIRE AVENUE NW,399052.69,142988.53,38.95479945,-77.01092917,WASHINGTON,DC,20011,243625,4
-77.004635727580705,38.882757997656327,454,S0311,Rodent Inspection and Treatment,DOH- Department Of Health,DOH,1,2020-03-21T10:17:15.000Z,2020-03-24T09:29:37.000Z,2020-04-09T10:17:15.000Z,2020-03-21T10:17:15.000Z,1,2020-03-24T09:29:37.000Z,,Closed,,20-00102588,Standard,138 DUDDINGTON PLACE SE,399597.98,134990.45,38.88275055,-77.00463344,WASHINGTON,DC,20003,65500,6
-76.986665098526231,38.88511887710478,455,S0311,Rodent Inspection and Treatment,DOH- Department Of Health,DOH,1,2020-03-25T11:31:49.000Z,,2020-04-14T11:31:49.000Z,2020-03-25T11:31:49.000Z,,,,Open,,20-00107161,Standard,305 KENTUCKY AVENUE SE,401157.16,135252.6,38.88511143,-76.98666282,WASHINGTON,DC,20003,41328,6
-76.992355354157013,38.901514262960568,456,S0311,Rodent Inspection and Treatment,DOH- Department Of Health,DOH,1,2020-03-25T19:11:40.000Z,2020-03-26T11:08:26.000Z,2020-04-14T19:11:39.000Z,2020-03-25T19:11:40.000Z,1,2020-03-26T11:08:26.000Z,,Closed,,20-00108032,Standard,1004 I STREET NE,400663.31,137072.56,38.90150681,-76.99235307,WASHINGTON,DC,20002,76295,6
-77.025280047993988,38.951734762869989,457,S0311,Rodent Inspection and Treatment,DOH- Department Of Health,DOH,1,2020-03-26T12:39:26.000Z,2020-03-30T10:42:18.000Z,2020-04-15T12:39:26.000Z,2020-03-26T12:39:26.000Z,1,2020-03-30T10:42:17.000Z,,Closed,,20-00108875,Standard,820 GALLATIN STREET NW,397808.9,142647.74,38.9517273,-77.02527775,WASHINGTON,DC,20011,251829,4
-76.972550147108308,38.872852115154963,458,S0311,Rodent Inspection and Treatment,DOH- Department Of Health,DOH,1,2020-03-31T12:09:36.000Z,2020-04-01T09:11:10.000Z,2020-04-21T12:09:36.000Z,2020-03-31T12:09:36.000Z,1,2020-04-01T09:11:10.000Z,,Closed,,20-00114904,Standard,2322 MINNESOTA AVENUE SE,402382.21,133891.17,38.87284467,-76.97254787,WASHINGTON,DC,20020,48523,8
-76.994107919285,38.902768868239683,459,S0311,Rodent Inspection and Treatment,DOH- Department Of Health,DOH,1,2020-03-31T12:15:39.000Z,2020-04-01T10:49:37.000Z,2020-04-21T12:15:39.000Z,2020-03-31T12:15:39.000Z,1,2020-04-01T10:49:36.000Z,,Closed,,20-00114924,Standard,818 K STREET NE,400511.28,137211.82,38.90276141,-76.99410564,WASHINGTON,DC,20002,80521,6
-77.007391648997739,38.948047202475529,460,S0311,Rodent Inspection and Treatment,DOH- Department Of Health,DOH,1,2020-03-29T23:38:14.000Z,,2020-04-17T23:38:14.000Z,2020-03-29T23:38:14.000Z,,,,Open,,20-00112261,Standard,39 CRITTENDEN STREET NE,399359.45,142238.11,38.94803974,-77.00738936,WASHINGTON,DC,20011,29802,5
-77.022508400127293,38.948847816619804,461,S0311,Rodent Inspection and Treatment,DOH- Department Of Health,DOH,1,2020-04-01T07:22:35.000Z,2020-04-01T09:44:10.000Z,2020-04-22T07:22:35.000Z,2020-04-01T07:22:35.000Z,1,2020-04-01T09:44:09.000Z,,Closed,,20-00115841,Standard,4813 ILLINOIS AVENUE NW,398049.07,142327.2,38.94884035,-77.02250611,WASHINGTON,DC,20011,249932,4
-77.029934007847899,38.967381281301471,452,S0311,Rodent Inspection and Treatment,DOH- Department Of Health,DOH,1,2020-03-23T09:33:40.000Z,,2020-04-10T09:33:39.000Z,2020-03-23T09:33:40.000Z,,,,Open,,20-00103717,Standard,6336 13TH STREET NW,397406.06,144384.77,38.96737381,-77.02993171,WASHINGTON,DC,20011,257516,4
-77.010701215544984,38.907415935270812,227,S0311,Rodent Inspection and Treatment,DOH- Department Of Health,DOH,1,2020-03-20T17:35:37.000Z,2020-03-24T08:49:49.000Z,2020-04-09T17:35:37.000Z,2020-03-20T17:35:37.000Z,1,2020-03-24T08:49:49.000Z,,Closed,,20-00102277,Standard,35 N STREET NW,399072.03,137727.72,38.90740848,-77.01069893,WASHINGTON,DC,20001,237052,5
-77.013057720420548,38.950300397727993,228,S0311,Rodent Inspection and Treatment,DOH- Department Of Health,DOH,1,2020-03-20T16:01:53.000Z,2020-03-26T09:10:46.000Z,2020-04-09T16:01:53.000Z,2020-03-20T16:01:53.000Z,1,2020-03-24T09:54:00.000Z,,Closed,,20-00102142,Standard,4916 1ST STREET NW,398868.32,142488.29,38.95029293,-77.01305543,WASHINGTON,DC,20011,243675,4
-76.980505858958509,38.863922055606764,229,S0311,Rodent Inspection and Treatment,DOH- Department Of Health,DOH,1,2020-03-20T16:07:43.000Z,2020-04-01T09:26:38.000Z,2020-04-09T16:07:43.000Z,2020-03-20T16:07:43.000Z,1,2020-04-01T09:26:37.000Z,,Closed,,20-00102152,Standard,1645 V STREET SE,401692.05,132899.69,38.86391461,-76.98050358,WASHINGTON,DC,20020,58521,8
-76.989983143695639,38.906465165069505,230,S0311,Rodent Inspection and Treatment,DOH- Department Of Health,DOH,1,2020-03-30T09:59:43.000Z,,2020-04-20T09:59:43.000Z,2020-03-30T09:59:43.000Z,,,,Open,,20-00112604,Standard,1405 WEST VIRGINIA AVENUE NE,400869.02,137622.17,38.90645771,-76.98998086,WASHINGTON,DC,20002,65035,5
-76.99399738637122,38.936712421915075,231,S0311,Rodent Inspection and Treatment,DOH- Department Of Health,DOH,1,2020-03-16T16:09:58.000Z,2020-03-24T07:30:53.000Z,2020-04-03T16:09:58.000Z,2020-03-16T16:09:58.000Z,1,2020-03-24T07:27:00.000Z,,Closed,,20-00095156,Standard,3746 10TH STREET NE,400520.62,140979.84,38.93670463,-76.9939951,WASHINGTON,DC,20017,30930,5
-76.930505566768872,38.898130211978383,232,S0311,Rodent Inspection and Treatment,DOH- Department Of Health,DOH,1,2020-03-30T08:29:06.000Z,2020-03-31T10:57:41.000Z,2020-04-20T08:29:06.000Z,2020-03-30T08:29:06.000Z,1,2020-03-31T10:57:40.000Z,,Closed,,20-00112382,Standard,4933 NANNIE HELEN BURROUGHS AVENUE NE,406028.57,136699.17,38.89812242,-76.9305033,WASHINGTON,DC,20019,302116,7
-76.971850971751266,38.868827172826322,233,S0311,Rodent Inspection and Treatment,DOH- Department Of Health,DOH,1,2020-03-16T11:09:33.000Z,2020-03-31T09:32:52.000Z,2020-04-03T11:09:33.000Z,2020-03-16T11:09:33.000Z,1,2020-03-31T09:32:51.000Z,,Closed,,20-00094302,Standard,2405 RIDGE PLACE SE,402443.02,133444.39,38.86881972,-76.9718487,WASHINGTON,DC,20020,47725,8
-76.99399738637122,38.936712421915075,234,S0311,Rodent Inspection and Treatment,DOH- Department Of Health,DOH,1,2020-03-16T09:07:07.000Z,2020-03-24T07:33:32.000Z,2020-04-03T09:07:07.000Z,2020-03-16T09:07:07.000Z,1,2020-03-24T07:33:00.000Z,,Closed,,20-00094007,Standard,3746 10TH STREET NE,400520.62,140979.84,38.93670463,-76.9939951,WASHINGTON,DC,20017,30930,5
-77.013540996783391,38.950403037084676,235,S0311,Rodent Inspection and Treatment,DOH- Department Of Health,DOH,1,2020-03-23T07:34:11.000Z,,2020-04-10T07:34:11.000Z,2020-03-23T07:34:11.000Z,,,,Open,,20-00103559,Standard,4913 NEW HAMPSHIRE AVENUE NW,398826.43,142499.69,38.95039557,-77.01353871,WASHINGTON,DC,20011,243652,4
-77.020041212278713,38.941593533622459,236,S0311,Rodent Inspection and Treatment,DOH- Department Of Health,DOH,1,2020-03-24T13:07:13.000Z,,2020-04-13T13:07:13.000Z,2020-03-24T13:07:13.000Z,,,,Open,,20-00105857,Standard,4131 NEW HAMPSHIRE AVENUE NW,398262.76,141521.86,38.94158607,-77.02003892,WASHINGTON,DC,20011,247549,4
-76.995726771727021,38.877731599357304,237,S0311,Rodent Inspection and Treatment,DOH- Department Of Health,DOH,1,2020-03-30T12:17:20.000Z,,2020-04-20T12:17:20.000Z,2020-03-30T12:17:20.000Z,,,,Open,,20-00113015,Standard,710 L STREET SE,400370.99,134432.48,38.87772415,-76.99572449,WASHINGTON,DC,20003,76856,6
-76.993503171809905,38.95038832705319,238,S0311,Rodent Inspection and Treatment,DOH- Department Of Health,DOH,1,2020-03-26T19:28:39.000Z,,2020-04-15T19:28:39.000Z,2020-03-26T19:28:39.000Z,,,,Open,,20-00109551,Standard,5015 SOUTH DAKOTA AVENUE NE,400563.36,142497.99,38.95038086,-76.99350089,WASHINGTON,DC,20017,14965,5
-77.037498988783369,38.928033451802008,239,S0311,Rodent Inspection and Treatment,DOH- Department Of Health,DOH,1,2020-03-30T16:49:17.000Z,2020-03-31T10:35:57.000Z,2020-04-20T16:49:17.000Z,2020-03-30T16:49:17.000Z,1,2020-03-31T10:35:56.000Z,,Closed,,20-00113717,Standard,1607 HOBART STREET NW,396748.67,140017.05,38.92802599,-77.03749669,WASHINGTON,DC,20009,236317,1
-77.003986184394748,38.918328068761852,240,S0311,Rodent Inspection and Treatment,DOH- Department Of Health,DOH,1,2020-03-15T22:33:33.000Z,2020-03-16T12:25:47.000Z,2020-04-02T22:33:32.000Z,2020-03-15T22:33:33.000Z,1,2020-03-16T12:25:46.000Z,,Closed,,20-00093808,Standard,155 RHODE ISLAND AVENUE NE,399654.51,138939.01,38.91832061,-77.0039839,WASHINGTON,DC,20002,60737,5
-77.001530107990419,38.915764085128167,241,S0311,Rodent Inspection and Treatment,DOH- Department Of Health,DOH,1,2020-03-22T19:19:04.000Z,2020-03-24T11:39:16.000Z,2020-04-09T19:19:04.000Z,2020-03-22T19:19:04.000Z,1,2020-03-24T11:39:16.000Z,,Closed,,20-00103428,Standard,310 T STREET NE,399867.5,138654.38,38.91575663,-77.00152782,WASHINGTON,DC,20002,40671,5
-77.002694024058869,38.897538011093836,242,S0311,Rodent Inspection and Treatment,DOH- Department Of Health,DOH,1,2020-03-28T13:04:21.000Z,2020-04-01T13:41:56.000Z,2020-04-17T13:04:21.000Z,2020-03-28T13:04:21.000Z,1,2020-04-01T13:41:55.000Z,,Closed,,20-00111443,Standard,220 F STREET NE,399766.5,136631.14,38.89753056,-77.00269174,WASHINGTON,DC,20002,50713,6
-77.008283764868665,38.914644155382071,243,S0311,Rodent Inspection and Treatment,DOH- Department Of Health,DOH,1,2020-03-30T10:35:32.000Z,2020-04-01T11:48:39.000Z,2020-04-20T10:35:32.000Z,2020-03-30T10:35:32.000Z,1,2020-04-01T11:48:38.000Z,,Closed,,20-00112709,Standard,21 SEATON PLACE NE,399281.78,138530.09,38.9146367,-77.00828148,WASHINGTON,DC,20002,52029,5
-76.999430018378774,38.886216767689028,244,S0311,Rodent Inspection and Treatment,DOH- Department Of Health,DOH,1,2020-03-21T22:32:59.000Z,2020-03-23T09:46:39.000Z,2020-04-09T22:32:59.000Z,2020-03-21T22:32:59.000Z,1,2020-03-23T09:46:38.000Z,,Closed,,20-00103037,Standard,SEWARD SQUARE,400049.65,135374.39,38.88620932,-76.99942774,WASHINGTON,DC,20003,294397,6
-77.003086184527689,38.913164158316015,245,S0311,Rodent Inspection and Treatment,DOH- Department Of Health,DOH,1,2020-03-24T14:01:10.000Z,2020-03-26T12:45:48.000Z,2020-04-13T14:01:10.000Z,2020-03-24T14:01:10.000Z,1,2020-03-26T12:45:48.000Z,,Closed,,20-00106017,Standard,207 RANDOLPH PLACE NE,399732.54,138365.77,38.9131567,-77.0030839,WASHINGTON,DC,20002,52103,5
-77.076298392986956,38.965284539151625,246,S0311,Rodent Inspection and Treatment,DOH- Department Of Health,DOH,1,2020-03-24T16:31:36.000Z,,2020-04-13T16:31:36.000Z,2020-03-24T16:31:36.000Z,,,,Open,,20-00106379,Standard,5612 CONNECTICUT AVENUE NW,393387.84,144154.35,38.96527707,-77.07629608,WASHINGTON,DC,20015,263861,3
-77.003097629791739,38.913860052142496,247,S0311,Rodent Inspection and Treatment,DOH- Department Of Health,DOH,1,2020-03-18T10:11:00.000Z,2020-03-23T07:24:35.000Z,2020-04-07T10:11:00.000Z,2020-03-18T10:11:00.000Z,1,2020-03-23T07:22:00.000Z,,Closed,,20-00097844,Standard,203 S STREET NE,399731.55,138443.02,38.9138526,-77.00309534,WASHINGTON,DC,20002,52487,5
-77.014376662615845,38.910233891902188,248,S0311,Rodent Inspection and Treatment,DOH- Department Of Health,DOH,1,2020-03-29T18:19:49.000Z,2020-04-01T09:59:56.000Z,2020-04-17T18:19:49.000Z,2020-03-29T18:19:49.000Z,1,2020-04-01T09:59:55.000Z,,Closed,,20-00112144,Standard,222 BATES STREET NW,398753.29,138040.58,38.91022644,-77.01437437,WASHINGTON,DC,20001,237859,5
-77.015670815894893,38.91725059018281,249,S0311,Rodent Inspection and Treatment,DOH- Department Of Health,DOH,1,2020-04-01T10:01:31.000Z,2020-04-02T07:29:23.000Z,2020-04-22T10:01:31.000Z,2020-04-01T10:01:31.000Z,1,2020-04-02T07:29:23.000Z,,Closed,,20-00116215,Standard,1953 3RD STREET NW,398641.18,138819.51,38.91724313,-77.01566853,WASHINGTON,DC,20001,229719,1
-77.009500477246334,38.894796743088989,250,S0311,Rodent Inspection and Treatment,DOH- Department Of Health,DOH,1,2020-03-21T20:16:15.000Z,,2020-04-09T20:16:15.000Z,2020-03-21T20:16:15.000Z,,,,Open,,20-00102995,Standard,D STREET NW AND LOUISIANA AVENUE NW,399176.030013193,136326.876998553,38.8947889563293,-77.0094981910687,WASHINGTON,DC,20001,901206,6
-77.009439983876305,38.919372991818399,251,S0311,Rodent Inspection and Treatment,DOH- Department Of Health,DOH,1,2020-03-18T11:29:13.000Z,2020-03-19T13:28:03.000Z,2020-04-07T11:29:13.000Z,2020-03-18T11:29:13.000Z,1,2020-03-19T13:28:02.000Z,,Closed,,20-00098036,Standard,5 W STREET NW,399181.56,139055.04,38.91936553,-77.0094377,WASHINGTON,DC,20001,228035,5
-76.994600450745367,38.896306473983159,252,S0311,Rodent Inspection and Treatment,DOH- Department Of Health,DOH,1,2020-04-01T08:35:18.000Z,2020-04-01T08:38:54.000Z,2020-04-22T08:35:17.000Z,2020-04-01T08:35:18.000Z,1,2020-04-01T08:38:53.000Z,,Closed,,20-00115972,Standard,804 E STREET NE,400468.6,136494.44,38.89629902,-76.99459817,WASHINGTON,DC,20002,79738,6
-76.988546757081025,38.893998724085492,253,S0311,Rodent Inspection and Treatment,DOH- Department Of Health,DOH,1,2020-03-25T11:39:37.000Z,2020-03-26T10:03:13.000Z,2020-04-14T11:39:37.000Z,2020-03-25T11:39:37.000Z,1,2020-03-26T10:03:12.000Z,,Closed,,20-00107182,Standard,312 13TH STREET NE,400993.78,136238.31,38.89399127,-76.98854448,WASHINGTON,DC,20002,40146,6
-77.026031241269067,38.939545849063499,254,S0311,Rodent Inspection and Treatment,DOH- Department Of Health,DOH,1,2020-03-31T00:11:54.000Z,2020-03-31T10:45:01.000Z,2020-04-21T00:11:54.000Z,2020-03-31T00:11:54.000Z,1,2020-03-31T10:45:00.000Z,,Closed,,20-00114031,Standard,926 SHEPHERD STREET NW,397743.4,141294.68,38.93953839,-77.02602895,WASHINGTON,DC,20011,225299,4
-77.022501180302825,38.91574472239008,255,S0311,Rodent Inspection and Treatment,DOH- Department Of Health,DOH,1,2020-03-19T08:58:34.000Z,,2020-04-08T08:58:34.000Z,2020-03-19T08:58:34.000Z,,,,Open,,20-00099424,Standard,717 T STREET NW,398048.79,138652.47,38.91573727,-77.02249889,WASHINGTON,DC,20001,238380,1
-77.019829688880236,38.937958813091484,256,S0311,Rodent Inspection and Treatment,DOH- Department Of Health,DOH,1,2020-03-22T05:21:28.000Z,2020-03-25T08:42:08.000Z,2020-04-09T05:21:27.000Z,2020-03-22T05:21:28.000Z,1,2020-03-24T13:29:00.000Z,,Closed,,20-00103081,Standard,521 QUINCY STREET NW,398281.01,141118.37,38.93795135,-77.0198274,WASHINGTON,DC,20011,247777,4
-77.034289124652915,38.90917144425805,257,S0311,Rodent Inspection and Treatment,DOH- Department Of Health,DOH,1,2020-03-23T18:31:00.000Z,2020-03-24T08:30:42.000Z,2020-04-10T18:31:00.000Z,2020-03-23T18:31:00.000Z,1,2020-03-24T08:30:41.000Z,,Closed,,20-00104761,Standard,1405 15TH STREET NW,397026.21,137923.1,38.90916399,-77.03428683,WASHINGTON,DC,20005,276237,2
-76.990335766356665,38.863477546318627,258,S0311,Rodent Inspection and Treatment,DOH- Department Of Health,DOH,1,2020-03-22T22:32:21.000Z,,2020-04-09T22:32:21.000Z,2020-03-22T22:32:21.000Z,,,,Open,,20-00103499,Standard,2226 MARTIN LUTHER KING JR AVENUE SE,400838.94,132850.21,38.8634701,-76.99033349,WASHINGTON,DC,20020,49930,8
-76.977019230959925,38.89564744853282,259,S0311,Rodent Inspection and Treatment,DOH- Department Of Health,DOH,1,2020-03-31T07:08:10.000Z,2020-03-31T12:01:46.000Z,2020-04-21T07:08:10.000Z,2020-03-31T07:08:10.000Z,1,2020-03-31T12:01:45.000Z,,Closed,,20-00114082,Standard,433 19TH STREET NE,401993.76,136421.52,38.89563999,-76.97701695,WASHINGTON,DC,20002,23367,7
-77.05233143212827,38.901122278184985,260,S0311,Rodent Inspection and Treatment,DOH- Department Of Health,DOH,1,2020-03-18T16:38:08.000Z,2020-03-20T11:20:35.000Z,2020-04-07T16:38:08.000Z,2020-03-18T16:38:08.000Z,1,2020-03-20T11:20:35.000Z,,Closed,,20-00098843,Standard,23 SNOWS COURT NW,395460.84,137030.32,38.90111483,-77.05232913,WASHINGTON,DC,20037,273968,2
-77.073596015459202,38.921037096452181,261,S0311,Rodent Inspection and Treatment,DOH- Department Of Health,DOH,1,2020-03-17T11:38:41.000Z,2020-03-19T14:21:26.000Z,2020-04-06T11:38:41.000Z,2020-03-17T11:38:41.000Z,1,2020-03-19T14:21:00.000Z,,Closed,,20-00096341,Standard,2405 TUNLAW ROAD NW,393618.08,139242.3,38.92102964,-77.07359371,WASHINGTON,DC,20007,271809,3
-76.97702878459468,38.895691501328969,262,S0311,Rodent Inspection and Treatment,DOH- Department Of Health,DOH,1,2020-03-23T12:42:10.000Z,2020-03-24T13:11:40.000Z,2020-04-10T12:42:10.000Z,2020-03-23T12:42:10.000Z,1,2020-03-24T13:11:39.000Z,,Closed,,20-00104127,Standard,435 19TH STREET NE,401992.93,136426.41,38.89568405,-76.97702651,WASHINGTON,DC,20002,22839,7
-77.023570812433917,38.930170799975336,263,S0311,Rodent Inspection and Treatment,DOH- Department Of Health,DOH,1,2020-03-24T19:47:12.000Z,,2020-04-13T19:47:12.000Z,2020-03-24T19:47:12.000Z,,,,Open,,20-00106610,Standard,3200 GEORGIA AVENUE NW,397956.44,140253.91,38.93016334,-77.02356852,WASHINGTON,DC,20010,232965,1
-77.014088175768762,38.917186832578729,264,S0311,Rodent Inspection and Treatment,DOH- Department Of Health,DOH,1,2020-03-31T12:56:50.000Z,2020-04-01T11:02:27.000Z,2020-04-21T12:56:50.000Z,2020-03-31T12:56:50.000Z,1,2020-04-01T11:02:26.000Z,,Closed,,20-00115029,Standard,157 U STREET NW,398778.43,138812.41,38.91717938,-77.01408589,WASHINGTON,DC,20001,227547,5
-77.015620766783641,38.9409165142294,265,S0311,Rodent Inspection and Treatment,DOH- Department Of Health,DOH,1,2020-03-17T18:10:41.000Z,2020-03-25T08:58:43.000Z,2020-04-06T18:10:41.000Z,2020-03-17T18:10:41.000Z,1,2020-03-20T13:57:00.000Z,,Closed,,20-00097287,Standard,302 TAYLOR STREET NW,398645.97,141446.63,38.94090905,-77.01561848,WASHINGTON,DC,20011,244229,4
-77.022825912664985,38.956174993460543,266,S0311,Rodent Inspection and Treatment,DOH- Department Of Health,DOH,1,2020-03-16T18:39:40.000Z,2020-03-24T08:43:15.000Z,2020-04-03T18:39:40.000Z,2020-03-16T18:39:40.000Z,1,2020-03-17T10:15:00.000Z,,Closed,,20-00095419,Standard,710 KENNEDY STREET NW,398021.75,143140.59,38.95616753,-77.02282362,WASHINGTON,DC,20011,250244,4
-77.033043776989558,38.940966126145078,267,S0311,Rodent Inspection and Treatment,DOH- Department Of Health,DOH,1,2020-03-24T22:13:09.000Z,,2020-04-13T22:13:09.000Z,2020-03-24T22:13:09.000Z,,,,Open,,20-00106655,Standard,4100 14TH STREET NW,397135.5,141452.54,38.94095867,-77.03304148,WASHINGTON,DC,20011,259163,4
-77.002743402381739,38.913537112087425,268,S0311,Rodent Inspection and Treatment,DOH- Department Of Health,DOH,1,2020-03-17T16:12:44.000Z,2020-03-23T07:19:16.000Z,2020-04-06T16:12:44.000Z,2020-03-17T16:12:44.000Z,1,2020-03-23T07:17:00.000Z,,Closed,,20-00097100,Standard,220 RANDOLPH PLACE NE,399762.27,138407.17,38.91352966,-77.00274112,WASHINGTON,DC,20002,50730,5
-77.027087328908493,38.945262540040211,269,S0311,Rodent Inspection and Treatment,DOH- Department Of Health,DOH,1,2020-03-27T20:26:22.000Z,2020-03-30T10:56:56.000Z,2020-04-17T20:26:22.000Z,2020-03-27T20:26:22.000Z,1,2020-03-30T10:56:55.000Z,,Closed,,20-00111082,Standard,1107 ALLISON STREET NW,397652.03,141929.31,38.94525508,-77.02708503,WASHINGTON,DC,20011,252707,4
-77.000223134597064,38.890763477739483,270,S0311,Rodent Inspection and Treatment,DOH- Department Of Health,DOH,1,2020-03-21T20:53:33.000Z,2020-03-23T11:39:28.000Z,2020-04-09T20:53:33.000Z,2020-03-21T20:53:33.000Z,1,2020-03-23T11:39:28.000Z,,Closed,,20-00103010,Standard,407 A STREET NE,399980.84,135879.11,38.89075569,-77.00022085,WASHINGTON,DC,20002,27263,6
-77.078128978997981,38.945146423156793,271,S0311,Rodent Inspection and Treatment,DOH- Department Of Health,DOH,1,2020-03-31T22:39:34.000Z,,2020-04-21T22:39:34.000Z,2020-03-31T22:39:34.000Z,,,,Open,,20-00115741,Standard,4300 - 4326 BLOCK OF WISCONSIN AVENUE NW,393227.280000006,141918.970003326,38.9451386288122,-77.0781266683691,WASHINGTON,DC,20016,804419,3
-77.073511607934037,38.945539026476595,272,S0311,Rodent Inspection and Treatment,DOH- Department Of Health,DOH,1,2020-03-31T22:39:38.000Z,,2020-04-21T22:39:38.000Z,2020-03-31T22:39:38.000Z,,,,Open,,20-00115742,Standard,3700 - 3799 BLOCK OF WINDOM PLACE NW,393627.590000003,141962.220003326,38.9455312318802,-77.0735092987189,WASHINGTON,DC,20016,806813,3
-76.995701489855492,38.893758232447105,273,S0311,Rodent Inspection and Treatment,DOH- Department Of Health,DOH,1,2020-03-23T12:49:27.000Z,2020-03-26T10:20:16.000Z,2020-04-10T12:49:27.000Z,2020-03-23T12:49:27.000Z,1,2020-03-26T10:20:16.000Z,,Closed,,20-00104148,Standard,708 C STREET NE,400373.1,136211.56,38.89375078,-76.99569921,WASHINGTON,DC,20002,76680,6
-77.023001298780898,38.93907562103233,274,S0311,Rodent Inspection and Treatment,DOH- Department Of Health,DOH,1,2020-03-25T15:47:18.000Z,2020-03-27T08:22:29.000Z,2020-04-14T15:47:18.000Z,2020-03-25T15:47:18.000Z,1,2020-03-26T14:35:00.000Z,,Closed,,20-00107792,Standard,3913 8TH STREET NW,398006.07,141242.41,38.93906816,-77.02299901,WASHINGTON,DC,20011,249661,4
-77.037841665045946,38.91854541550412,275,S0311,Rodent Inspection and Treatment,DOH- Department Of Health,DOH,1,2020-03-31T02:02:16.000Z,,2020-04-21T02:02:16.000Z,2020-03-31T02:02:16.000Z,,,,Open,,20-00114049,Standard,1638 FLORIDA AVENUE NW,396718.52,138963.81,38.91853796,-77.03783937,WASHINGTON,DC,20009,241825,1
-77.022602386401545,38.909817215320302,276,S0311,Rodent Inspection and Treatment,DOH- Department Of Health,DOH,1,2020-03-27T11:42:14.000Z,,2020-04-17T11:42:14.000Z,2020-03-27T11:42:14.000Z,,,,Open,,20-00110241,Standard,751 P STREET NW,398039.85,137994.47,38.90980976,-77.0226001,WASHINGTON,DC,20001,309484,6
-77.058935083574809,38.903173579647088,277,S0311,Rodent Inspection and Treatment,DOH- Department Of Health,DOH,1,2020-03-27T15:02:07.000Z,2020-03-31T07:40:03.000Z,2020-04-17T15:02:07.000Z,2020-03-27T15:02:07.000Z,1,2020-03-31T07:40:03.000Z,,Closed,,20-00110662,Standard,1021 30TH STREET NW,394888.17,137258.38,38.90316613,-77.05893278,WASHINGTON,DC,20007,273816,2
-77.015964776164182,38.949856559398441,278,S0311,Rodent Inspection and Treatment,DOH- Department Of Health,DOH,1,2020-03-17T13:14:05.000Z,2020-03-25T09:06:05.000Z,2020-04-06T13:14:05.000Z,2020-03-17T13:14:05.000Z,1,2020-03-23T10:00:00.000Z,,Closed,,20-00096646,Standard,300 EMERSON STREET NW,398616.32,142439.06,38.9498491,-77.01596248,WASHINGTON,DC,20011,243865,4
-77.022539908962159,38.948896185003612,279,S0311,Rodent Inspection and Treatment,DOH- Department Of Health,DOH,1,2020-03-18T16:44:55.000Z,2020-03-24T08:22:52.000Z,2020-04-07T16:44:55.000Z,2020-03-18T16:44:55.000Z,1,2020-03-19T09:21:00.000Z,,Closed,,20-00098864,Standard,4815 ILLINOIS AVENUE NW,398046.34,142332.57,38.94888872,-77.02253762,WASHINGTON,DC,20011,249933,4
-77.008164853579729,38.915378703454806,280,S0311,Rodent Inspection and Treatment,DOH- Department Of Health,DOH,1,2020-03-22T17:35:55.000Z,2020-03-24T11:00:15.000Z,2020-04-09T17:35:55.000Z,2020-03-22T17:35:55.000Z,1,2020-03-24T11:00:14.000Z,,Closed,,20-00103384,Standard,21 T STREET NE,399292.1,138611.63,38.91537125,-77.00816257,WASHINGTON,DC,20002,52031,5
-77.063615708729799,38.937910753047227,281,S0311,Rodent Inspection and Treatment,DOH- Department Of Health,DOH,1,2020-03-22T19:56:54.000Z,2020-03-24T11:13:34.000Z,2020-04-09T19:56:54.000Z,2020-03-22T19:56:54.000Z,1,2020-03-24T11:13:34.000Z,,Closed,,20-00103446,Standard,3201 ROWLAND PLACE NW,394484.86,141114.77,38.93790329,-77.0636134,WASHINGTON,DC,20008,220721,3
-77.024908751859314,38.925183429239368,282,S0311,Rodent Inspection and Treatment,DOH- Department Of Health,DOH,1,2020-04-01T10:56:37.000Z,2020-04-02T07:41:24.000Z,2020-04-22T10:56:37.000Z,2020-04-01T10:56:37.000Z,1,2020-04-02T07:41:24.000Z,,Closed,,20-00116356,Standard,767 FAIRMONT STREET NW,397840.28,139700.3,38.92517597,-77.02490646,WASHINGTON,DC,20001,232465,1
-77.014198337405347,38.956192034045635,283,S0311,Rodent Inspection and Treatment,DOH- Department Of Health,DOH,1,2020-03-25T12:11:55.000Z,2020-03-27T08:13:43.000Z,2020-04-14T12:11:54.000Z,2020-03-25T12:11:55.000Z,1,2020-03-26T13:31:00.000Z,,Closed,,20-00107267,Standard,216 MISSOURI AVENUE NW,398769.55,143142.33,38.95618457,-77.01419605,WASHINGTON,DC,20011,244805,4
-77.018635690742911,38.92971325822522,284,S0311,Rodent Inspection and Treatment,DOH- Department Of Health,DOH,1,2020-03-15T12:28:50.000Z,2020-03-17T10:50:29.000Z,2020-04-02T12:28:50.000Z,2020-03-15T12:28:50.000Z,1,2020-03-17T10:50:29.000Z,,Closed,,20-00093559,Standard,427 IRVING STREET NW,398384.34,140203.02,38.9297058,-77.0186334,WASHINGTON,DC,20010,229329,1
-77.002509681512677,38.913537117345278,285,S0311,Rodent Inspection and Treatment,DOH- Department Of Health,DOH,1,2020-03-09T16:39:35.000Z,2020-03-11T07:56:55.000Z,2020-03-27T16:39:34.000Z,2020-03-09T16:39:35.000Z,1,2020-03-11T07:56:00.000Z,,Closed,,20-00085757,Standard,228 RANDOLPH PLACE NE,399782.54,138407.17,38.91352966,-77.0025074,WASHINGTON,DC,20002,49256,5
-77.002662471516572,38.913869701797331,286,S0311,Rodent Inspection and Treatment,DOH- Department Of Health,DOH,1,2020-03-09T16:41:46.000Z,2020-03-11T07:54:32.000Z,2020-03-27T16:41:46.000Z,2020-03-09T16:41:46.000Z,1,2020-03-11T07:54:00.000Z,,Closed,,20-00085762,Standard,219 S STREET NE,399769.29,138444.09,38.91386225,-77.00266019,WASHINGTON,DC,20002,50842,5
-77.002507271589863,38.913862768813388,287,S0311,Rodent Inspection and Treatment,DOH- Department Of Health,DOH,1,2020-03-09T16:43:18.000Z,2020-03-11T07:53:10.000Z,2020-03-27T16:43:17.000Z,2020-03-09T16:43:18.000Z,1,2020-03-11T07:52:00.000Z,,Closed,,20-00085766,Standard,229 S STREET NE,399782.75,138443.32,38.91385531,-77.00250499,WASHINGTON,DC,20002,49078,5
-77.035726793035153,38.926729512815406,288,S0311,Rodent Inspection and Treatment,DOH- Department Of Health,DOH,1,2020-03-03T10:49:11.000Z,2020-03-13T09:08:41.000Z,2020-03-23T11:49:11.000Z,2020-03-03T10:49:11.000Z,1,2020-03-17T10:52:47.000Z,,Closed,,20-00078370,Standard,1504 COLUMBIA ROAD NW,396902.28,139872.24,38.92672205,-77.0357245,WASHINGTON,DC,20009,235872,1
-77.002568140555937,38.913537116073989,289,S0311,Rodent Inspection and Treatment,DOH- Department Of Health,DOH,1,2020-03-09T16:45:47.000Z,2020-03-11T07:56:07.000Z,2020-03-27T16:45:47.000Z,2020-03-09T16:45:47.000Z,1,2020-03-11T07:55:00.000Z,,Closed,,20-00085773,Standard,226 RANDOLPH PLACE NE,399777.47,138407.17,38.91352966,-77.00256586,WASHINGTON,DC,20002,49352,5
-77.020675708255297,38.949409460944459,290,S0311,Rodent Inspection and Treatment,DOH- Department Of Health,DOH,1,2020-03-12T12:14:13.000Z,2020-03-13T14:31:37.000Z,2020-04-01T12:14:12.000Z,2020-03-12T12:14:13.000Z,1,2020-03-13T10:17:00.000Z,,Closed,,20-00090230,Standard,4828 KANSAS AVENUE NW,398207.95,142389.51,38.949402,-77.02067342,WASHINGTON,DC,20011,247196,4
-76.980997536420318,38.888957554774677,291,S0311,Rodent Inspection and Treatment,DOH- Department Of Health,DOH,1,2020-03-12T14:12:11.000Z,2020-03-13T13:02:06.000Z,2020-04-01T14:12:11.000Z,2020-03-12T14:12:11.000Z,1,2020-03-13T13:02:05.000Z,,Closed,,20-00090539,Standard,31 17TH STREET SE,401648.8,135678.81,38.8889501,-76.98099526,WASHINGTON,DC,20003,40807,6
-77.018113660265143,38.910916745175705,292,S0311,Rodent Inspection and Treatment,DOH- Department Of Health,DOH,1,2020-03-11T21:08:47.000Z,2020-03-16T14:46:22.000Z,2020-03-31T21:08:47.000Z,2020-03-11T21:08:47.000Z,1,2020-03-16T14:45:00.000Z,,Closed,,20-00089350,Standard,442 Q STREET NW,398429.19,138116.44,38.91090929,-77.01811137,WASHINGTON,DC,20001,218225,6
-76.989281543701949,38.902165235595128,293,S0311,Rodent Inspection and Treatment,DOH- Department Of Health,DOH,1,2020-03-06T19:46:38.000Z,2020-03-16T08:59:34.000Z,2020-03-26T20:46:37.000Z,2020-03-06T19:46:38.000Z,1,2020-03-16T08:59:34.000Z,,Closed,,20-00083349,Standard,1207 FLORIDA AVENUE NE,400929.93,137144.85,38.90215778,-76.98927926,WASHINGTON,DC,20002,71855,6
-77.016895007280667,38.942333791553764,294,S0311,Rodent Inspection and Treatment,DOH- Department Of Health,DOH,1,2020-03-06T20:31:04.000Z,2020-03-09T14:26:55.000Z,2020-03-26T21:31:04.000Z,2020-03-06T20:31:04.000Z,1,2020-03-09T11:34:00.000Z,,Closed,,20-00083362,Standard,4203 4TH STREET NW,398535.53,141603.98,38.94232633,-77.01689272,WASHINGTON,DC,20011,244091,4
-77.012939297485246,38.904852112438995,295,S0311,Rodent Inspection and Treatment,DOH- Department Of Health,DOH,1,2020-03-11T15:27:25.000Z,2020-03-16T08:36:11.000Z,2020-03-31T15:27:25.000Z,2020-03-11T15:27:25.000Z,1,2020-03-16T08:36:10.000Z,,Closed,,20-00088968,Standard,105 PIERCE STREET NW,398877.87,137443.14,38.90484466,-77.01293701,WASHINGTON,DC,20001,243416,6
-77.034809697244569,38.917455088808509,296,S0311,Rodent Inspection and Treatment,DOH- Department Of Health,DOH,1,2020-03-07T11:10:23.000Z,2020-03-09T14:20:07.000Z,2020-03-26T12:10:23.000Z,2020-03-07T11:10:23.000Z,1,2020-03-19T06:46:59.000Z,,Closed,,20-00083578,Standard,2012 15TH STREET NW,396981.41,138842.67,38.91744763,-77.0348074,WASHINGTON,DC,20009,242048,1
-77.001481050749391,38.885559688212901,297,S0311,Rodent Inspection and Treatment,DOH- Department Of Health,DOH,1,2020-03-11T19:57:01.000Z,2020-03-16T14:42:43.000Z,2020-03-31T19:57:01.000Z,2020-03-11T19:57:01.000Z,1,2020-03-16T14:42:00.000Z,,Closed,,20-00089319,Standard,314 NORTH CAROLINA AVENUE SE,399871.7,135301.45,38.8855519,-77.00147877,WASHINGTON,DC,20003,39501,6
-76.970680255776017,38.897628410678585,298,S0311,Rodent Inspection and Treatment,DOH- Department Of Health,DOH,1,2020-03-11T11:32:18.000Z,2020-03-19T08:40:40.000Z,2020-03-31T11:32:18.000Z,2020-03-11T11:32:18.000Z,1,2020-03-19T08:40:39.000Z,,Closed,,20-00088344,Standard,2519 BENNING ROAD NE,402543.59,136641.58,38.89762096,-76.97067798,WASHINGTON,DC,20002,46507,7
-77.068840741262747,38.908028439684216,299,S0311,Rodent Inspection and Treatment,DOH- Department Of Health,DOH,1,2020-03-13T15:57:15.000Z,2020-03-17T15:06:44.000Z,2020-04-02T15:57:15.000Z,2020-03-13T15:57:15.000Z,1,2020-03-17T11:10:00.000Z,,Closed,,20-00092443,Standard,1405 35TH STREET NW,394029.36,137797.91,38.90802099,-77.06883844,WASHINGTON,DC,20007,272491,2
-77.031355167628604,38.895010139724491,300,S0311,Rodent Inspection and Treatment,DOH- Department Of Health,DOH,1,2020-03-14T06:59:27.000Z,2020-04-02T08:42:50.000Z,2020-04-02T06:59:27.000Z,2020-03-14T06:59:27.000Z,1,2020-04-02T08:42:50.000Z,,Closed,,20-00092852,Standard,1350 PENNSYLVANIA AVENUE NW,397280.14,136350.99,38.89500269,-77.03135287,WASHINGTON,DC,20004,293203,2
-77.020748403894387,38.941544044788074,301,S0311,Rodent Inspection and Treatment,DOH- Department Of Health,DOH,1,2020-03-12T09:17:20.000Z,2020-03-17T09:50:11.000Z,2020-04-01T09:17:20.000Z,2020-03-12T09:17:20.000Z,1,2020-03-13T11:20:00.000Z,,Closed,,20-00089732,Standard,4120 NEW HAMPSHIRE AVENUE NW,398201.45,141516.38,38.94153658,-77.02074611,WASHINGTON,DC,20011,247609,4
-76.956068222272719,38.890066256701509,302,S0311,Rodent Inspection and Treatment,DOH- Department Of Health,DOH,1,2020-03-11T11:09:24.000Z,2020-03-19T08:59:06.000Z,2020-03-31T11:09:24.000Z,2020-03-11T11:09:24.000Z,1,2020-03-19T08:59:06.000Z,,Closed,,20-00088285,Standard,3428 EAST CAPITOL STREET NE,403811.54,135802.63,38.8900588,-76.95606595,WASHINGTON,DC,20019,287888,7
-76.989956280821417,38.899092814422133,303,S0311,Rodent Inspection and Treatment,DOH- Department Of Health,DOH,1,2020-03-04T15:20:12.000Z,2020-03-16T08:52:59.000Z,2020-03-24T16:20:12.000Z,2020-03-04T15:20:12.000Z,1,2020-03-16T08:52:58.000Z,,Closed,,20-00080483,Standard,1200 G STREET NE,400871.44,136803.78,38.89908536,-76.989954,WASHINGTON,DC,20002,72283,6
-77.033036074828402,38.963424473251592,304,S0311,Rodent Inspection and Treatment,DOH- Department Of Health,DOH,1,2020-03-05T01:37:12.000Z,2020-03-06T14:39:25.000Z,2020-03-25T02:37:12.000Z,2020-03-05T01:37:12.000Z,1,2020-03-06T10:27:00.000Z,,Closed,,20-00080897,Standard,1385 PEABODY STREET NW,397137.07,143945.62,38.96341701,-77.03303378,WASHINGTON,DC,20011,258182,4
-77.02626757050281,38.954845551460252,305,S0311,Rodent Inspection and Treatment,DOH- Department Of Health,DOH,1,2020-03-12T16:05:59.000Z,2020-03-13T14:33:40.000Z,2020-04-01T16:05:59.000Z,2020-03-12T16:05:59.000Z,1,2020-03-13T10:30:00.000Z,,Closed,,20-00090786,Standard,5323 ILLINOIS AVENUE NW,397723.4,142993.09,38.95483809,-77.02626528,WASHINGTON,DC,20011,254662,4
-77.063074371005854,38.908279875068374,306,S0311,Rodent Inspection and Treatment,DOH- Department Of Health,DOH,1,2020-03-11T22:27:31.000Z,2020-03-13T15:45:51.000Z,2020-03-31T22:27:31.000Z,2020-03-11T22:27:31.000Z,1,2020-03-13T11:30:00.000Z,,Closed,,20-00089397,Standard,3146 1/2 O STREET NW,394529.52,137825.46,38.90827242,-77.06307207,WASHINGTON,DC,20007,303714,2
-76.955859256211369,38.890234724660864,307,S0311,Rodent Inspection and Treatment,DOH- Department Of Health,DOH,1,2020-03-13T07:21:18.000Z,2020-03-19T08:37:56.000Z,2020-04-02T07:21:18.000Z,2020-03-13T07:21:18.000Z,1,2020-03-19T08:37:55.000Z,,Closed,,20-00091293,Standard,10 35TH STREET NE,403829.66,135821.34,38.89022727,-76.95585699,WASHINGTON,DC,20019,76027,7
-76.981038412016218,38.889119982472103,308,S0311,Rodent Inspection and Treatment,DOH- Department Of Health,DOH,1,2020-03-12T14:19:52.000Z,2020-03-16T14:40:23.000Z,2020-04-01T14:19:52.000Z,2020-03-12T14:19:52.000Z,1,2020-03-16T14:39:00.000Z,,Closed,,20-00090556,Standard,23 17TH STREET SE,401645.25,135696.84,38.88911253,-76.98103613,WASHINGTON,DC,20003,49086,6
-77.030190828041128,38.913902855569475,309,S0311,Rodent Inspection and Treatment,DOH- Department Of Health,DOH,1,2020-03-12T13:29:47.000Z,2020-03-16T08:24:58.000Z,2020-04-01T13:29:47.000Z,2020-03-12T13:29:47.000Z,1,2020-03-13T11:28:00.000Z,,Closed,,20-00090443,Standard,1310 S STREET NW,397381.84,138448.2,38.91389507,-77.03018853,WASHINGTON,DC,20009,240496,2
-76.997241230522604,38.954997016557876,310,S0311,Rodent Inspection and Treatment,DOH- Department Of Health,DOH,1,2020-03-11T15:11:50.000Z,2020-03-23T07:36:36.000Z,2020-03-31T15:11:50.000Z,2020-03-11T15:11:50.000Z,1,2020-03-23T07:34:00.000Z,,Closed,,20-00088936,Standard,546 INGRAHAM STREET NE,400239.32,143009.58,38.95498955,-76.99723894,WASHINGTON,DC,20011,8600,5
-76.997979275148026,38.893290669494903,311,S0311,Rodent Inspection and Treatment,DOH- Department Of Health,DOH,1,2020-03-05T20:54:51.000Z,2020-03-16T08:51:18.000Z,2020-03-25T21:54:51.000Z,2020-03-05T20:54:51.000Z,1,2020-03-16T08:51:18.000Z,,Closed,,20-00082160,Standard,606 MASSACHUSETTS AVENUE NE,400175.5,136159.65,38.89328322,-76.99797699,WASHINGTON,DC,20002,5262,6
-77.03877136712569,38.92352878721794,312,S0311,Rodent Inspection and Treatment,DOH- Department Of Health,DOH,1,2020-03-08T18:56:14.000Z,2020-03-09T14:15:18.000Z,2020-03-26T18:56:14.000Z,2020-03-08T18:56:14.000Z,1,2020-03-19T06:48:00.000Z,,Closed,,20-00084350,Standard,2511 17TH STREET NW,396638.13,139517.04,38.92352133,-77.03876907,WASHINGTON,DC,20009,235858,1
-77.035205875434798,38.935150638835744,313,S0311,Rodent Inspection and Treatment,DOH- Department Of Health,DOH,1,2020-03-12T11:36:09.000Z,2020-03-18T10:39:54.000Z,2020-04-01T11:36:09.000Z,2020-03-12T11:36:09.000Z,1,2020-03-18T10:39:54.000Z,,Closed,,20-00090134,Standard,3536 CENTER STREET NW,396947.81,140807.04,38.93514284,-77.03520358,WASHINGTON,DC,20010,234680,1
-77.008063775120178,38.916801576832938,314,S0311,Rodent Inspection and Treatment,DOH- Department Of Health,DOH,1,2020-03-08T13:10:21.000Z,2020-03-10T11:39:05.000Z,2020-03-26T13:10:21.000Z,2020-03-08T13:10:21.000Z,1,2020-03-10T11:39:04.000Z,,Closed,,20-00084147,Standard,23 U STREET NE,399300.88,138769.58,38.91679412,-77.00806149,WASHINGTON,DC,20002,49129,5
-76.954564417214257,38.895206489801673,315,S0311,Rodent Inspection and Treatment,DOH- Department Of Health,DOH,1,2020-03-06T10:19:08.000Z,2020-03-09T09:21:39.000Z,2020-03-26T11:19:08.000Z,2020-03-06T10:19:08.000Z,1,2020-03-20T15:55:46.000Z,,Closed,,20-00082547,Standard,417 36TH STREET NE,403941.72,136373.3,38.89519904,-76.95456215,WASHINGTON,DC,20019,25933,7
-77.044016477391509,38.913644610130568,316,S0311,Rodent Inspection and Treatment,DOH- Department Of Health,DOH,1,2020-03-06T13:53:55.000Z,2020-03-11T08:42:45.000Z,2020-03-26T14:53:55.000Z,2020-03-06T13:53:55.000Z,1,2020-03-10T11:18:00.000Z,,Closed,,20-00082943,Standard,1735 FRASER COURT NW,396182.77,138420.02,38.91363682,-77.04401418,WASHINGTON,DC,20009,306670,2
-76.999922213068871,38.961046277166467,317,S0311,Rodent Inspection and Treatment,DOH- Department Of Health,DOH,1,2020-03-12T08:36:53.000Z,2020-03-17T09:37:08.000Z,2020-04-01T08:36:53.000Z,2020-03-12T08:36:53.000Z,1,2020-03-18T00:16:00.000Z,,Closed,,20-00089607,Standard,533 OGLETHORPE STREET NE,400006.94,143681.1,38.96103881,-76.99991993,WASHINGTON,DC,20011,9915,4
-76.981017292031126,38.884454087811108,318,S0311,Rodent Inspection and Treatment,DOH- Department Of Health,DOH,1,2020-03-13T08:02:44.000Z,2020-03-16T14:39:20.000Z,2020-04-02T08:02:44.000Z,2020-03-13T08:02:44.000Z,1,2020-03-16T14:38:00.000Z,,Closed,,20-00091344,Standard,337 17TH STREET SE,401647.19,135178.89,38.88444664,-76.98101502,WASHINGTON,DC,20003,35520,6
-77.011458761101721,38.914274455214063,319,S0311,Rodent Inspection and Treatment,DOH- Department Of Health,DOH,1,2020-03-06T16:35:27.000Z,2020-03-09T12:31:31.000Z,2020-03-26T17:35:27.000Z,2020-03-06T16:35:27.000Z,1,2020-03-09T12:31:30.000Z,,Closed,,20-00083224,Standard,73 S STREET NW,399006.42,138489.08,38.914267,-77.01145647,WASHINGTON,DC,20001,227086,5
-77.04112770777779,38.905671600432704,320,S0311,Rodent Inspection and Treatment,DOH- Department Of Health,DOH,1,2020-03-06T16:37:01.000Z,2020-03-12T08:22:51.000Z,2020-03-26T17:37:01.000Z,2020-03-06T16:37:01.000Z,1,2020-03-11T10:31:00.000Z,,Closed,,20-00083227,Standard,M STREET NW AND CONNECTICUT AVENUE NW,396432.906266641,137534.833895671,38.9056638126595,-77.0411254110877,WASHINGTON,DC,20036,906262,2
-77.019924498322325,38.929695028970301,321,S0311,Rodent Inspection and Treatment,DOH- Department Of Health,DOH,1,2020-03-12T13:17:23.000Z,2020-03-17T10:49:18.000Z,2020-04-01T13:17:22.000Z,2020-03-12T13:17:23.000Z,1,2020-03-17T10:49:17.000Z,,Closed,,20-00090406,Standard,3112 WARDER STREET NW,398272.59,140201.02,38.92968757,-77.01992221,WASHINGTON,DC,20010,229277,1
-77.010229767678069,38.915376829303483,322,S0311,Rodent Inspection and Treatment,DOH- Department Of Health,DOH,1,2020-03-12T13:19:00.000Z,2020-03-16T11:40:34.000Z,2020-04-01T13:19:00.000Z,2020-03-12T13:19:00.000Z,1,2020-03-16T11:40:33.000Z,,Closed,,20-00090410,Standard,32 T STREET NW,399113.02,138611.44,38.91536937,-77.01022748,WASHINGTON,DC,20001,227315,5
-76.997247874835779,38.884452444754537,1,S0311,Rodent Inspection and Treatment,DOH- Department Of Health,DOH,1,2020-03-09T10:48:28.000Z,2020-03-12T07:49:41.000Z,2020-03-27T10:48:28.000Z,2020-03-09T10:48:28.000Z,1,2020-03-12T07:49:00.000Z,,Closed,,20-00084924,Standard,632 D STREET SE,400238.98,135178.54,38.88444499,-76.99724559,WASHINGTON,DC,20003,2738,6
-77.026781177128555,38.945571684828515,2,S0311,Rodent Inspection and Treatment,DOH- Department Of Health,DOH,1,2020-03-13T10:34:39.000Z,2020-03-16T15:07:01.000Z,2020-04-02T10:34:39.000Z,2020-03-13T10:34:39.000Z,1,2020-03-16T10:06:00.000Z,,Closed,,20-00091676,Standard,4516 GEORGIA AVENUE NW,397678.58,141963.62,38.94556422,-77.02677888,WASHINGTON,DC,20011,252714,4
-76.988856172891929,38.93959947428376,3,S0311,Rodent Inspection and Treatment,DOH- Department Of Health,DOH,1,2020-03-07T18:07:01.000Z,2020-03-11T07:58:50.000Z,2020-03-26T19:07:00.000Z,2020-03-07T18:07:01.000Z,1,2020-03-11T07:58:00.000Z,,Closed,,20-00083900,Standard,1227 MICHIGAN AVENUE NE,400966.32,141300.37,38.93959201,-76.98885389,WASHINGTON,DC,20017,70599,5
-77.021626714425295,38.90708381716459,4,S0311,Rodent Inspection and Treatment,DOH- Department Of Health,DOH,1,2020-03-09T11:11:30.000Z,2020-03-16T08:47:51.000Z,2020-03-27T11:11:29.000Z,2020-03-09T11:11:30.000Z,1,2020-03-16T08:47:50.000Z,,Closed,,20-00084972,Standard,1211 7TH STREET NW,398124.4,137691.02,38.90707636,-77.02162442,WASHINGTON,DC,20001,278936,6
-77.030787691120324,38.911875823396713,5,S0311,Rodent Inspection and Treatment,DOH- Department Of Health,DOH,1,2020-03-06T15:39:38.000Z,2020-03-11T08:48:52.000Z,2020-03-26T16:39:38.000Z,2020-03-06T15:39:38.000Z,1,2020-03-10T10:15:00.000Z,,Closed,,20-00083146,Standard,1300 - 1399 BLOCK OF CORCORAN STREET NW,397330.000000006,138223.200003318,38.9118680339869,-77.0307853972707,WASHINGTON,DC,20009,811946,2
-77.004079405166848,38.917169684229798,6,S0311,Rodent Inspection and Treatment,DOH- Department Of Health,DOH,1,2020-03-09T10:08:16.000Z,2020-03-10T12:00:17.000Z,2020-03-27T10:08:16.000Z,2020-03-09T10:08:16.000Z,1,2020-03-10T12:00:17.000Z,,Closed,,20-00084845,Standard,168 U STREET NE,399646.42,138810.42,38.91716223,-77.00407712,WASHINGTON,DC,20002,58060,5
-77.019065505365333,38.9490452597434,7,S0311,Rodent Inspection and Treatment,DOH- Department Of Health,DOH,1,2020-03-06T14:42:02.000Z,2020-03-11T08:32:18.000Z,2020-03-26T15:42:02.000Z,2020-03-06T14:42:02.000Z,1,2020-03-10T08:27:00.000Z,,Closed,,20-00083042,Standard,450 DELAFIELD PLACE NW,398347.52,142349.05,38.9490378,-77.01906321,WASHINGTON,DC,20011,248319,4
-76.989927519750822,38.912556873342524,8,S0311,Rodent Inspection and Treatment,DOH- Department Of Health,DOH,1,2020-03-05T13:24:26.000Z,2020-03-09T08:09:51.000Z,2020-03-25T14:24:26.000Z,2020-03-05T13:24:26.000Z,1,2020-03-09T08:06:00.000Z,,Closed,,20-00081593,Standard,958 MOUNT OLIVET ROAD NE,400873.77,138298.4,38.91254942,-76.98992524,WASHINGTON,DC,20002,82905,5
-77.02626757050281,38.954845551460252,9,S0311,Rodent Inspection and Treatment,DOH- Department Of Health,DOH,1,2020-03-12T16:00:33.000Z,2020-03-13T14:35:14.000Z,2020-04-01T16:00:33.000Z,2020-03-12T16:00:33.000Z,1,2020-03-13T10:30:00.000Z,,Closed,,20-00090778,Standard,5323 ILLINOIS AVENUE NW,397723.4,142993.09,38.95483809,-77.02626528,WASHINGTON,DC,20011,254662,4
-77.010217830626559,38.828855349502334,10,S0311,Rodent Inspection and Treatment,DOH- Department Of Health,DOH,1,2020-03-06T11:43:13.000Z,2020-03-23T08:23:43.000Z,2020-03-26T12:43:13.000Z,2020-03-06T11:43:13.000Z,1,2020-03-23T11:30:00.000Z,,Closed,,20-00082722,Standard,141 CHESAPEAKE STREET SW,399112.98,129006.91,38.82884791,-77.01021555,WASHINGTON,DC,20032,64742,8
-77.025234055730493,38.950214536347417,11,S0311,Rodent Inspection and Treatment,DOH- Department Of Health,DOH,1,2020-03-13T10:00:36.000Z,2020-03-16T15:08:58.000Z,2020-04-02T10:00:36.000Z,2020-03-13T10:00:36.000Z,1,2020-03-16T10:23:00.000Z,,Closed,,20-00091588,Standard,4911 9TH STREET NW,397812.84,142478.98,38.95020707,-77.02523176,WASHINGTON,DC,20011,251859,4
-77.029513523670786,38.934784315824707,12,S0311,Rodent Inspection and Treatment,DOH- Department Of Health,DOH,1,2020-03-12T15:05:49.000Z,2020-03-18T10:39:09.000Z,2020-04-01T15:05:49.000Z,2020-03-12T15:05:49.000Z,1,2020-03-18T10:39:09.000Z,,Closed,,20-00090644,Standard,3605 13TH STREET NW,397441.33,140766.2,38.93477686,-77.02951123,WASHINGTON,DC,20010,230343,1
-76.983024824957738,38.895642529979732,13,S0311,Rodent Inspection and Treatment,DOH- Department Of Health,DOH,1,2020-03-10T12:01:53.000Z,2020-03-16T08:46:32.000Z,2020-03-30T12:01:53.000Z,2020-03-10T12:01:53.000Z,1,2020-03-16T08:46:31.000Z,,Closed,,20-00086756,Standard,1512 ISHERWOOD STREET NE,401472.78,136420.86,38.89563508,-76.98302255,WASHINGTON,DC,20002,61992,6
-77.015986993195497,38.957871934428006,14,S0311,Rodent Inspection and Treatment,DOH- Department Of Health,DOH,1,2020-03-11T08:36:39.000Z,2020-03-13T14:25:31.000Z,2020-03-31T08:36:38.000Z,2020-03-11T08:36:39.000Z,1,2020-03-13T10:48:00.000Z,,Closed,,20-00087886,Standard,5601 3RD STREET NW,398614.55,143328.84,38.95786447,-77.0159847,WASHINGTON,DC,20011,246185,4
-77.03533651872992,38.912040830132113,15,S0311,Rodent Inspection and Treatment,DOH- Department Of Health,DOH,1,2020-03-11T08:37:25.000Z,2020-03-13T12:56:43.000Z,2020-03-31T08:37:25.000Z,2020-03-11T08:37:25.000Z,1,2020-03-13T12:56:42.000Z,,Closed,,20-00087887,Standard,1517 CORCORAN STREET NW,396935.49,138241.66,38.91203338,-77.03533422,WASHINGTON,DC,20009,242237,2
-77.039938841098589,38.91998271715687,16,S0311,Rodent Inspection and Treatment,DOH- Department Of Health,DOH,1,2020-03-11T08:24:50.000Z,2020-03-13T09:38:58.000Z,2020-03-31T08:24:50.000Z,2020-03-11T08:24:50.000Z,1,2020-03-19T06:48:48.000Z,,Closed,,20-00087868,Standard,2254 ONTARIO ROAD NW,396536.72,139123.44,38.91997526,-77.03993654,WASHINGTON,DC,20009,235638,1
-77.024744085116453,38.964769382187583,17,S0311,Rodent Inspection and Treatment,DOH- Department Of Health,DOH,1,2020-03-09T10:37:16.000Z,2020-03-10T14:47:53.000Z,2020-03-27T10:37:16.000Z,2020-03-09T10:37:16.000Z,1,2020-03-10T10:16:00.000Z,,Closed,,20-00084906,Standard,804 RITTENHOUSE STREET NW,397855.75,144094.69,38.96476192,-77.02474179,WASHINGTON,DC,20011,254229,4
-76.978816372259843,38.934842154903933,18,S0311,Rodent Inspection and Treatment,DOH- Department Of Health,DOH,1,2020-03-08T17:11:01.000Z,2020-03-11T07:58:07.000Z,2020-03-26T17:11:00.000Z,2020-03-08T17:11:01.000Z,1,2020-03-11T07:57:00.000Z,,Closed,,20-00084298,Standard,1819 OTIS STREET NE,401836.85,140772.42,38.93483469,-76.97881409,WASHINGTON,DC,20018,55451,5
-77.031400127489746,38.94163148127754,19,S0311,Rodent Inspection and Treatment,DOH- Department Of Health,DOH,1,2020-03-08T15:02:01.000Z,2020-03-11T08:36:49.000Z,2020-03-26T15:02:00.000Z,2020-03-08T15:02:01.000Z,1,2020-03-10T11:45:00.000Z,,Closed,,20-00084232,Standard,1350 UPSHUR STREET NW,397278.02,141526.35,38.94162369,-77.03139783,WASHINGTON,DC,20011,255302,4
-76.996682277734067,38.890097892108308,20,S0311,Rodent Inspection and Treatment,DOH- Department Of Health,DOH,1,2020-03-10T15:40:08.000Z,2020-03-16T08:33:43.000Z,2020-03-30T15:40:08.000Z,2020-03-10T15:40:08.000Z,1,2020-03-16T08:33:43.000Z,,Closed,,20-00087206,Standard,646 EAST CAPITOL STREET NE,400288.03,135805.23,38.89009044,-76.99668,WASHINGTON,DC,20003,1679,6
-77.031355167628604,38.895010139724491,21,S0311,Rodent Inspection and Treatment,DOH- Department Of Health,DOH,1,2020-03-05T17:31:45.000Z,2020-03-11T09:13:57.000Z,2020-03-25T18:31:44.000Z,2020-03-05T17:31:45.000Z,1,2020-03-11T09:13:00.000Z,,Closed,,20-00082045,Standard,1350 PENNSYLVANIA AVENUE NW,397280.14,136350.99,38.89500269,-77.03135287,WASHINGTON,DC,20004,293203,2
-76.958763898043088,38.893739413056167,22,S0311,Rodent Inspection and Treatment,DOH- Department Of Health,DOH,1,2020-03-10T11:55:20.000Z,2020-03-19T08:56:08.000Z,2020-03-30T11:55:19.000Z,2020-03-10T11:55:20.000Z,1,2020-03-19T08:56:07.000Z,,Closed,,20-00086740,Standard,3334 CLAY STREET NE,403577.49,136210.27,38.89373196,-76.95876163,WASHINGTON,DC,20019,36117,7
-77.017778741097629,38.958196243360931,23,S0311,Rodent Inspection and Treatment,DOH- Department Of Health,DOH,1,2020-03-05T11:01:14.000Z,2020-03-09T09:13:59.000Z,2020-03-25T12:01:14.000Z,2020-03-05T11:01:14.000Z,1,2020-03-06T10:35:00.000Z,,Closed,,20-00081314,Standard,340 MADISON STREET NW,398459.26,143364.87,38.95818878,-77.01777645,WASHINGTON,DC,20011,249417,4
-76.98099743279171,38.888913864123687,24,S0311,Rodent Inspection and Treatment,DOH- Department Of Health,DOH,1,2020-03-10T18:16:19.000Z,2020-03-12T07:48:29.000Z,2020-03-30T18:16:19.000Z,2020-03-10T18:16:19.000Z,1,2020-03-12T07:47:00.000Z,,Closed,,20-00087539,Standard,33 17TH STREET SE,401648.81,135673.96,38.88890641,-76.98099516,WASHINGTON,DC,20003,37281,6
-77.042148422145331,38.920448031942556,25,S0311,Rodent Inspection and Treatment,DOH- Department Of Health,DOH,1,2020-03-06T13:35:05.000Z,2020-03-09T14:17:50.000Z,2020-03-26T14:35:04.000Z,2020-03-06T13:35:05.000Z,1,2020-03-19T06:46:38.000Z,,Closed,,20-00082907,Standard,1800 BELMONT ROAD NW,396345.13,139175.18,38.92044058,-77.04214612,WASHINGTON,DC,20009,235428,1
-77.026777259280848,38.91395314353845,26,S0311,Rodent Inspection and Treatment,DOH- Department Of Health,DOH,1,2020-03-09T21:07:05.000Z,2020-03-16T09:00:51.000Z,2020-03-27T21:07:05.000Z,2020-03-09T21:07:05.000Z,1,2020-03-16T09:00:51.000Z,,Closed,,20-00086072,Standard,1749 11TH STREET NW,397677.89,138453.69,38.91394569,-77.02677497,WASHINGTON,DC,20001,239268,6
-76.925299109219367,38.901981767534224,27,S0311,Rodent Inspection and Treatment,DOH- Department Of Health,DOH,1,2020-03-03T16:34:57.000Z,2020-03-10T09:04:14.000Z,2020-03-23T17:34:56.000Z,2020-03-03T16:34:57.000Z,1,2020-03-20T15:56:52.000Z,,Closed,,20-00079119,Standard,5200 JAY STREET NE,406479.86,137127.08,38.90197431,-76.92529685,WASHINGTON,DC,20019,11760,7
-77.024321073850771,38.94278289670526,28,S0311,Rodent Inspection and Treatment,DOH- Department Of Health,DOH,1,2020-03-03T17:17:05.000Z,2020-03-04T14:35:01.000Z,2020-03-23T18:17:05.000Z,2020-03-03T17:17:05.000Z,1,2020-03-04T11:22:00.000Z,,Closed,,20-00079181,Standard,828 VARNUM STREET NW,397891.76,141653.98,38.94277544,-77.02431878,WASHINGTON,DC,20011,252448,4
-77.030005133855553,38.937068875956982,29,S0311,Rodent Inspection and Treatment,DOH- Department Of Health,DOH,1,2020-03-03T18:43:23.000Z,2020-03-04T14:36:41.000Z,2020-03-23T19:43:23.000Z,2020-03-03T18:43:23.000Z,1,2020-03-04T11:42:00.000Z,,Closed,,20-00079294,Standard,3708 13TH STREET NW,397398.79,141019.82,38.93706142,-77.03000284,WASHINGTON,DC,20010,225284,4
-76.980433229796276,38.902731885589212,30,S0311,Rodent Inspection and Treatment,DOH- Department Of Health,DOH,1,2020-03-10T08:17:22.000Z,2020-03-11T07:51:23.000Z,2020-03-30T08:17:22.000Z,2020-03-10T08:17:22.000Z,1,2020-03-11T07:48:00.000Z,,Closed,,20-00086264,Standard,1628 K STREET NE,401697.43,137207.88,38.90272443,-76.98043095,WASHINGTON,DC,20002,59166,5
-77.045085333044554,38.913624654485538,31,S0311,Rodent Inspection and Treatment,DOH- Department Of Health,DOH,1,2020-03-04T21:30:20.000Z,2020-03-06T08:50:07.000Z,2020-03-24T22:30:20.000Z,2020-03-04T21:30:20.000Z,1,2020-03-05T10:25:00.000Z,,Closed,,20-00080849,Standard,1724 20TH STREET NW,396090.07,138417.85,38.9136172,-77.04508303,WASHINGTON,DC,20009,242571,2
-76.983772194894485,38.853895097815773,32,S0311,Rodent Inspection and Treatment,DOH- Department Of Health,DOH,1,2020-03-09T18:21:50.000Z,2020-03-16T11:54:34.000Z,2020-03-27T18:21:50.000Z,2020-03-09T18:21:50.000Z,1,2020-03-16T11:54:33.000Z,,Closed,,20-00085917,Standard,3026 STANTON ROAD SE,401408.77,131786.57,38.85388765,-76.98376992,WASHINGTON,DC,20020,287398,8
-76.996025972152054,38.941521406619145,33,S0311,Rodent Inspection and Treatment,DOH- Department Of Health,DOH,1,2020-03-05T15:04:39.000Z,2020-03-09T08:17:23.000Z,2020-03-25T16:04:38.000Z,2020-03-05T15:04:39.000Z,1,2020-03-09T08:16:00.000Z,,Closed,,20-00081788,Standard,4351 VARNUM PLACE NE,400344.72,141513.67,38.94151394,-76.99602369,WASHINGTON,DC,20017,22881,5
-77.024589165978455,38.915742319792173,34,S0311,Rodent Inspection and Treatment,DOH- Department Of Health,DOH,1,2020-03-05T19:01:49.000Z,2020-03-13T09:34:18.000Z,2020-03-25T20:01:49.000Z,2020-03-05T19:01:49.000Z,1,2020-03-19T06:45:52.000Z,,Closed,,20-00082106,Standard,913 T STREET NW,397867.71,138652.25,38.91573486,-77.02458687,WASHINGTON,DC,20001,239503,1
-76.996932617481647,38.879783298954955,35,S0311,Rodent Inspection and Treatment,DOH- Department Of Health,DOH,1,2020-03-10T10:16:12.000Z,2020-03-12T07:49:08.000Z,2020-03-30T10:16:11.000Z,2020-03-10T10:16:12.000Z,1,2020-03-12T07:48:00.000Z,,Closed,,20-00086510,Standard,643 1/2 I STREET SE,400266.35,134660.23,38.87977585,-76.99693034,WASHINGTON,DC,20003,289985,6
-76.991295914098259,38.927781596746534,36,S0311,Rodent Inspection and Treatment,DOH- Department Of Health,DOH,1,2020-03-04T09:31:08.000Z,2020-03-09T08:26:30.000Z,2020-03-24T10:31:08.000Z,2020-03-04T09:31:08.000Z,1,2020-03-09T08:18:00.000Z,,Closed,,20-00079768,Standard,1022 HAMLIN STREET NE,400754.93,139988.46,38.92777414,-76.99129363,WASHINGTON,DC,20017,75411,5
-77.024220439764818,38.915821399905546,37,S0311,Rodent Inspection and Treatment,DOH- Department Of Health,DOH,1,2020-03-04T09:37:47.000Z,2020-03-13T09:12:18.000Z,2020-03-24T10:37:47.000Z,2020-03-04T09:37:47.000Z,1,2020-03-19T06:44:19.000Z,,Closed,,20-00079783,Standard,1904 9TH STREET NW,397899.69,138661.02,38.91581394,-77.02421815,WASHINGTON,DC,20001,239477,1
-76.992882214892319,38.89215811784959,38,S0311,Rodent Inspection and Treatment,DOH- Department Of Health,DOH,1,2020-03-08T21:12:58.000Z,2020-03-16T08:48:29.000Z,2020-03-26T21:12:58.000Z,2020-03-08T21:12:58.000Z,1,2020-03-16T08:48:28.000Z,,Closed,,20-00084396,Standard,928 CONSTITUTION AVENUE NE,400617.69,136033.95,38.89215067,-76.99287993,WASHINGTON,DC,20002,82738,6
-77.006160202717197,38.833487696834815,39,S0311,Rodent Inspection and Treatment,DOH- Department Of Health,DOH,1,2020-03-03T09:33:01.000Z,2020-03-09T09:20:58.000Z,2020-03-23T10:33:01.000Z,2020-03-03T09:33:01.000Z,1,2020-03-06T00:25:00.000Z,,Closed,,20-00078138,Standard,3831 1ST STREET SE,399465.34,129521.1,38.83348026,-77.00615792,WASHINGTON,DC,20032,30046,8
-77.005887778699204,38.833051043802172,40,S0311,Rodent Inspection and Treatment,DOH- Department Of Health,DOH,1,2020-03-03T09:33:48.000Z,2020-03-09T09:21:38.000Z,2020-03-23T10:33:48.000Z,2020-03-03T09:33:48.000Z,1,2020-03-06T00:25:00.000Z,,Closed,,20-00078143,Standard,MISSISSIPPI AVENUE SE AND 1ST STREET SE,399488.990013481,129472.627008197,38.8330432693712,-77.005885497407,WASHINGTON,DC,20032,905053,8
-77.006160202717197,38.833487696834815,41,S0311,Rodent Inspection and Treatment,DOH- Department Of Health,DOH,1,2020-03-03T09:37:26.000Z,2020-03-09T09:17:55.000Z,2020-03-23T10:37:26.000Z,2020-03-03T09:37:26.000Z,1,2020-03-06T00:25:00.000Z,,Closed,,20-00078153,Standard,3831 1ST STREET SE,399465.34,129521.1,38.83348026,-77.00615792,WASHINGTON,DC,20032,30046,8
-77.03171714111744,38.93367040229024,42,S0311,Rodent Inspection and Treatment,DOH- Department Of Health,DOH,1,2020-03-03T16:22:03.000Z,2020-03-05T10:19:21.000Z,2020-03-23T17:22:03.000Z,2020-03-03T16:22:03.000Z,1,2020-03-05T10:19:21.000Z,,Closed,,20-00079100,Standard,1354 OAK STREET NW,397250.23,140642.61,38.93366294,-77.03171485,WASHINGTON,DC,20010,230761,1
-76.982271866597983,38.85474689708979,43,S0311,Rodent Inspection and Treatment,DOH- Department Of Health,DOH,1,2020-03-09T18:37:14.000Z,2020-03-23T08:18:14.000Z,2020-03-27T18:37:14.000Z,2020-03-09T18:37:14.000Z,1,2020-03-16T10:20:00.000Z,,Closed,,20-00085942,Standard,2426 15TH PLACE SE,401538.98,131881.15,38.85473945,-76.98226959,WASHINGTON,DC,20020,47314,8
-77.076298392986956,38.965284539151625,44,S0311,Rodent Inspection and Treatment,DOH- Department Of Health,DOH,1,2020-03-03T15:35:24.000Z,2020-03-04T12:27:24.000Z,2020-03-23T16:35:24.000Z,2020-03-03T15:35:24.000Z,1,2020-03-04T12:27:23.000Z,,Closed,,20-00079024,Standard,5612 CONNECTICUT AVENUE NW,393387.84,144154.35,38.96527707,-77.07629608,WASHINGTON,DC,20015,263861,3
-77.076298392986956,38.965284539151625,45,S0311,Rodent Inspection and Treatment,DOH- Department Of Health,DOH,1,2020-03-03T15:36:18.000Z,2020-03-18T07:53:55.000Z,2020-03-23T16:36:18.000Z,2020-03-03T15:36:18.000Z,1,2020-03-18T07:53:00.000Z,,Closed,,20-00079026,Standard,5612 CONNECTICUT AVENUE NW,393387.84,144154.35,38.96527707,-77.07629608,WASHINGTON,DC,20015,263861,3
-76.991200341548961,38.896663809447723,46,S0311,Rodent Inspection and Treatment,DOH- Department Of Health,DOH,1,2020-03-10T13:56:38.000Z,2020-03-16T08:44:53.000Z,2020-03-30T13:56:38.000Z,2020-03-10T13:56:38.000Z,1,2020-03-16T08:44:52.000Z,,Closed,,20-00086990,Standard,1105 MARYLAND AVENUE NE,400763.55,136534.13,38.89665636,-76.99119806,WASHINGTON,DC,20002,74294,6
-76.972319350795402,38.87308321630956,47,S0311,Rodent Inspection and Treatment,DOH- Department Of Health,DOH,1,2020-03-10T14:37:23.000Z,2020-03-24T09:00:25.000Z,2020-03-30T14:37:23.000Z,2020-03-10T14:37:23.000Z,1,2020-03-23T13:27:00.000Z,,Closed,,20-00087067,Standard,2330 NICHOLSON STREET SE,402402.23,133916.83,38.87307577,-76.97231708,WASHINGTON,DC,20020,48464,7
-77.023000122988634,38.939363886709756,48,S0311,Rodent Inspection and Treatment,DOH- Department Of Health,DOH,1,2020-03-10T12:36:12.000Z,2020-03-26T09:05:04.000Z,2020-03-30T12:36:12.000Z,2020-03-10T12:36:12.000Z,1,2020-03-24T10:29:00.000Z,,Closed,,20-00086832,Standard,3921 8TH STREET NW,398006.18,141274.41,38.93935643,-77.02299783,WASHINGTON,DC,20011,249641,4
-76.990309741362921,38.843840963827887,49,S0311,Rodent Inspection and Treatment,DOH- Department Of Health,DOH,1,2020-03-03T12:06:42.000Z,2020-03-05T12:08:26.000Z,2020-03-23T13:06:42.000Z,2020-03-03T12:06:42.000Z,1,2020-03-05T12:08:25.000Z,,Closed,,20-00078540,Standard,3212 12TH STREET SE,400841.43,130670.41,38.84383352,-76.99030746,WASHINGTON,DC,20032,38515,8
-77.007076470187627,38.915354451951025,50,S0311,Rodent Inspection and Treatment,DOH- Department Of Health,DOH,1,2020-03-07T12:24:37.000Z,2020-03-11T07:59:53.000Z,2020-03-26T13:24:37.000Z,2020-03-07T12:24:37.000Z,1,2020-03-20T10:00:14.000Z,,Closed,,20-00083627,Standard,49 T STREET NE,399386.49,138608.93,38.915347,-77.00707418,WASHINGTON,DC,20002,16507,5
-77.042504546307654,38.914696713234882,51,S0311,Rodent Inspection and Treatment,DOH- Department Of Health,DOH,1,2020-03-10T13:05:43.000Z,2020-03-12T07:47:43.000Z,2020-03-30T13:05:43.000Z,2020-03-10T13:05:43.000Z,1,2020-03-12T00:53:00.000Z,,Closed,,20-00086883,Standard,1824 SWANN STREET NW,396313.95,138536.75,38.91468926,-77.04250225,WASHINGTON,DC,20009,241116,2
-77.049774417435387,38.903406023473245,52,S0311,Rodent Inspection and Treatment,DOH- Department Of Health,DOH,1,2020-03-11T00:45:06.000Z,2020-03-13T15:40:31.000Z,2020-03-31T00:45:06.000Z,2020-03-11T00:45:06.000Z,1,2020-03-20T08:22:31.000Z,,Closed,,20-00087744,Standard,1 WASHINGTON CIRCLE NW,395682.78,137283.71,38.90339824,-77.04977212,WASHINGTON,DC,20037,242366,2
-77.049112005995298,38.903282709176004,53,S0311,Rodent Inspection and Treatment,DOH- Department Of Health,DOH,1,2020-03-11T00:45:58.000Z,2020-03-13T15:41:39.000Z,2020-03-31T00:45:58.000Z,2020-03-11T00:45:58.000Z,1,2020-03-14T00:00:00.000Z,,Closed,,20-00087745,Standard,1009 NEW HAMPSHIRE AVENUE NW,395740.23,137269.99,38.90327526,-77.04910971,WASHINGTON,DC,20037,242740,2
-77.032797788642512,38.96338733625101,54,S0311,Rodent Inspection and Treatment,DOH- Department Of Health,DOH,1,2020-03-11T03:18:45.000Z,2020-03-11T15:16:36.000Z,2020-03-31T03:18:45.000Z,2020-03-11T03:18:45.000Z,1,2020-03-11T10:50:00.000Z,,Closed,,20-00087761,Standard,1371 PEABODY STREET NW,397157.72,143941.49,38.96337987,-77.03279549,WASHINGTON,DC,20011,258185,4
-77.032427898767864,38.963459415365477,55,S0311,Rodent Inspection and Treatment,DOH- Department Of Health,DOH,1,2020-03-11T03:21:44.000Z,2020-03-11T15:11:38.000Z,2020-03-31T03:21:43.000Z,2020-03-11T03:21:44.000Z,1,2020-03-11T10:47:00.000Z,,Closed,,20-00087762,Standard,1363 PEABODY STREET NW,397189.78,143949.48,38.96345195,-77.0324256,WASHINGTON,DC,20011,258184,4
-76.980245140446968,38.906269344162766,56,S0311,Rodent Inspection and Treatment,DOH- Department Of Health,DOH,1,2020-03-10T16:20:10.000Z,2020-03-23T07:33:19.000Z,2020-03-30T16:20:10.000Z,2020-03-10T16:20:10.000Z,1,2020-03-23T07:31:00.000Z,,Closed,,20-00087279,Standard,1231 16TH STREET NE,401713.66,137600.57,38.90626189,-76.98024286,WASHINGTON,DC,20002,70583,5
-76.993464425893976,38.933848834400138,57,S0311,Rodent Inspection and Treatment,DOH- Department Of Health,DOH,1,2020-03-10T18:47:36.000Z,2020-03-23T07:30:32.000Z,2020-03-30T18:47:36.000Z,2020-03-10T18:47:36.000Z,1,2020-03-23T07:25:00.000Z,,Closed,,20-00087570,Standard,900 NEWTON STREET NE,400566.85,140661.96,38.93384104,-76.99346214,WASHINGTON,DC,20017,316828,5
-77.027915988054929,38.916851308971822,58,S0311,Rodent Inspection and Treatment,DOH- Department Of Health,DOH,1,2020-03-09T23:39:12.000Z,2020-03-10T14:26:05.000Z,2020-03-27T23:39:12.000Z,2020-03-09T23:39:12.000Z,1,2020-03-19T06:47:23.000Z,,Closed,,20-00086141,Standard,1118 U STREET NW,397579.23,138775.44,38.91684385,-77.02791369,WASHINGTON,DC,20009,302953,1
-76.984896776677573,38.867313473175884,59,S0311,Rodent Inspection and Treatment,DOH- Department Of Health,DOH,1,2020-03-10T01:07:30.000Z,2020-03-16T11:07:06.000Z,2020-03-30T01:07:30.000Z,2020-03-10T01:07:30.000Z,1,2020-03-16T11:07:05.000Z,,Closed,,20-00086150,Standard,1906 14TH STREET SE,401310.91,133276.09,38.86730603,-76.9848945,WASHINGTON,DC,20020,54440,8
-77.008380777071508,38.917928947258673,60,S0311,Rodent Inspection and Treatment,DOH- Department Of Health,DOH,1,2020-03-09T19:27:11.000Z,2020-03-11T11:03:53.000Z,2020-03-27T19:27:11.000Z,2020-03-09T19:27:11.000Z,1,2020-03-11T11:03:52.000Z,,Closed,,20-00086001,Standard,15 V STREET NE,399273.4,138894.73,38.91792149,-77.00837849,WASHINGTON,DC,20002,62734,5
-77.027410305110976,38.91131580517785,61,S0311,Rodent Inspection and Treatment,DOH- Department Of Health,DOH,1,2020-03-09T19:34:18.000Z,2020-03-12T08:24:18.000Z,2020-03-27T19:34:18.000Z,2020-03-09T19:34:18.000Z,1,2020-03-11T09:50:00.000Z,,Closed,,20-00086012,Standard,1101 Q STREET NW,397622.9,138160.94,38.91130802,-77.02740801,WASHINGTON,DC,20009,218249,2
-77.042029606639488,38.913921897733672,62,S0311,Rodent Inspection and Treatment,DOH- Department Of Health,DOH,1,2020-03-10T10:55:33.000Z,2020-03-17T15:18:21.000Z,2020-03-30T10:55:33.000Z,2020-03-10T10:55:33.000Z,1,2020-03-18T00:25:00.000Z,,Closed,,20-00086593,Standard,1804 S STREET NW,396355.1,138450.72,38.91391444,-77.04202731,WASHINGTON,DC,20009,241192,2
-77.009372108285561,38.921461667940918,63,S0311,Rodent Inspection and Treatment,DOH- Department Of Health,DOH,1,2020-03-10T12:07:38.000Z,2020-03-16T10:15:57.000Z,2020-03-30T12:07:38.000Z,2020-03-10T12:07:38.000Z,1,2020-03-16T10:15:57.000Z,,Closed,,20-00086771,Standard,2400 NORTH CAPITOL STREET NW,399187.47,139286.9,38.92145421,-77.00936982,WASHINGTON,DC,20002,228284,5
-76.984804645145218,38.868694000154655,64,S0311,Rodent Inspection and Treatment,DOH- Department Of Health,DOH,1,2020-03-04T22:58:25.000Z,2020-03-05T08:21:58.000Z,2020-03-24T23:58:25.000Z,2020-03-04T22:58:25.000Z,1,2020-03-05T08:21:00.000Z,,Closed,,20-00080884,Standard,1405 RIDGE PLACE SE,401318.88,133429.34,38.86868655,-76.98480237,WASHINGTON,DC,20020,65028,8
-77.002296101746182,38.91238675683153,65,S0311,Rodent Inspection and Treatment,DOH- Department Of Health,DOH,1,2020-03-05T16:15:40.000Z,2020-03-09T08:15:57.000Z,2020-03-25T17:15:40.000Z,2020-03-05T16:15:40.000Z,1,2020-03-09T08:10:00.000Z,,Closed,,20-00081914,Standard,239 R STREET NE,399801.06,138279.47,38.9123793,-77.00229382,WASHINGTON,DC,20002,308920,5
-77.014336622120339,38.913516266051033,66,S0311,Rodent Inspection and Treatment,DOH- Department Of Health,DOH,1,2020-03-04T17:44:13.000Z,2020-03-09T11:50:57.000Z,2020-03-24T18:44:13.000Z,2020-03-04T17:44:13.000Z,1,2020-03-09T11:50:57.000Z,,Closed,,20-00080705,Standard,1708 2ND STREET NW,398756.82,138404.95,38.91350881,-77.01433433,WASHINGTON,DC,20001,230069,5
-76.982112045788213,38.901289196011398,67,S0311,Rodent Inspection and Treatment,DOH- Department Of Health,DOH,1,2020-03-04T18:34:32.000Z,2020-03-05T15:09:40.000Z,2020-03-24T19:34:32.000Z,2020-03-04T18:34:32.000Z,1,2020-03-05T15:09:00.000Z,,Closed,,20-00080752,Standard,845 BLADENSBURG ROAD NE,401551.84,137047.7,38.90128141,-76.98210977,WASHINGTON,DC,20002,289021,5
-76.984520114133915,38.867745377181691,68,S0311,Rodent Inspection and Treatment,DOH- Department Of Health,DOH,1,2020-03-05T08:12:10.000Z,2020-03-16T11:04:39.000Z,2020-03-25T09:12:09.000Z,2020-03-05T08:12:10.000Z,1,2020-03-16T11:04:39.000Z,,Closed,,20-00080981,Standard,1404 T STREET SE,401343.59,133324.04,38.86773793,-76.98451784,WASHINGTON,DC,20020,64991,8
-77.030987818818772,38.915775480083759,69,S0311,Rodent Inspection and Treatment,DOH- Department Of Health,DOH,1,2020-03-05T08:12:18.000Z,2020-03-19T06:44:40.000Z,2020-03-25T09:12:18.000Z,2020-03-05T08:12:18.000Z,1,2020-03-19T06:44:39.000Z,,Closed,,20-00080983,Standard,1337 T STREET NW,397312.79,138656.1,38.91576802,-77.03098552,WASHINGTON,DC,20009,240374,1
-77.037508686395327,38.924544977665498,70,S0311,Rodent Inspection and Treatment,DOH- Department Of Health,DOH,1,2020-03-10T11:20:31.000Z,2020-03-13T09:37:30.000Z,2020-03-30T11:20:31.000Z,2020-03-10T11:20:31.000Z,1,2020-03-19T06:48:17.000Z,,Closed,,20-00086662,Standard,1620 FULLER STREET NW,396747.67,139629.8,38.92453719,-77.03750639,WASHINGTON,DC,20009,235852,1
-77.066189481372305,38.906108490470473,71,S0311,Rodent Inspection and Treatment,DOH- Department Of Health,DOH,1,2020-03-10T11:21:31.000Z,2020-03-12T07:54:02.000Z,2020-03-30T11:21:31.000Z,2020-03-10T11:21:31.000Z,1,2020-03-11T11:05:00.000Z,,Closed,,20-00086668,Standard,3301 PROSPECT STREET NW,394259.16,137584.61,38.90610104,-77.06618718,WASHINGTON,DC,20007,272175,2
-77.021036846855651,38.946472156724674,72,S0311,Rodent Inspection and Treatment,DOH- Department Of Health,DOH,1,2020-03-10T16:45:29.000Z,2020-03-25T08:56:18.000Z,2020-03-30T16:45:28.000Z,2020-03-10T16:45:29.000Z,1,2020-03-23T14:01:00.000Z,,Closed,,20-00087337,Standard,545 BUCHANAN STREET NW,398176.57,142063.45,38.94646469,-77.02103455,WASHINGTON,DC,20011,247359,4
-76.980278229191612,38.896261063516185,73,S0311,Rodent Inspection and Treatment,DOH- Department Of Health,DOH,1,2020-03-10T16:48:17.000Z,2020-03-17T07:44:37.000Z,2020-03-30T16:48:17.000Z,2020-03-10T16:48:17.000Z,1,2020-03-17T09:44:00.000Z,,Closed,,20-00087345,Standard,1700 E STREET NE,401711.03,136489.57,38.89625328,-76.98027595,WASHINGTON,DC,20002,301220,6
-77.008008443668558,38.912845840087805,74,S0311,Rodent Inspection and Treatment,DOH- Department Of Health,DOH,1,2020-03-11T07:32:14.000Z,2020-03-11T11:54:20.000Z,2020-03-31T07:32:14.000Z,2020-03-11T07:32:14.000Z,1,2020-03-11T11:54:19.000Z,,Closed,,20-00087797,Standard,18 R STREET NE,399305.64,138330.46,38.91283838,-77.00800616,WASHINGTON,DC,20002,56106,5
-77.033044461447673,38.964341240708954,75,S0311,Rodent Inspection and Treatment,DOH- Department Of Health,DOH,1,2020-03-03T10:39:05.000Z,2020-03-06T08:43:43.000Z,2020-03-23T11:39:04.000Z,2020-03-03T10:39:05.000Z,1,2020-03-05T11:05:00.000Z,,Closed,,20-00078355,Standard,6103 14TH STREET NW,397136.38,144047.39,38.96433344,-77.03304216,WASHINGTON,DC,20011,257725,4
-77.032430084999831,38.935554383368014,76,S0311,Rodent Inspection and Treatment,DOH- Department Of Health,DOH,1,2020-03-05T21:22:35.000Z,2020-03-13T09:35:36.000Z,2020-03-25T22:22:35.000Z,2020-03-05T21:22:35.000Z,1,2020-03-17T10:52:09.000Z,,Closed,,20-00082172,Standard,3521 14TH STREET NW,397188.49,140851.77,38.93554692,-77.03242779,WASHINGTON,DC,20010,230200,1
-77.028494962959769,38.907058291535108,77,S0311,Rodent Inspection and Treatment,DOH- Department Of Health,DOH,1,2020-03-03T14:40:23.000Z,2020-03-04T13:53:06.000Z,2020-03-23T15:40:23.000Z,2020-03-03T14:40:23.000Z,1,2020-03-04T13:53:06.000Z,,Closed,,20-00078899,Standard,1200 N STREET NW,397528.68,137688.35,38.90705084,-77.02849267,WASHINGTON,DC,20005,226383,2
-76.918742817160862,38.899674133367746,78,S0311,Rodent Inspection and Treatment,DOH- Department Of Health,DOH,1,2020-03-04T09:17:42.000Z,2020-03-11T09:13:26.000Z,2020-03-24T10:17:42.000Z,2020-03-04T09:17:42.000Z,1,2020-03-20T15:56:04.000Z,,Closed,,20-00079725,Standard,714 57TH PLACE NE,407048.79,136871.4,38.89966668,-76.91874056,WASHINGTON,DC,20019,77198,7
-77.022261199936608,38.934500809433253,79,S0311,Rodent Inspection and Treatment,DOH- Department Of Health,DOH,1,2020-03-03T10:22:39.000Z,2020-03-05T10:18:06.000Z,2020-03-23T11:22:39.000Z,2020-03-03T10:22:39.000Z,1,2020-03-05T10:18:06.000Z,,Closed,,20-00078311,Standard,700 OTIS PLACE NW,398070.11,140734.55,38.93449335,-77.02225891,WASHINGTON,DC,20010,228609,1
-77.048580700174668,38.903360853605477,80,S0311,Rodent Inspection and Treatment,DOH- Department Of Health,DOH,1,2020-03-05T11:30:09.000Z,2020-03-12T08:19:41.000Z,2020-03-25T12:30:08.000Z,2020-03-05T11:30:09.000Z,1,2020-03-11T11:52:00.000Z,,Closed,,20-00081375,Standard,1099 22ND STREET NW,395786.32,137278.64,38.9033534,-77.0485784,WASHINGTON,DC,20037,226519,2
-77.017649404493952,38.95819617287578,81,S0311,Rodent Inspection and Treatment,DOH- Department Of Health,DOH,1,2020-03-05T11:32:06.000Z,2020-03-09T09:16:02.000Z,2020-03-25T12:32:06.000Z,2020-03-05T11:32:06.000Z,1,2020-03-06T10:35:00.000Z,,Closed,,20-00081379,Standard,336 MADISON STREET NW,398470.47,143364.86,38.95818871,-77.01764711,WASHINGTON,DC,20011,249419,4
-77.01946599653327,38.908758038253332,82,S0311,Rodent Inspection and Treatment,DOH- Department Of Health,DOH,1,2020-03-03T10:07:49.000Z,2020-03-16T08:59:04.000Z,2020-03-23T11:07:49.000Z,2020-03-03T10:07:49.000Z,1,2020-03-16T08:59:04.000Z,,Closed,,20-00078276,Standard,509 O STREET NW,398311.85,137876.83,38.90875058,-77.01946371,WASHINGTON,DC,20001,226600,6
-76.99886208369341,38.94729271705009,83,S0311,Rodent Inspection and Treatment,DOH- Department Of Health,DOH,1,2020-03-12T15:43:38.000Z,2020-03-24T07:24:44.000Z,2020-04-01T15:43:38.000Z,2020-03-12T15:43:38.000Z,1,2020-03-24T07:23:00.000Z,,Closed,,20-00090738,Standard,4719 6TH STREET NE,400098.84,142154.33,38.94728525,-76.9988598,WASHINGTON,DC,20017,17945,5
-77.072488937153153,38.913732749706313,84,S0311,Rodent Inspection and Treatment,DOH- Department Of Health,DOH,1,2020-03-12T15:47:12.000Z,2020-03-13T15:43:31.000Z,2020-04-01T15:47:12.000Z,2020-03-12T15:47:12.000Z,1,2020-03-13T11:10:00.000Z,,Closed,,20-00090744,Standard,3641 R STREET NW,393713.44,138431.38,38.9137253,-77.07248663,WASHINGTON,DC,20007,270469,2
-77.074301288401728,38.937085324030967,85,S0311,Rodent Inspection and Treatment,DOH- Department Of Health,DOH,1,2020-03-03T15:21:38.000Z,2020-03-18T07:54:36.000Z,2020-03-23T16:21:38.000Z,2020-03-03T15:21:38.000Z,1,2020-03-18T07:54:00.000Z,,Closed,,20-00079003,Standard,3800 - 3814 BLOCK OF PORTER STREET NW,393558.370000004,141023.840003323,38.9370775311667,-77.0742989794591,WASHINGTON,DC,20016,801596,3
-77.010701215544984,38.907415935270812,86,S0311,Rodent Inspection and Treatment,DOH- Department Of Health,DOH,1,2020-03-04T11:17:28.000Z,2020-03-11T11:50:43.000Z,2020-03-24T12:17:28.000Z,2020-03-04T11:17:28.000Z,1,2020-03-11T11:50:42.000Z,,Closed,,20-00079990,Standard,35 N STREET NW,399072.03,137727.72,38.90740848,-77.01069893,WASHINGTON,DC,20001,237052,5
-77.027280142648124,38.952641176052445,87,S0311,Rodent Inspection and Treatment,DOH- Department Of Health,DOH,1,2020-03-03T16:53:30.000Z,2020-03-09T09:22:53.000Z,2020-03-23T17:53:30.000Z,2020-03-03T16:53:30.000Z,1,2020-03-06T09:20:00.000Z,,Closed,,20-00079145,Standard,5121 GEORGIA AVENUE NW,397635.56,142748.41,38.95263371,-77.02727785,WASHINGTON,DC,20011,251741,4
-76.954564417214257,38.895206489801673,88,S0311,Rodent Inspection and Treatment,DOH- Department Of Health,DOH,1,2020-03-03T20:40:02.000Z,2020-03-09T09:14:40.000Z,2020-03-23T21:40:02.000Z,2020-03-03T20:40:02.000Z,1,2020-03-20T15:56:22.000Z,,Closed,,20-00079349,Standard,417 36TH STREET NE,403941.72,136373.3,38.89519904,-76.95456215,WASHINGTON,DC,20019,25933,7
-77.014993728396419,38.941984619354649,89,S0311,Rodent Inspection and Treatment,DOH- Department Of Health,DOH,1,2020-03-04T09:21:34.000Z,2020-03-05T14:54:06.000Z,2020-03-24T10:21:34.000Z,2020-03-04T09:21:34.000Z,1,2020-03-05T09:57:00.000Z,,Closed,,20-00079742,Standard,228 UPSHUR STREET NW,398700.35,141565.19,38.94197716,-77.01499144,WASHINGTON,DC,20011,244340,4
-77.042136459211875,38.906837607166693,90,S0311,Rodent Inspection and Treatment,DOH- Department Of Health,DOH,1,2020-03-06T12:04:32.000Z,2020-03-11T08:46:37.000Z,2020-03-26T13:04:31.000Z,2020-03-06T12:04:32.000Z,1,2020-03-10T11:56:00.000Z,,Closed,,20-00082752,Standard,1228 CONNECTICUT AVENUE NW,396345.47,137664.31,38.90683015,-77.04213416,WASHINGTON,DC,20036,302357,2
-76.976529197013363,38.869718057389804,91,S0311,Rodent Inspection and Treatment,DOH- Department Of Health,DOH,1,2020-03-04T13:09:12.000Z,2020-03-16T10:13:04.000Z,2020-03-24T14:09:12.000Z,2020-03-04T13:09:12.000Z,1,2020-03-16T10:13:04.000Z,,Closed,,20-00080216,Standard,1920 R STREET SE,402037.01,133543.17,38.86971061,-76.97652692,WASHINGTON,DC,20020,53964,8
-76.984563407389246,38.868431553540766,92,S0311,Rodent Inspection and Treatment,DOH- Department Of Health,DOH,1,2020-03-03T11:43:13.000Z,2020-03-04T10:12:35.000Z,2020-03-23T12:43:13.000Z,2020-03-03T11:43:13.000Z,1,2020-03-04T10:12:35.000Z,,Closed,,20-00078497,Standard,1410 S STREET SE,401339.82,133400.21,38.86842377,-76.98456113,WASHINGTON,DC,20020,64798,8
-77.026087867081173,38.954650742858284,93,S0311,Rodent Inspection and Treatment,DOH- Department Of Health,DOH,1,2020-03-04T15:10:09.000Z,2020-03-05T14:50:46.000Z,2020-03-24T16:10:09.000Z,2020-03-04T15:10:09.000Z,1,2020-03-05T10:35:00.000Z,,Closed,,20-00080470,Standard,5313 ILLINOIS AVENUE NW,397738.97,142971.46,38.95464294,-77.02608557,WASHINGTON,DC,20011,254664,4
-76.978319962994675,38.887021638148497,94,S0311,Rodent Inspection and Treatment,DOH- Department Of Health,DOH,1,2020-03-05T11:59:09.000Z,2020-03-05T15:16:34.000Z,2020-03-25T12:59:09.000Z,2020-03-05T11:59:09.000Z,1,2020-03-06T12:25:24.000Z,,Closed,,20-00081437,Standard,1816 BAY STREET SE,401881.15,135463.96,38.88701419,-76.97831769,WASHINGTON,DC,20003,55559,6
-77.014610605828182,38.943449775996015,95,S0311,Rodent Inspection and Treatment,DOH- Department Of Health,DOH,1,2020-03-06T12:10:19.000Z,2020-03-09T14:28:44.000Z,2020-03-26T13:10:18.000Z,2020-03-06T12:10:19.000Z,1,2020-03-09T11:05:00.000Z,,Closed,,20-00082761,Standard,211 VARNUM STREET NW,398733.59,141727.83,38.94344231,-77.01460832,WASHINGTON,DC,20011,244413,4
-76.95457273405323,38.894636533493575,96,S0311,Rodent Inspection and Treatment,DOH- Department Of Health,DOH,1,2020-03-04T11:33:37.000Z,2020-03-09T09:19:43.000Z,2020-03-24T12:33:37.000Z,2020-03-04T11:33:37.000Z,1,2020-03-12T09:04:57.000Z,,Closed,,20-00080025,Standard,337 36TH STREET NE,403941.03,136310.03,38.89462908,-76.95457046,WASHINGTON,DC,20019,35526,7
-77.023149913791727,38.951662957759005,97,S0311,Rodent Inspection and Treatment,DOH- Department Of Health,DOH,1,2020-03-04T08:24:34.000Z,2020-03-06T08:45:15.000Z,2020-03-24T09:24:34.000Z,2020-03-04T08:24:34.000Z,1,2020-03-05T11:31:00.000Z,,Closed,,20-00079564,Standard,5024 7TH PLACE NW,397993.54,142639.72,38.95165549,-77.02314762,WASHINGTON,DC,20011,250025,4
-77.0580161995249,38.935859413660289,98,S0311,Rodent Inspection and Treatment,DOH- Department Of Health,DOH,1,2020-03-04T05:21:48.000Z,2020-03-18T07:53:27.000Z,2020-03-24T06:21:48.000Z,2020-03-04T05:21:48.000Z,1,2020-03-18T07:53:00.000Z,,Closed,,20-00079429,Standard,3505 CONNECTICUT AVENUE NW,394970.18,140886.73,38.93585195,-77.0580139,WASHINGTON,DC,20008,301779,3
-77.057702515724074,38.933914766165643,99,S0311,Rodent Inspection and Treatment,DOH- Department Of Health,DOH,1,2020-03-04T21:26:01.000Z,2020-03-18T07:52:55.000Z,2020-03-24T22:26:00.000Z,2020-03-04T21:26:01.000Z,1,2020-03-18T07:52:00.000Z,,Closed,,20-00080845,Standard,3318 CONNECTICUT AVENUE NW,394997.24,140670.84,38.93390697,-77.05770021,WASHINGTON,DC,20008,317101,3
-76.982271866597983,38.85474689708979,100,S0311,Rodent Inspection and Treatment,DOH- Department Of Health,DOH,1,2020-03-05T21:40:48.000Z,2020-03-23T08:19:41.000Z,2020-03-25T22:40:48.000Z,2020-03-05T21:40:48.000Z,1,2020-03-16T10:20:00.000Z,,Closed,,20-00082178,Standard,2426 15TH PLACE SE,401538.98,131881.15,38.85473945,-76.98226959,WASHINGTON,DC,20020,47314,8
-77.001196372486646,38.886186494756892,101,S0311,Rodent Inspection and Treatment,DOH- Department Of Health,DOH,1,2020-03-06T07:10:01.000Z,2020-03-09T09:23:37.000Z,2020-03-26T08:10:01.000Z,2020-03-06T07:10:01.000Z,1,2020-03-09T09:22:00.000Z,,Closed,,20-00082277,Standard,320 C STREET SE,399896.4,135371.03,38.88617904,-77.00119409,WASHINGTON,DC,20003,38985,6
-76.984033796100505,38.896292445728328,102,S0311,Rodent Inspection and Treatment,DOH- Department Of Health,DOH,1,2020-03-03T13:25:49.000Z,2020-03-16T08:53:50.000Z,2020-03-23T14:25:49.000Z,2020-03-03T13:25:49.000Z,1,2020-03-16T08:53:58.000Z,,Closed,,20-00078705,Standard,1420 E STREET NE,401385.24,136492.99,38.89628499,-76.98403152,WASHINGTON,DC,20002,64179,6
-77.004635727580705,38.882757997656327,103,S0311,Rodent Inspection and Treatment,DOH- Department Of Health,DOH,1,2020-03-04T20:03:30.000Z,2020-03-09T09:27:57.000Z,2020-03-24T21:03:30.000Z,2020-03-04T20:03:30.000Z,1,2020-03-09T09:24:00.000Z,,Closed,,20-00080805,Standard,138 DUDDINGTON PLACE SE,399597.98,134990.45,38.88275055,-77.00463344,WASHINGTON,DC,20003,65500,6
-77.009394351883273,38.911739692833443,104,S0311,Rodent Inspection and Treatment,DOH- Department Of Health,DOH,1,2020-03-11T21:53:31.000Z,2020-03-16T11:31:20.000Z,2020-03-31T21:53:31.000Z,2020-03-11T21:53:31.000Z,1,2020-03-16T11:31:20.000Z,,Closed,,20-00089374,Standard,1620 NORTH CAPITOL STREET NW,399185.43,138207.68,38.91173224,-77.00939206,WASHINGTON,DC,20002,279269,5
-77.035228404675834,38.910952024454694,105,S0311,Rodent Inspection and Treatment,DOH- Department Of Health,DOH,1,2020-03-11T16:06:42.000Z,2020-03-13T13:12:19.000Z,2020-03-31T16:06:42.000Z,2020-03-11T16:06:42.000Z,1,2020-03-13T13:12:19.000Z,,Closed,,20-00089037,Standard,1512 Q STREET NW,396944.82,138120.79,38.91094457,-77.03522611,WASHINGTON,DC,20009,225633,2
-77.001349587738602,38.961053115653385,106,S0311,Rodent Inspection and Treatment,DOH- Department Of Health,DOH,1,2020-03-13T11:42:32.000Z,2020-03-17T15:44:44.000Z,2020-04-02T11:42:32.000Z,2020-03-13T11:42:32.000Z,1,2020-03-17T13:01:00.000Z,,Closed,,20-00091832,Standard,341 OGLETHORPE STREET NE,399883.23,143681.86,38.96104565,-77.0013473,WASHINGTON,DC,20011,35037,4
-77.079576556405669,38.943378470647204,107,S0311,Rodent Inspection and Treatment,DOH- Department Of Health,DOH,1,2020-03-13T13:58:49.000Z,2020-03-16T14:52:46.000Z,2020-04-02T13:58:49.000Z,2020-03-13T13:58:49.000Z,1,2020-03-16T14:52:00.000Z,,Closed,,20-00092200,Standard,4013 VAN NESS STREET NW,393101.62,141722.82,38.94337101,-77.07957425,WASHINGTON,DC,20016,222995,3
-77.042660336435688,38.917608330450541,108,S0311,Rodent Inspection and Treatment,DOH- Department Of Health,DOH,1,2020-03-12T13:40:56.000Z,2020-03-19T06:51:43.000Z,2020-04-01T13:40:55.000Z,2020-03-12T13:40:56.000Z,1,2020-03-19T06:51:43.000Z,,Closed,,20-00090472,Standard,1828 CALIFORNIA STREET NW,396300.59,138859.97,38.91760087,-77.04265804,WASHINGTON,DC,20009,235538,1
-77.04125862659636,38.924789821178557,109,S0311,Rodent Inspection and Treatment,DOH- Department Of Health,DOH,1,2020-03-12T13:44:18.000Z,2020-03-19T06:52:04.000Z,2020-04-01T13:44:18.000Z,2020-03-12T13:44:18.000Z,1,2020-03-19T06:52:03.000Z,,Closed,,20-00090482,Standard,1732 LANIER PLACE NW,396422.51,139657.12,38.92478236,-77.04125633,WASHINGTON,DC,20009,235917,1
-77.029368772070072,38.910979858611348,110,S0311,Rodent Inspection and Treatment,DOH- Department Of Health,DOH,1,2020-03-12T14:29:04.000Z,2020-03-16T08:28:44.000Z,2020-04-01T14:29:04.000Z,2020-03-12T14:29:04.000Z,1,2020-03-13T13:20:00.000Z,,Closed,,20-00090571,Standard,1204 Q STREET NW,397453.03,138123.7,38.9109724,-77.02936648,WASHINGTON,DC,20009,225339,2
-77.063500094572319,38.91028201991535,111,S0311,Rodent Inspection and Treatment,DOH- Department Of Health,DOH,1,2020-03-13T17:56:47.000Z,2020-03-17T11:04:08.000Z,2020-04-02T17:56:47.000Z,2020-03-13T17:56:47.000Z,1,2020-03-17T11:04:07.000Z,,Closed,,20-00092640,Standard,3142 Q STREET NW,394492.75,138047.74,38.91027457,-77.06349779,WASHINGTON,DC,20007,223897,2
-77.009880527897309,38.913889673099355,112,S0311,Rodent Inspection and Treatment,DOH- Department Of Health,DOH,1,2020-03-03T08:56:08.000Z,2020-03-04T10:23:54.000Z,2020-03-23T09:56:08.000Z,2020-03-03T08:56:08.000Z,1,2020-03-04T10:23:54.000Z,,Closed,,20-00078037,Standard,20 S STREET NW,399143.29,138446.35,38.91388222,-77.00987824,WASHINGTON,DC,20001,226994,5
-77.018734144492996,38.954147419308427,113,S0311,Rodent Inspection and Treatment,DOH- Department Of Health,DOH,1,2020-03-13T12:02:13.000Z,2020-03-26T09:12:32.000Z,2020-04-02T12:02:13.000Z,2020-03-13T12:02:13.000Z,1,2020-03-18T11:15:00.000Z,,Closed,,20-00091878,Standard,426 INGRAHAM STREET NW,398376.36,142915.43,38.95413996,-77.01873185,WASHINGTON,DC,20011,248623,4
-76.996439579902841,38.889050030557627,114,S0311,Rodent Inspection and Treatment,DOH- Department Of Health,DOH,1,2020-03-12T11:18:39.000Z,2020-03-16T14:41:24.000Z,2020-04-01T11:18:39.000Z,2020-03-12T11:18:39.000Z,1,2020-03-16T14:41:00.000Z,,Closed,,20-00090073,Standard,21 7TH STREET SE,400309.09,135688.91,38.88904224,-76.9964373,WASHINGTON,DC,20003,52001,6
-77.030168262436987,38.916163953789017,115,S0311,Rodent Inspection and Treatment,DOH- Department Of Health,DOH,1,2020-03-16T12:40:18.000Z,2020-03-19T07:34:54.000Z,2020-04-03T12:40:18.000Z,2020-03-16T12:40:18.000Z,1,2020-03-19T07:32:00.000Z,,Closed,,20-00094532,Standard,1312 WALLACH PLACE NW,397383.88,138699.2,38.9161565,-77.03016597,WASHINGTON,DC,20009,240418,1
-77.002315749111872,38.885419233933931,116,S0311,Rodent Inspection and Treatment,DOH- Department Of Health,DOH,1,2020-03-05T09:28:13.000Z,2020-03-09T09:19:18.000Z,2020-03-25T10:28:13.000Z,2020-03-05T09:28:13.000Z,1,2020-03-09T09:17:00.000Z,,Closed,,20-00081145,Standard,319 3RD STREET SE,399799.28,135285.86,38.88541145,-77.00231347,WASHINGTON,DC,20003,278339,6
-77.013333124765481,38.919638268002764,117,S0311,Rodent Inspection and Treatment,DOH- Department Of Health,DOH,1,2020-03-12T17:33:54.000Z,2020-03-16T11:57:38.000Z,2020-04-01T17:33:54.000Z,2020-03-12T17:33:54.000Z,1,2020-03-16T11:57:38.000Z,,Closed,,20-00090958,Standard,2215 FLAGLER PLACE NW,398843.95,139084.53,38.91963081,-77.01333084,WASHINGTON,DC,20001,227952,5
-77.026484547252551,38.924633665308171,118,S0311,Rodent Inspection and Treatment,DOH- Department Of Health,DOH,1,2020-03-12T14:29:43.000Z,2020-03-19T06:52:30.000Z,2020-04-01T14:29:43.000Z,2020-03-12T14:29:43.000Z,1,2020-03-19T06:52:29.000Z,,Closed,,20-00090573,Standard,1026 FAIRMONT STREET NW,397703.62,139639.31,38.92462621,-77.02648225,WASHINGTON,DC,20001,231936,1
-77.02294585978234,38.914837856876389,119,S0311,Rodent Inspection and Treatment,DOH- Department Of Health,DOH,1,2020-03-03T13:07:36.000Z,2020-03-05T08:19:29.000Z,2020-03-23T14:07:36.000Z,2020-03-03T13:07:36.000Z,1,2020-03-05T08:14:00.000Z,,Closed,,20-00078657,Standard,1800 - 1899 BLOCK OF 8TH STREET NW,398010.2,138551.810003315,38.9148300665769,-77.0229435681937,WASHINGTON,DC,20001,802099,1
-76.982271866597983,38.85474689708979,120,S0311,Rodent Inspection and Treatment,DOH- Department Of Health,DOH,1,2020-03-08T22:41:19.000Z,2020-03-23T08:18:56.000Z,2020-03-26T22:41:19.000Z,2020-03-08T22:41:19.000Z,1,2020-03-16T10:20:00.000Z,,Closed,,20-00084434,Standard,2426 15TH PLACE SE,401538.98,131881.15,38.85473945,-76.98226959,WASHINGTON,DC,20020,47314,8
-76.999765872223662,38.961048619107459,121,S0311,Rodent Inspection and Treatment,DOH- Department Of Health,DOH,1,2020-03-09T12:00:31.000Z,2020-03-13T09:25:08.000Z,2020-03-27T12:00:31.000Z,2020-03-09T12:00:31.000Z,1,2020-03-11T11:28:00.000Z,,Closed,,20-00085057,Standard,539 OGLETHORPE STREET NE,400020.49,143681.36,38.96104115,-76.99976359,WASHINGTON,DC,20011,9351,4
-77.045871816810276,38.922580521882196,122,S0311,Rodent Inspection and Treatment,DOH- Department Of Health,DOH,1,2020-03-05T13:11:47.000Z,2020-03-13T09:30:42.000Z,2020-03-25T14:11:47.000Z,2020-03-05T13:11:47.000Z,1,2020-03-19T06:45:02.000Z,,Closed,,20-00081561,Standard,1935 BILTMORE STREET NW,396022.36,139412.06,38.92257307,-77.04586952,WASHINGTON,DC,20009,235301,1
-77.020618081213669,38.955179089424107,123,S0311,Rodent Inspection and Treatment,DOH- Department Of Health,DOH,1,2020-03-09T10:09:07.000Z,2020-03-10T14:51:46.000Z,2020-03-27T10:09:06.000Z,2020-03-09T10:09:07.000Z,1,2020-03-10T09:49:00.000Z,,Closed,,20-00084847,Standard,516 JEFFERSON STREET NW,398213.09,143029.99,38.95517163,-77.02061579,WASHINGTON,DC,20011,246840,4
-77.048130145723263,38.907444616498026,124,S0311,Rodent Inspection and Treatment,DOH- Department Of Health,DOH,1,2020-03-09T10:15:16.000Z,2020-03-12T07:55:35.000Z,2020-03-27T10:15:16.000Z,2020-03-09T10:15:16.000Z,1,2020-03-12T11:58:00.000Z,,Closed,,20-00084865,Standard,2137 N STREET NW,395825.64,137731.95,38.90743716,-77.04812785,WASHINGTON,DC,20037,242400,2
-77.075881181853504,38.912861561211059,125,S0311,Rodent Inspection and Treatment,DOH- Department Of Health,DOH,1,2020-03-13T22:12:57.000Z,2020-03-17T12:01:50.000Z,2020-04-02T22:12:57.000Z,2020-03-13T22:12:57.000Z,1,2020-03-17T12:01:49.000Z,,Closed,,20-00092800,Standard,3950 GEORGETOWN COURT NW,393419.16,138334.91,38.91285411,-77.07587887,WASHINGTON,DC,20007,274361,2
-76.980381124287376,38.898106264250188,126,S0311,Rodent Inspection and Treatment,DOH- Department Of Health,DOH,1,2020-03-14T10:34:55.000Z,2020-03-16T14:41:32.000Z,2020-04-02T10:34:55.000Z,2020-03-14T10:34:55.000Z,1,2020-03-16T14:41:31.000Z,,Closed,,20-00092959,Standard,1649 GALES STREET NE,401702.06,136694.4,38.89809881,-76.98037885,WASHINGTON,DC,20002,58588,6
-77.062610077437014,38.906967428034847,127,S0311,Rodent Inspection and Treatment,DOH- Department Of Health,DOH,1,2020-03-09T08:21:56.000Z,2020-03-13T08:35:46.000Z,2020-03-27T08:21:56.000Z,2020-03-09T08:21:56.000Z,1,2020-03-12T11:05:00.000Z,,Closed,,20-00084607,Standard,3139 N STREET NW,394569.69,137679.74,38.90695964,-77.06260777,WASHINGTON,DC,20007,223434,2
-77.032797788642512,38.96338733625101,128,S0311,Rodent Inspection and Treatment,DOH- Department Of Health,DOH,1,2020-03-05T01:39:57.000Z,2020-03-06T14:37:30.000Z,2020-03-25T02:39:57.000Z,2020-03-05T01:39:57.000Z,1,2020-03-06T10:15:00.000Z,,Closed,,20-00080898,Standard,1371 PEABODY STREET NW,397157.72,143941.49,38.96337987,-77.03279549,WASHINGTON,DC,20011,258185,4
-77.032427898767864,38.963459415365477,129,S0311,Rodent Inspection and Treatment,DOH- Department Of Health,DOH,1,2020-03-05T01:44:23.000Z,2020-03-06T14:35:12.000Z,2020-03-25T02:44:23.000Z,2020-03-05T01:44:23.000Z,1,2020-03-06T10:05:00.000Z,,Closed,,20-00080899,Standard,1363 PEABODY STREET NW,397189.78,143949.48,38.96345195,-77.0324256,WASHINGTON,DC,20011,258184,4
-77.001828360020383,38.904896775611491,130,S0311,Rodent Inspection and Treatment,DOH- Department Of Health,DOH,1,2020-03-14T19:19:28.000Z,2020-03-17T07:43:33.000Z,2020-04-02T19:19:28.000Z,2020-03-14T19:19:28.000Z,1,2020-03-16T10:43:00.000Z,,Closed,,20-00093371,Standard,1149 3RD STREET NE,399841.61,137448.02,38.90488932,-77.00182608,WASHINGTON,DC,20002,72802,6
-77.030005133855553,38.937068875956982,131,S0311,Rodent Inspection and Treatment,DOH- Department Of Health,DOH,1,2020-03-13T15:35:07.000Z,2020-03-16T15:14:34.000Z,2020-04-02T15:35:07.000Z,2020-03-13T15:35:07.000Z,1,2020-03-16T10:54:00.000Z,,Closed,,20-00092401,Standard,3708 13TH STREET NW,397398.79,141019.82,38.93706142,-77.03000284,WASHINGTON,DC,20010,225284,4
-77.000008979346788,38.96103069290637,132,S0311,Rodent Inspection and Treatment,DOH- Department Of Health,DOH,1,2020-03-12T13:21:09.000Z,2020-03-17T09:40:56.000Z,2020-04-01T13:21:09.000Z,2020-03-12T13:21:09.000Z,1,2020-03-13T12:38:00.000Z,,Closed,,20-00090416,Standard,529 OGLETHORPE STREET NE,399999.42,143679.37,38.96102323,-77.00000669,WASHINGTON,DC,20011,10917,4
-76.952551132139263,38.863866298006371,133,S0311,Rodent Inspection and Treatment,DOH- Department Of Health,DOH,1,2020-03-14T14:36:41.000Z,2020-03-16T11:00:35.000Z,2020-04-02T14:36:41.000Z,2020-03-14T14:36:41.000Z,1,2020-03-16T11:00:35.000Z,,Closed,,20-00093179,Standard,2033 38TH STREET SE,404118.18,132894.39,38.86385885,-76.95254887,WASHINGTON,DC,20020,145920,7
-76.982480427132842,38.893579082666363,134,S0311,Rodent Inspection and Treatment,DOH- Department Of Health,DOH,1,2020-03-14T16:50:28.000Z,2020-03-16T11:42:43.000Z,2020-04-02T16:50:28.000Z,2020-03-14T16:50:28.000Z,1,2020-03-16T11:42:43.000Z,,Closed,,20-00093274,Standard,304 16TH STREET NE,401520.05,136191.81,38.89357163,-76.98247815,WASHINGTON,DC,20002,152263,6
-77.037181080735465,38.917954410796625,135,S0311,Rodent Inspection and Treatment,DOH- Department Of Health,DOH,1,2020-03-06T11:03:40.000Z,2020-03-09T14:23:07.000Z,2020-03-26T12:03:40.000Z,2020-03-06T11:03:40.000Z,1,2020-03-19T06:46:16.000Z,,Closed,,20-00082629,Standard,1608 V STREET NW,396775.78,138898.18,38.91794695,-77.03717878,WASHINGTON,DC,20009,241842,1
-77.023646405382109,38.915372632152476,136,S0311,Rodent Inspection and Treatment,DOH- Department Of Health,DOH,1,2020-03-03T14:30:29.000Z,2020-03-05T08:23:32.000Z,2020-03-23T15:30:29.000Z,2020-03-03T14:30:29.000Z,1,2020-03-19T06:43:15.000Z,,Closed,,20-00078867,Standard,1851 9TH STREET NW,397949.46,138611.19,38.91536518,-77.02364411,WASHINGTON,DC,20001,239901,1
-77.022199179603291,38.929786233533854,137,S0311,Rodent Inspection and Treatment,DOH- Department Of Health,DOH,1,2020-03-11T18:24:13.000Z,2020-03-12T11:22:44.000Z,2020-03-31T18:24:13.000Z,2020-03-11T18:24:13.000Z,1,2020-03-12T11:22:43.000Z,,Closed,,20-00089245,Standard,630 KENYON STREET NW,398075.36,140211.19,38.92977877,-77.02219689,WASHINGTON,DC,20010,229241,1
-77.009925743739331,38.909866634265406,138,S0311,Rodent Inspection and Treatment,DOH- Department Of Health,DOH,1,2020-03-16T13:37:16.000Z,2020-03-16T14:27:45.000Z,2020-04-03T13:37:16.000Z,2020-03-16T13:37:16.000Z,1,2020-03-16T14:27:44.000Z,,Closed,,20-00094706,Standard,43 P STREET NW,399139.32,137999.76,38.90985884,-77.00992346,WASHINGTON,DC,20001,301249,5
-76.981174791233386,38.868504835353789,139,S0311,Rodent Inspection and Treatment,DOH- Department Of Health,DOH,1,2020-04-01T09:22:46.000Z,,2020-04-22T09:22:46.000Z,2020-04-01T09:22:46.000Z,,,,Open,,20-00116122,Standard,1626 MINNESOTA AVENUE SE,401633.89,133408.4,38.86849739,-76.98117252,WASHINGTON,DC,20020,59086,8
-77.021711625391916,38.92809456400682,140,S0311,Rodent Inspection and Treatment,DOH- Department Of Health,DOH,1,2020-03-27T11:01:55.000Z,,2020-04-17T11:01:55.000Z,2020-03-27T11:01:55.000Z,,,,Open,,20-00110109,Standard,626 COLUMBIA ROAD NW,398117.59,140023.39,38.92808711,-77.02170933,WASHINGTON,DC,20001,237907,1
-77.008306845415262,38.912831405906324,141,S0311,Rodent Inspection and Treatment,DOH- Department Of Health,DOH,1,2020-03-31T13:40:05.000Z,2020-04-01T12:01:09.000Z,2020-04-21T13:40:05.000Z,2020-03-31T13:40:05.000Z,1,2020-04-01T12:01:08.000Z,,Closed,,20-00115163,Standard,10 R STREET NE,399279.76,138328.86,38.91282395,-77.00830456,WASHINGTON,DC,20002,76061,5
-77.027444172509192,38.938201758339645,142,S0311,Rodent Inspection and Treatment,DOH- Department Of Health,DOH,1,2020-03-19T15:22:38.000Z,,2020-04-08T15:22:38.000Z,2020-03-19T15:22:38.000Z,,,,Open,,20-00100543,Standard,3818 10TH STREET NW,397620.86,141145.51,38.9381943,-77.02744188,WASHINGTON,DC,20011,225035,4
-77.042821677596109,38.917644755180696,143,S0311,Rodent Inspection and Treatment,DOH- Department Of Health,DOH,1,2020-03-27T15:55:38.000Z,,2020-04-17T15:55:38.000Z,2020-03-27T15:55:38.000Z,,,,Open,,20-00110774,Standard,1836 CALIFORNIA STREET NW,396286.6,138864.02,38.9176373,-77.04281938,WASHINGTON,DC,20009,235555,1
-77.041490292206831,38.914455564268373,144,S0311,Rodent Inspection and Treatment,DOH- Department Of Health,DOH,1,2020-03-30T15:04:29.000Z,,2020-04-20T15:04:29.000Z,2020-03-30T15:04:29.000Z,,,,Open,,20-00113510,Standard,1807 18TH STREET NW,396401.9,138509.94,38.91444811,-77.041488,WASHINGTON,DC,20009,279405,2
-77.020575820576127,38.935876415782943,145,S0311,Rodent Inspection and Treatment,DOH- Department Of Health,DOH,1,2020-03-27T23:59:19.000Z,,2020-04-17T23:59:19.000Z,2020-03-27T23:59:19.000Z,,,,Open,,20-00111185,Standard,633 PRINCETON PLACE NW,398216.27,140887.22,38.93586896,-77.02057353,WASHINGTON,DC,20010,228504,1
-76.985155730902562,38.878229889510877,146,S0311,Rodent Inspection and Treatment,DOH- Department Of Health,DOH,1,2020-03-20T13:11:14.000Z,,2020-04-09T13:11:14.000Z,2020-03-20T13:11:14.000Z,,,,Open,,20-00101753,Standard,1405 K STREET SE,401288.24,134487.89,38.87822244,-76.98515345,WASHINGTON,DC,20003,65013,6
-77.012414372834456,38.916715075874023,147,S0311,Rodent Inspection and Treatment,DOH- Department Of Health,DOH,1,2020-03-20T13:14:10.000Z,2020-03-24T11:13:42.000Z,2020-04-09T13:14:10.000Z,2020-03-20T13:14:10.000Z,1,2020-03-24T11:13:42.000Z,,Closed,,20-00101763,Standard,1936 1ST STREET NW,398923.58,138760.02,38.91670762,-77.01241208,WASHINGTON,DC,20001,227487,5
-77.023804176946953,38.927903810810278,148,S0311,Rodent Inspection and Treatment,DOH- Department Of Health,DOH,1,2020-03-31T22:32:59.000Z,,2020-04-21T22:32:59.000Z,2020-03-31T22:32:59.000Z,,,,Open,,20-00115739,Standard,724 COLUMBIA ROAD NW,397936.14,140002.26,38.92789635,-77.02380188,WASHINGTON,DC,20001,232767,1
-77.03874845011191,38.923374842587506,149,S0311,Rodent Inspection and Treatment,DOH- Department Of Health,DOH,1,2020-03-27T23:59:35.000Z,,2020-04-16T23:59:35.000Z,2020-03-27T23:59:35.000Z,,,,Open,,20-00111186,Standard,2505 17TH STREET NW,396640.11,139499.95,38.92336739,-77.03874615,WASHINGTON,DC,20009,235855,1
-77.023969787264335,38.926190485345991,150,S0311,Rodent Inspection and Treatment,DOH- Department Of Health,DOH,1,2020-03-15T14:38:19.000Z,2020-03-19T06:52:57.000Z,2020-04-02T14:38:19.000Z,2020-03-15T14:38:19.000Z,1,2020-03-19T06:52:57.000Z,,Closed,,20-00093628,Standard,733 GIRARD STREET NW,397921.73,139812.07,38.92618303,-77.02396749,WASHINGTON,DC,20001,232526,1
-77.018113557470514,38.941834459704125,151,S0311,Rodent Inspection and Treatment,DOH- Department Of Health,DOH,1,2020-03-25T13:15:31.000Z,,2020-04-14T13:15:31.000Z,2020-03-25T13:15:31.000Z,,,,Open,,20-00107418,Standard,4127 ILLINOIS AVENUE NW,398429.88,141548.57,38.941827,-77.01811127,WASHINGTON,DC,20011,248004,4
-77.003261759492815,38.922546510491195,152,S0311,Rodent Inspection and Treatment,DOH- Department Of Health,DOH,1,2020-03-31T12:48:39.000Z,,2020-04-21T12:48:39.000Z,2020-03-31T12:48:39.000Z,,,,Open,,20-00115020,Standard,202 CHANNING STREET NE,399717.35,139407.29,38.92253905,-77.00325947,WASHINGTON,DC,20002,52727,5
-77.011284249624936,38.914655705011128,153,S0311,Rodent Inspection and Treatment,DOH- Department Of Health,DOH,1,2020-03-23T21:10:49.000Z,2020-03-24T09:22:33.000Z,2020-04-10T21:10:49.000Z,2020-03-23T21:10:49.000Z,1,2020-03-24T09:22:32.000Z,,Closed,,20-00104888,Standard,68 SEATON PLACE NW,399021.56,138531.4,38.91464825,-77.01128196,WASHINGTON,DC,20001,227125,5
-77.017592707736725,38.957070598970674,154,S0311,Rodent Inspection and Treatment,DOH- Department Of Health,DOH,1,2020-03-20T08:17:40.000Z,,2020-04-09T08:17:40.000Z,2020-03-20T08:17:40.000Z,,,,Open,,20-00101111,Standard,5517 4TH STREET NW,398475.36,143239.91,38.95706313,-77.01759042,WASHINGTON,DC,20011,249455,4
-77.005062228308461,38.912840599922845,155,S0311,Rodent Inspection and Treatment,DOH- Department Of Health,DOH,1,2020-03-19T12:32:29.000Z,2020-03-20T09:32:06.000Z,2020-04-08T12:32:29.000Z,2020-03-19T12:32:29.000Z,1,2020-03-20T09:32:06.000Z,,Closed,,20-00100052,Standard,138 R STREET NE,399561.16,138329.86,38.91283281,-77.00505994,WASHINGTON,DC,20002,65510,5
-77.028800154012046,38.929923341031099,156,S0311,Rodent Inspection and Treatment,DOH- Department Of Health,DOH,1,2020-03-22T10:54:20.000Z,,2020-04-09T10:54:20.000Z,2020-03-22T10:54:20.000Z,,,,Open,,20-00103175,Standard,1221 KENYON STREET NW,397503.01,140226.57,38.92991555,-77.02879786,WASHINGTON,DC,20010,231155,1
-77.031400415802736,38.925002239301044,157,S0311,Rodent Inspection and Treatment,DOH- Department Of Health,DOH,1,2020-03-30T10:47:34.000Z,,2020-04-20T10:47:34.000Z,2020-03-30T10:47:34.000Z,,,,Open,,20-00112742,Standard,1343 FAIRMONT STREET NW,397277.36,139680.36,38.92499478,-77.03139812,WASHINGTON,DC,20009,231632,1
-76.980142371594397,38.9064259819529,158,S0311,Rodent Inspection and Treatment,DOH- Department Of Health,DOH,1,2020-03-21T18:07:35.000Z,2020-03-24T07:16:30.000Z,2020-04-09T18:07:35.000Z,2020-03-21T18:07:35.000Z,1,2020-03-24T07:14:00.000Z,,Closed,,20-00102948,Standard,1239 16TH STREET NE,401722.57,137617.96,38.90641853,-76.98014009,WASHINGTON,DC,20002,70033,5
-77.017323397074364,38.917088296945032,159,S0311,Rodent Inspection and Treatment,DOH- Department Of Health,DOH,1,2020-03-16T11:22:47.000Z,2020-03-19T06:53:59.000Z,2020-04-03T11:22:47.000Z,2020-03-16T11:22:47.000Z,1,2020-03-19T06:53:59.000Z,,Closed,,20-00094349,Standard,1935 4TH STREET NW,398497.86,138801.52,38.91708084,-77.01732111,WASHINGTON,DC,20001,229701,1
-77.014512314639035,38.913366525773576,160,S0311,Rodent Inspection and Treatment,DOH- Department Of Health,DOH,1,2020-03-27T12:30:49.000Z,2020-04-01T10:45:34.000Z,2020-04-17T12:30:49.000Z,2020-03-27T12:30:49.000Z,1,2020-04-01T10:45:33.000Z,,Closed,,20-00110353,Standard,209 FLORIDA AVENUE NW,398741.58,138388.33,38.91335907,-77.01451003,WASHINGTON,DC,20001,230009,5
-77.015955387954477,38.961513527538166,161,S0311,Rodent Inspection and Treatment,DOH- Department Of Health,DOH,1,2020-03-27T12:31:59.000Z,,2020-04-17T12:31:59.000Z,2020-03-27T12:31:59.000Z,,,,Open,,20-00110360,Standard,249 OGLETHORPE STREET NW,398617.36,143733.09,38.96150606,-77.0159531,WASHINGTON,DC,20011,244934,4
-77.022569457357108,38.948946625661023,162,S0311,Rodent Inspection and Treatment,DOH- Department Of Health,DOH,1,2020-03-18T14:11:24.000Z,2020-03-24T08:28:14.000Z,2020-04-07T14:11:24.000Z,2020-03-18T14:11:24.000Z,1,2020-03-19T09:32:00.000Z,,Closed,,20-00098522,Standard,4817 ILLINOIS AVENUE NW,398043.78,142338.17,38.94893916,-77.02256716,WASHINGTON,DC,20011,249934,4
-77.02365217994992,38.909490274836926,163,S0311,Rodent Inspection and Treatment,DOH- Department Of Health,DOH,1,2020-03-27T23:48:24.000Z,2020-04-01T13:46:43.000Z,2020-04-17T23:48:24.000Z,2020-03-27T23:48:24.000Z,1,2020-04-01T13:46:42.000Z,,Closed,,20-00111175,Standard,880 P STREET NW,397948.79,137958.2,38.90948282,-77.02364989,WASHINGTON,DC,20001,310638,6
-77.031355167628604,38.895010139724491,164,S0311,Rodent Inspection and Treatment,DOH- Department Of Health,DOH,1,2020-03-16T05:10:15.000Z,2020-03-25T08:16:30.000Z,2020-04-03T05:10:15.000Z,2020-03-16T05:10:15.000Z,1,2020-03-25T08:16:30.000Z,,Closed,,20-00093846,Standard,1350 PENNSYLVANIA AVENUE NW,397280.14,136350.99,38.89500269,-77.03135287,WASHINGTON,DC,20004,293203,2
-76.976428368446705,38.895536257638035,165,S0311,Rodent Inspection and Treatment,DOH- Department Of Health,DOH,1,2020-03-27T09:27:32.000Z,2020-03-31T12:04:03.000Z,2020-04-17T09:27:31.000Z,2020-03-27T09:27:32.000Z,1,2020-03-31T12:04:02.000Z,,Closed,,20-00109905,Standard,426 20TH STREET NE,402045.02,136409.19,38.8955288,-76.97642609,WASHINGTON,DC,20002,24322,7
-77.073437078893491,38.922350610601072,166,S0311,Rodent Inspection and Treatment,DOH- Department Of Health,DOH,1,2020-03-26T16:52:17.000Z,,2020-04-15T16:52:17.000Z,2020-03-26T16:52:17.000Z,,,,Open,,20-00109380,Standard,3700 CALVERT STREET NW,393631.98,139388.1,38.92234282,-77.07343477,WASHINGTON,DC,20007,271794,3
-77.02732096115966,38.91165264801149,167,S0311,Rodent Inspection and Treatment,DOH- Department Of Health,DOH,1,2020-03-27T10:19:01.000Z,2020-03-31T07:36:27.000Z,2020-04-17T10:19:01.000Z,2020-03-27T10:19:01.000Z,1,2020-03-31T07:36:26.000Z,,Closed,,20-00110016,Standard,1616 11TH STREET NW,397630.66,138198.33,38.91164519,-77.02731867,WASHINGTON,DC,20001,239072,2
-77.003017002601268,38.913164430374188,168,S0311,Rodent Inspection and Treatment,DOH- Department Of Health,DOH,1,2020-03-30T12:49:14.000Z,2020-04-01T12:09:11.000Z,2020-04-20T12:49:14.000Z,2020-03-30T12:49:14.000Z,1,2020-04-01T12:09:10.000Z,,Closed,,20-00113100,Standard,209 RANDOLPH PLACE NE,399738.54,138365.8,38.91315697,-77.00301472,WASHINGTON,DC,20002,51973,5
-77.028814993820561,38.926976087370718,169,S0311,Rodent Inspection and Treatment,DOH- Department Of Health,DOH,1,2020-03-19T22:26:47.000Z,,2020-04-08T22:26:47.000Z,2020-03-19T22:26:47.000Z,,,,Open,,20-00100992,Standard,1215 HARVARD STREET NW,397501.62,139899.4,38.92696863,-77.0288127,WASHINGTON,DC,20009,231493,1
-77.027410757362574,38.9448913232942,170,S0311,Rodent Inspection and Treatment,DOH- Department Of Health,DOH,1,2020-03-26T10:44:16.000Z,,2020-04-15T10:44:16.000Z,2020-03-26T10:44:16.000Z,,,,Open,,20-00108601,Standard,1118 ALLISON STREET NW,397623.98,141888.11,38.94488386,-77.02740846,WASHINGTON,DC,20011,252649,4
-76.994195285632685,38.93703718108425,171,S0311,Rodent Inspection and Treatment,DOH- Department Of Health,DOH,1,2020-03-16T08:29:48.000Z,2020-03-24T07:32:36.000Z,2020-04-03T08:29:48.000Z,2020-03-16T08:29:48.000Z,1,2020-03-24T07:32:00.000Z,,Closed,,20-00093946,Standard,921 PERRY PLACE NE,400503.46,141015.89,38.93702972,-76.994193,WASHINGTON,DC,20017,82565,5
-77.026200700644424,38.952771412328104,172,S0311,Rodent Inspection and Treatment,DOH- Department Of Health,DOH,1,2020-03-29T14:34:31.000Z,2020-03-31T09:59:46.000Z,2020-04-17T14:34:31.000Z,2020-03-29T14:34:31.000Z,1,2020-03-31T09:59:46.000Z,,Closed,,20-00112039,Standard,906 HAMILTON STREET NW,397729.13,142762.84,38.95276395,-77.02619841,WASHINGTON,DC,20011,251728,4
-77.020997072026432,38.93597795449346,173,S0311,Rodent Inspection and Treatment,DOH- Department Of Health,DOH,1,2020-03-30T18:38:11.000Z,2020-03-31T09:47:42.000Z,2020-04-20T18:38:10.000Z,2020-03-30T18:38:11.000Z,1,2020-03-31T09:47:41.000Z,,Closed,,20-00113871,Standard,3635 WARDER STREET NW,398179.75,140898.5,38.93597049,-77.02099478,WASHINGTON,DC,20010,228484,1
-76.994600450745367,38.896306473983159,174,S0311,Rodent Inspection and Treatment,DOH- Department Of Health,DOH,1,2020-03-29T17:55:04.000Z,2020-04-01T13:37:30.000Z,2020-04-17T17:55:04.000Z,2020-03-29T17:55:04.000Z,1,2020-04-01T13:37:29.000Z,,Closed,,20-00112140,Standard,804 E STREET NE,400468.6,136494.44,38.89629902,-76.99459817,WASHINGTON,DC,20002,79738,6
-77.00716856237878,38.898921209574041,175,S0311,Rodent Inspection and Treatment,DOH- Department Of Health,DOH,1,2020-03-17T09:21:37.000Z,,2020-04-06T09:21:37.000Z,2020-03-17T09:21:37.000Z,,,,Open,,20-00095914,Standard,1ST STREET NE AND G STREET NE,399378.359997383,136784.707014983,38.8989134218956,-77.0071662766756,WASHINGTON,DC,20002,903505,6
-76.979506018209193,38.894979310156096,176,S0311,Rodent Inspection and Treatment,DOH- Department Of Health,DOH,1,2020-03-19T12:25:34.000Z,2020-03-19T14:24:02.000Z,2020-04-08T12:25:34.000Z,2020-03-19T12:25:34.000Z,1,2020-03-19T14:24:02.000Z,,Closed,,20-00100032,Standard,1734 D STREET NE,401778.05,136347.3,38.89497186,-76.97950374,WASHINGTON,DC,20002,56683,6
-77.012911274660937,38.876790667122862,177,S0311,Rodent Inspection and Treatment,DOH- Department Of Health,DOH,1,2020-04-01T03:16:41.000Z,,2020-04-22T03:16:40.000Z,2020-04-01T03:16:41.000Z,,,,Open,,20-00115781,Standard,101 M STREET SW,398879.86,134328.1,38.87678322,-77.01290899,WASHINGTON,DC,20024,152387,6
-77.020703452099994,38.951194355819133,178,S0311,Rodent Inspection and Treatment,DOH- Department Of Health,DOH,1,2020-03-21T18:19:39.000Z,2020-03-25T08:50:10.000Z,2020-04-09T18:19:39.000Z,2020-03-21T18:19:39.000Z,1,2020-03-23T14:05:00.000Z,,Closed,,20-00102955,Standard,617 FARRAGUT STREET NW,398205.59,142587.65,38.95118689,-77.02070116,WASHINGTON,DC,20011,247043,4
-76.996932001209373,38.95849996251949,179,S0311,Rodent Inspection and Treatment,DOH- Department Of Health,DOH,1,2020-03-21T18:27:36.000Z,2020-03-27T08:09:52.000Z,2020-04-09T18:27:36.000Z,2020-03-21T18:27:36.000Z,1,2020-03-26T08:25:00.000Z,,Closed,,20-00102962,Standard,637 NICHOLSON STREET NE,400266.11,143398.44,38.9584925,-76.99692972,WASHINGTON,DC,20011,2417,4
-76.985248438756443,38.891371963292073,180,S0311,Rodent Inspection and Treatment,DOH- Department Of Health,DOH,1,2020-03-25T18:46:03.000Z,2020-03-26T09:33:42.000Z,2020-04-14T18:46:03.000Z,2020-03-25T18:46:03.000Z,1,2020-03-26T09:33:42.000Z,,Closed,,20-00108011,Standard,111 14TH STREET NE,401279.96,135946.76,38.89136451,-76.98524616,WASHINGTON,DC,20002,74225,6
-77.074402242638499,38.924072121584196,181,S0311,Rodent Inspection and Treatment,DOH- Department Of Health,DOH,1,2020-03-16T15:24:34.000Z,,2020-04-03T15:24:34.000Z,2020-03-16T15:24:34.000Z,,,,Open,,20-00095028,Standard,2650 WISCONSIN AVENUE NW,393548.44,139579.27,38.92406467,-77.07439993,WASHINGTON,DC,20007,271823,3
-77.002743402381739,38.913537112087425,182,S0311,Rodent Inspection and Treatment,DOH- Department Of Health,DOH,1,2020-03-16T14:21:01.000Z,2020-03-16T14:26:56.000Z,2020-04-03T14:21:00.000Z,2020-03-16T14:21:01.000Z,1,2020-03-16T14:26:55.000Z,,Closed,,20-00094851,Standard,220 RANDOLPH PLACE NE,399762.27,138407.17,38.91352966,-77.00274112,WASHINGTON,DC,20002,50730,5
-77.065922762478579,38.906429879123031,183,S0311,Rodent Inspection and Treatment,DOH- Department Of Health,DOH,1,2020-03-23T15:49:08.000Z,2020-03-24T09:57:39.000Z,2020-04-10T15:49:08.000Z,2020-03-23T15:49:08.000Z,1,2020-03-24T09:57:39.000Z,,Closed,,20-00104569,Standard,1243 33RD STREET NW,394282.32,137620.27,38.90642209,-77.06592046,WASHINGTON,DC,20007,289338,2
-77.016545161259856,38.949839092716253,184,S0311,Rodent Inspection and Treatment,DOH- Department Of Health,DOH,1,2020-03-16T17:50:50.000Z,2020-03-24T08:39:57.000Z,2020-04-03T17:50:49.000Z,2020-03-16T17:50:50.000Z,1,2020-03-17T09:16:00.000Z,,Closed,,20-00095355,Standard,318 EMERSON STREET NW,398566.01,142437.13,38.94983163,-77.01654287,WASHINGTON,DC,20011,243856,4
-77.022161116283655,38.88190703633903,185,S0311,Rodent Inspection and Treatment,DOH- Department Of Health,DOH,1,2020-03-26T11:23:07.000Z,,2020-04-15T11:23:06.000Z,2020-03-26T11:23:07.000Z,,,,Open,,20-00108691,Standard,603 7TH STREET SW,398077.37,134896.21,38.88189959,-77.02215883,WASHINGTON,DC,20024,276683,6
-77.012911274660937,38.876790667122862,186,S0311,Rodent Inspection and Treatment,DOH- Department Of Health,DOH,1,2020-03-23T13:59:29.000Z,,2020-04-10T13:59:29.000Z,2020-03-23T13:59:29.000Z,,,,Open,,20-00104350,Standard,101 M STREET SW,398879.86,134328.1,38.87678322,-77.01290899,WASHINGTON,DC,20024,152387,6
-76.987419659301764,38.911456441623109,187,S0311,Rodent Inspection and Treatment,DOH- Department Of Health,DOH,1,2020-03-23T14:03:20.000Z,2020-03-25T07:21:04.000Z,2020-04-10T14:03:20.000Z,2020-03-23T14:03:20.000Z,1,2020-03-25T07:20:00.000Z,,Closed,,20-00104358,Standard,1816 CORCORAN STREET NE,401091.29,138176.27,38.91144898,-76.98741738,WASHINGTON,DC,20002,55563,5
-76.934923464552867,38.876705147354578,188,S0311,Rodent Inspection and Treatment,DOH- Department Of Health,DOH,1,2020-03-25T10:47:36.000Z,2020-03-25T18:35:36.000Z,2020-04-14T10:47:36.000Z,2020-03-25T10:47:36.000Z,1,2020-03-25T18:35:36.000Z,,Closed,,20-00107064,Standard,1152 45TH PLACE SE,405647.03,134320.54,38.8766977,-76.9349212,WASHINGTON,DC,20019,72674,7
-77.029156275509621,38.910981803585791,189,S0311,Rodent Inspection and Treatment,DOH- Department Of Health,DOH,1,2020-04-01T11:12:38.000Z,,2020-04-22T11:12:38.000Z,2020-04-01T11:12:38.000Z,,,,Open,,20-00116398,Standard,1202 Q STREET NW,397471.46,138123.91,38.91097435,-77.02915398,WASHINGTON,DC,20009,225337,2
-77.028108508278862,38.953887184006319,190,S0311,Rodent Inspection and Treatment,DOH- Department Of Health,DOH,1,2020-03-25T09:45:20.000Z,2020-03-27T08:17:16.000Z,2020-04-14T09:45:20.000Z,2020-03-25T09:45:20.000Z,1,2020-03-27T13:15:00.000Z,,Closed,,20-00106915,Standard,1206 INGRAHAM STREET NW,397563.8,142886.75,38.95387972,-77.02810621,WASHINGTON,DC,20011,252971,4
-77.054385155994495,38.926903746681944,191,S0311,Rodent Inspection and Treatment,DOH- Department Of Health,DOH,1,2020-03-29T11:41:46.000Z,,2020-04-17T11:41:46.000Z,2020-03-29T11:41:46.000Z,,,,Open,,20-00111978,Standard,2619 GARFIELD STREET NW,395284.4,139892.38,38.92689629,-77.05438285,WASHINGTON,DC,20008,219947,3
-77.005750638376085,38.840590795564452,192,S0311,Rodent Inspection and Treatment,DOH- Department Of Health,DOH,1,2020-04-01T14:16:24.000Z,,2020-04-22T14:16:24.000Z,2020-04-01T14:16:24.000Z,,,,Open,,20-00116828,Standard,3509 BROTHERS PLACE SE,399500.95,130309.59,38.84058335,-77.00574836,WASHINGTON,DC,20032,33867,8
-77.049380884787197,38.902991355665414,193,S0311,Rodent Inspection and Treatment,DOH- Department Of Health,DOH,1,2020-03-17T21:09:55.000Z,2020-03-19T09:07:25.000Z,2020-04-06T21:09:55.000Z,2020-03-17T21:09:55.000Z,1,2020-03-19T09:07:24.000Z,,Closed,,20-00097398,Standard,2213 WASHINGTON CIRCLE NW,395716.89,137237.66,38.9029839,-77.04937859,WASHINGTON,DC,20037,242370,2
