X,Y,OBJECTID,SERVICECODE,SERVICECODEDESCRIPTION,SERVICETYPECODEDESCRIPTION,ORGANIZATIONACRONYM,SERVICECALLCOUNT,ADDDATE,RESOLUTIONDATE,SERVICEDUEDATE,SERVICEORDERDATE,INSPECTIONFLAG,INSPECTIONDATE,INSPECTORNAME,SERVICEORDERSTATUS,STATUS_CODE,SERVICEREQUESTID,PRIORITY,STREETADDRESS,XCOORD,YCOORD,LATITUDE,LONGITUDE,CITY,STATE,ZIPCODE,MARADDRESSREPOSITORYID,WARD
-77.044391348684059,38.924602741403753,480,S0311,Rodent Inspection and Treatment,DOH- Department Of Health,DOH,1,2020-02-17T14:41:52.000Z,2020-02-24T09:06:32.000Z,2020-03-06T14:41:52.000Z,2020-02-17T14:41:52.000Z,1,2020-02-24T09:06:00.000Z,,Closed,,20-00059977,Standard,2721 ADAMS MILL ROAD NW,396150.85,139636.48,38.92459528,-77.04438905,WASHINGTON,DC,20009,236084,1
-77.074301288401728,38.937085324030967,481,S0311,Rodent Inspection and Treatment,DOH- Department Of Health,DOH,1,2020-03-03T15:21:38.000Z,,2020-03-23T16:21:38.000Z,2020-03-03T15:21:38.000Z,,,,Open,,20-00079003,Standard,3800 - 3814 BLOCK OF PORTER STREET NW,393558.370000004,141023.840003323,38.9370775311667,-77.0742989794591,WASHINGTON,DC,20016,801596,3
-77.023149913791727,38.951662957759005,482,S0311,Rodent Inspection and Treatment,DOH- Department Of Health,DOH,1,2020-03-04T08:24:34.000Z,2020-03-06T08:45:15.000Z,2020-03-24T09:24:34.000Z,2020-03-04T08:24:34.000Z,1,2020-03-05T11:31:00.000Z,,Closed,,20-00079564,Standard,5024 7TH PLACE NW,397993.54,142639.72,38.95165549,-77.02314762,WASHINGTON,DC,20011,250025,4
-77.004635727580705,38.882757997656327,483,S0311,Rodent Inspection and Treatment,DOH- Department Of Health,DOH,1,2020-03-04T20:03:30.000Z,2020-03-09T09:27:57.000Z,2020-03-24T21:03:30.000Z,2020-03-04T20:03:30.000Z,1,2020-03-09T09:24:00.000Z,,Closed,,20-00080805,Standard,138 DUDDINGTON PLACE SE,399597.98,134990.45,38.88275055,-77.00463344,WASHINGTON,DC,20003,65500,6
-77.032797788642512,38.96338733625101,484,S0311,Rodent Inspection and Treatment,DOH- Department Of Health,DOH,1,2020-02-21T00:12:25.000Z,2020-02-24T09:04:19.000Z,2020-03-11T01:12:25.000Z,2020-02-21T00:12:25.000Z,1,2020-02-22T00:02:00.000Z,,Closed,,20-00065219,Standard,1371 PEABODY STREET NW,397157.72,143941.49,38.96337987,-77.03279549,WASHINGTON,DC,20011,258185,4
-76.978319962994675,38.887021638148497,485,S0311,Rodent Inspection and Treatment,DOH- Department Of Health,DOH,1,2020-03-05T11:59:09.000Z,2020-03-05T15:16:34.000Z,2020-03-25T12:59:09.000Z,2020-03-05T11:59:09.000Z,1,2020-03-06T12:25:24.000Z,,Closed,,20-00081437,Standard,1816 BAY STREET SE,401881.15,135463.96,38.88701419,-76.97831769,WASHINGTON,DC,20003,55559,6
-77.014610605828182,38.943449775996015,486,S0311,Rodent Inspection and Treatment,DOH- Department Of Health,DOH,1,2020-03-06T12:10:19.000Z,2020-03-09T14:28:44.000Z,2020-03-26T13:10:18.000Z,2020-03-06T12:10:19.000Z,1,2020-03-09T11:05:00.000Z,,Closed,,20-00082761,Standard,211 VARNUM STREET NW,398733.59,141727.83,38.94344231,-77.01460832,WASHINGTON,DC,20011,244413,4
-77.004079405166848,38.917169684229798,487,S0311,Rodent Inspection and Treatment,DOH- Department Of Health,DOH,1,2020-02-15T21:42:04.000Z,2020-02-21T13:23:34.000Z,2020-03-06T21:42:04.000Z,2020-02-15T21:42:04.000Z,1,2020-02-21T13:23:33.000Z,,Closed,,20-00059244,Standard,168 U STREET NE,399646.42,138810.42,38.91716223,-77.00407712,WASHINGTON,DC,20002,58060,5
-77.03195558587511,38.914470001621865,86,S0311,Rodent Inspection and Treatment,DOH- Department Of Health,DOH,1,2020-02-24T14:08:09.000Z,,2020-03-13T15:08:09.000Z,2020-02-24T14:08:09.000Z,,,,Open,,20-00068612,Standard,1800 - 1823 BLOCK OF 14TH STREET NW,397228.810000002,138511.210003323,38.9144622117327,-77.0319532915032,WASHINGTON,DC,20009,810471,NULL
-76.993157568788817,38.92727698465422,87,S0311,Rodent Inspection and Treatment,DOH- Department Of Health,DOH,1,2020-02-17T11:40:14.000Z,2020-02-21T08:38:00.000Z,2020-03-06T11:40:14.000Z,2020-02-17T11:40:14.000Z,1,2020-02-21T08:35:00.000Z,,Closed,,20-00059845,Standard,915 HAMLIN STREET NE,400593.51,139932.43,38.92726952,-76.99315529,WASHINGTON,DC,20017,82300,5
-76.984362082582621,38.866928203106099,88,S0311,Rodent Inspection and Treatment,DOH- Department Of Health,DOH,1,2020-02-16T11:02:23.000Z,2020-02-21T10:08:55.000Z,2020-03-06T11:02:23.000Z,2020-02-16T11:02:23.000Z,1,2020-02-21T10:08:54.000Z,,Closed,,20-00059367,Standard,1408 MINNESOTA AVENUE SE,401357.32,133233.33,38.86692076,-76.98435981,WASHINGTON,DC,20020,64896,8
-77.02732096115966,38.91165264801149,89,S0311,Rodent Inspection and Treatment,DOH- Department Of Health,DOH,1,2020-02-28T15:54:02.000Z,2020-03-03T08:10:56.000Z,2020-03-19T16:54:02.000Z,2020-02-28T15:54:02.000Z,1,2020-03-02T11:00:00.000Z,,Closed,,20-00074852,Standard,1616 11TH STREET NW,397630.66,138198.33,38.91164519,-77.02731867,WASHINGTON,DC,20001,239072,2
-76.975215166607725,38.899995236928696,90,S0311,Rodent Inspection and Treatment,DOH- Department Of Health,DOH,1,2020-02-27T09:45:28.000Z,2020-03-03T11:39:01.000Z,2020-03-18T10:45:28.000Z,2020-02-27T09:45:28.000Z,1,2020-03-03T11:39:01.000Z,,Closed,,20-00072744,Standard,1931 H STREET NE,402150.13,136904.2,38.89998778,-76.97521289,WASHINGTON,DC,20002,53589,5
-77.026796483243572,38.928904707298159,91,S0311,Rodent Inspection and Treatment,DOH- Department Of Health,DOH,1,2020-02-29T20:04:08.000Z,2020-03-03T08:56:09.000Z,2020-03-19T21:04:08.000Z,2020-02-29T20:04:08.000Z,1,2020-03-03T08:56:00.000Z,,Closed,,20-00075776,Standard,1011 IRVING STREET NW,397676.71,140113.44,38.92889725,-77.02679419,WASHINGTON,DC,20010,231290,1
-76.995139974494521,38.958468102633482,92,S0311,Rodent Inspection and Treatment,DOH- Department Of Health,DOH,1,2020-02-21T11:13:58.000Z,2020-02-26T15:27:15.000Z,2020-03-12T12:13:57.000Z,2020-02-21T11:13:58.000Z,1,2020-02-26T15:26:00.000Z,,Closed,,20-00065628,Standard,5812 8TH STREET NE,400421.43,143394.91,38.95846064,-76.99513769,WASHINGTON,DC,20011,6388,4
-77.041908481554017,38.908137323690511,93,S0311,Rodent Inspection and Treatment,DOH- Department Of Health,DOH,1,2020-02-18T14:13:57.000Z,2020-02-26T12:54:09.000Z,2020-03-09T15:13:57.000Z,2020-02-18T14:13:57.000Z,1,2020-02-26T12:54:08.000Z,,Closed,,20-00061579,Standard,1312 18TH STREET NW,396365.31,137808.58,38.90812987,-77.04190618,WASHINGTON,DC,20036,241265,2
-76.968424091311434,38.874835353202258,94,S0311,Rodent Inspection and Treatment,DOH- Department Of Health,DOH,1,2020-02-25T21:48:51.000Z,2020-03-04T09:15:53.000Z,2020-03-16T22:48:51.000Z,2020-02-25T21:48:51.000Z,1,2020-02-28T09:14:00.000Z,,Closed,,20-00070764,Standard,2712 MINNESOTA AVENUE SE,402740.18,134111.44,38.8748279,-76.96842182,WASHINGTON,DC,20019,45132,7
-77.025779945105157,38.915741162290296,95,S0311,Rodent Inspection and Treatment,DOH- Department Of Health,DOH,1,2020-02-27T11:31:12.000Z,2020-03-03T15:21:32.000Z,2020-03-18T12:31:12.000Z,2020-02-27T11:31:12.000Z,1,2020-03-03T15:21:00.000Z,,Closed,,20-00073030,Standard,1901 VERMONT AVENUE NW,397764.44,138652.15,38.91573371,-77.02577765,WASHINGTON,DC,20001,239483,1
-77.043226707230659,38.923068970682195,96,S0311,Rodent Inspection and Treatment,DOH- Department Of Health,DOH,1,2020-02-17T12:50:04.000Z,2020-02-24T09:04:07.000Z,2020-03-06T12:50:04.000Z,2020-02-17T12:50:04.000Z,1,2020-02-24T09:03:00.000Z,,Closed,,20-00059893,Standard,1814 ADAMS MILL ROAD NW,396251.76,139466.17,38.92306151,-77.04322441,WASHINGTON,DC,20009,300758,1
-77.046884125665898,38.922821813453012,97,S0311,Rodent Inspection and Treatment,DOH- Department Of Health,DOH,1,2020-02-25T09:41:23.000Z,2020-03-03T08:55:48.000Z,2020-03-16T10:41:23.000Z,2020-02-25T09:41:23.000Z,1,2020-03-03T08:55:00.000Z,,Closed,,20-00069509,Standard,1971 BILTMORE STREET NW,395934.59,139438.89,38.92281436,-77.04688183,WASHINGTON,DC,20009,235292,1
-76.999765872223662,38.961048619107459,66,S0311,Rodent Inspection and Treatment,DOH- Department Of Health,DOH,1,2020-03-09T12:00:31.000Z,2020-03-13T09:25:08.000Z,2020-03-27T12:00:31.000Z,2020-03-09T12:00:31.000Z,1,2020-03-11T11:28:00.000Z,,Closed,,20-00085057,Standard,539 OGLETHORPE STREET NE,400020.49,143681.36,38.96104115,-76.99976359,WASHINGTON,DC,20011,9351,4
-77.01474240531077,38.949910048953498,67,S0311,Rodent Inspection and Treatment,DOH- Department Of Health,DOH,1,2020-03-02T08:40:43.000Z,,2020-03-20T09:40:43.000Z,2020-03-02T08:40:43.000Z,,,,Open,,20-00076440,Standard,214 EMERSON STREET NW,398722.28,142444.98,38.94990259,-77.01474011,WASHINGTON,DC,20011,244552,4
-77.019163636374259,38.91027428279164,68,S0311,Rodent Inspection and Treatment,DOH- Department Of Health,DOH,1,2020-02-28T08:26:55.000Z,2020-03-03T15:46:08.000Z,2020-03-19T09:26:55.000Z,2020-02-28T08:26:55.000Z,1,2020-03-16T08:56:09.000Z,,Closed,,20-00074005,Standard,1516 5TH STREET NW,398338.11,138045.14,38.91026649,-77.01916135,WASHINGTON,DC,20001,279216,6
-77.063500094572319,38.91028201991535,69,S0311,Rodent Inspection and Treatment,DOH- Department Of Health,DOH,1,2020-03-13T17:56:47.000Z,,2020-04-02T17:56:47.000Z,2020-03-13T17:56:47.000Z,,,,Open,,20-00092640,Standard,3142 Q STREET NW,394492.75,138047.74,38.91027457,-77.06349779,WASHINGTON,DC,20007,223897,2
-77.042660336435688,38.917608330450541,70,S0311,Rodent Inspection and Treatment,DOH- Department Of Health,DOH,1,2020-03-12T13:40:56.000Z,,2020-04-01T13:40:55.000Z,2020-03-12T13:40:56.000Z,,,,Open,,20-00090472,Standard,1828 CALIFORNIA STREET NW,396300.59,138859.97,38.91760087,-77.04265804,WASHINGTON,DC,20009,235538,1
-77.04125862659636,38.924789821178557,71,S0311,Rodent Inspection and Treatment,DOH- Department Of Health,DOH,1,2020-03-12T13:44:18.000Z,,2020-04-01T13:44:18.000Z,2020-03-12T13:44:18.000Z,,,,Open,,20-00090482,Standard,1732 LANIER PLACE NW,396422.51,139657.12,38.92478236,-77.04125633,WASHINGTON,DC,20009,235917,1
-77.043518882237223,38.92299688573361,72,S0311,Rodent Inspection and Treatment,DOH- Department Of Health,DOH,1,2020-02-17T12:58:30.000Z,2020-02-24T09:04:59.000Z,2020-03-06T12:58:30.000Z,2020-02-17T12:58:30.000Z,1,2020-02-24T09:04:00.000Z,,Closed,,20-00059902,Standard,1814 CALVERT STREET NW,396226.42,139458.18,38.92298943,-77.04351658,WASHINGTON,DC,20009,235333,1
-77.022434164978151,38.907245454874804,73,S0311,Rodent Inspection and Treatment,DOH- Department Of Health,DOH,1,2020-02-27T14:14:07.000Z,,2020-03-18T15:14:07.000Z,2020-02-27T14:14:07.000Z,,,,Open,,20-00073363,Standard,700 - 799 BLOCK OF N STREET NW,398054.369999998,137708.980003319,38.9072376660869,-77.0224318740128,WASHINGTON,DC,20001,812631,NULL
-77.028710526558598,38.93675796440214,74,S0311,Rodent Inspection and Treatment,DOH- Department Of Health,DOH,1,2020-02-15T18:53:30.000Z,2020-02-21T14:42:10.000Z,2020-03-06T18:53:30.000Z,2020-02-15T18:53:30.000Z,1,2020-02-21T13:13:00.000Z,,Closed,,20-00059201,Standard,1044 QUEBEC PLACE NW,397511.02,140985.27,38.9367505,-77.02870823,WASHINGTON,DC,20010,230096,4
-77.044408634791694,38.924768397853548,75,S0311,Rodent Inspection and Treatment,DOH- Department Of Health,DOH,1,2020-02-17T13:06:27.000Z,2020-02-24T09:05:43.000Z,2020-03-06T13:06:27.000Z,2020-02-17T13:06:27.000Z,1,2020-02-24T09:05:00.000Z,,Closed,,20-00059908,Standard,2727 ADAMS MILL ROAD NW,396149.36,139654.87,38.92476094,-77.04440634,WASHINGTON,DC,20009,236081,1
-77.023367380488196,38.915778153453523,76,S0311,Rodent Inspection and Treatment,DOH- Department Of Health,DOH,1,2020-02-26T09:02:15.000Z,2020-03-03T14:24:14.000Z,2020-03-17T10:02:15.000Z,2020-02-26T09:02:15.000Z,1,2020-03-03T14:21:00.000Z,,Closed,,20-00071004,Standard,809 T STREET NW,397973.67,138656.2,38.9157707,-77.02336509,WASHINGTON,DC,20001,239839,1
-77.038318480683373,38.931851989402112,77,S0311,Rodent Inspection and Treatment,DOH- Department Of Health,DOH,1,2020-02-26T09:04:06.000Z,2020-03-04T07:00:50.000Z,2020-03-17T10:04:06.000Z,2020-02-26T09:04:06.000Z,1,2020-03-03T11:25:00.000Z,,Closed,,20-00071011,Standard,3221 MOUNT PLEASANT STREET NW,396677.79,140440.97,38.93184453,-77.03831618,WASHINGTON,DC,20010,284607,1
-77.02942500230975,38.927939374699648,78,S0311,Rodent Inspection and Treatment,DOH- Department Of Health,DOH,1,2020-02-27T15:35:19.000Z,2020-03-03T08:54:42.000Z,2020-03-18T16:35:19.000Z,2020-02-27T15:35:19.000Z,1,2020-03-03T08:54:00.000Z,,Closed,,20-00073507,Standard,3007 13TH STREET NW,397448.76,140006.35,38.92793158,-77.02942271,WASHINGTON,DC,20009,231443,1
-77.030432573393426,38.915411509108743,79,S0311,Rodent Inspection and Treatment,DOH- Department Of Health,DOH,1,2020-02-25T17:24:59.000Z,2020-02-26T14:18:31.000Z,2020-03-16T18:24:59.000Z,2020-02-25T17:24:59.000Z,1,2020-02-27T00:15:00.000Z,,Closed,,20-00070584,Standard,1314 T STREET NW,397360.93,138615.68,38.91540405,-77.03043028,WASHINGTON,DC,20009,240439,1
-76.99973379759939,38.96072233997198,80,S0311,Rodent Inspection and Treatment,DOH- Department Of Health,DOH,1,2020-02-25T18:18:37.000Z,2020-02-26T15:29:11.000Z,2020-03-16T19:18:37.000Z,2020-02-25T18:18:37.000Z,1,2020-02-26T13:46:00.000Z,,Closed,,20-00070657,Standard,524 RIGGS ROAD NE,400023.27,143645.14,38.96071487,-76.99973151,WASHINGTON,DC,20011,11280,4
-77.001196372486646,38.886186494756892,81,S0311,Rodent Inspection and Treatment,DOH- Department Of Health,DOH,1,2020-03-01T06:50:01.000Z,2020-03-04T08:50:54.000Z,2020-03-19T07:49:59.000Z,2020-03-01T06:50:01.000Z,1,2020-03-04T08:50:00.000Z,,Closed,,20-00075850,Standard,320 C STREET SE,399896.4,135371.03,38.88617904,-77.00119409,WASHINGTON,DC,20003,38985,6
-77.07184590340438,38.918786463304585,82,S0311,Rodent Inspection and Treatment,DOH- Department Of Health,DOH,1,2020-02-20T16:14:06.000Z,2020-02-25T08:42:40.000Z,2020-03-11T17:14:06.000Z,2020-02-20T16:14:06.000Z,1,2020-02-25T08:42:00.000Z,,Closed,,20-00064838,Standard,2202 HALL PLACE NW,393769.65,138992.34,38.91877901,-77.0718436,WASHINGTON,DC,20007,224625,3
-76.983432675442671,38.880715613949562,83,S0311,Rodent Inspection and Treatment,DOH- Department Of Health,DOH,1,2020-02-15T14:03:38.000Z,2020-02-24T08:39:00.000Z,2020-03-06T14:03:38.000Z,2020-02-15T14:03:38.000Z,1,2020-02-24T08:38:00.000Z,,Closed,,20-00059047,Standard,706 15TH STREET SE,401437.7,134763.85,38.88070783,-76.9834304,WASHINGTON,DC,20003,312584,6
-77.063148533739366,38.938522669869435,84,S0311,Rodent Inspection and Treatment,DOH- Department Of Health,DOH,1,2020-02-15T14:07:17.000Z,2020-02-25T08:44:31.000Z,2020-03-06T14:07:17.000Z,2020-02-15T14:07:17.000Z,1,2020-02-25T08:44:00.000Z,,Closed,,20-00059050,Standard,3104 RODMAN STREET NW,394525.41,141182.67,38.93851521,-77.06314623,WASHINGTON,DC,20008,220732,3
-77.075454084445667,38.964178152879825,85,S0311,Rodent Inspection and Treatment,DOH- Department Of Health,DOH,1,2020-02-23T07:13:33.000Z,2020-02-24T15:31:30.000Z,2020-03-12T08:13:33.000Z,2020-02-23T07:13:33.000Z,1,2020-02-24T15:31:00.000Z,,Closed,,20-00067263,Standard,5532 CONNECTICUT AVENUE NW,393460.91,144031.47,38.96417069,-77.07545177,WASHINGTON,DC,20015,263826,3
-77.018313012497842,38.95805914522461,257,S0311,Rodent Inspection and Treatment,DOH- Department Of Health,DOH,1,2020-02-25T17:50:36.000Z,2020-02-26T14:57:50.000Z,2020-03-16T18:50:36.000Z,2020-02-25T17:50:36.000Z,1,2020-02-26T10:44:00.000Z,,Closed,,20-00070627,Standard,403 MISSOURI AVENUE NW,398412.95,143349.66,38.95805168,-77.01831072,WASHINGTON,DC,20011,248806,4
-76.954806538091887,38.894771452436913,258,S0311,Rodent Inspection and Treatment,DOH- Department Of Health,DOH,1,2020-02-27T20:33:10.000Z,2020-03-04T08:55:55.000Z,2020-03-18T21:33:10.000Z,2020-02-27T20:33:10.000Z,1,2020-03-04T08:55:00.000Z,,Closed,,20-00073819,Standard,36TH STREET NE AND DIX STREET NE,403920.740001585,136324.99699855,38.894763663646,-76.9548042689501,WASHINGTON,DC,20019,901307,7
-76.955176519388431,38.895763173195036,259,S0311,Rodent Inspection and Treatment,DOH- Department Of Health,DOH,1,2020-02-27T20:34:44.000Z,2020-03-09T09:24:46.000Z,2020-03-18T21:34:44.000Z,2020-02-27T20:34:44.000Z,1,2020-02-28T09:23:00.000Z,,Closed,,20-00073820,Standard,3451 BENNING ROAD NE,403888.59,136435.07,38.89575572,-76.95517425,WASHINGTON,DC,20019,287928,7
-77.019065505365333,38.9490452597434,260,S0311,Rodent Inspection and Treatment,DOH- Department Of Health,DOH,1,2020-03-06T14:42:02.000Z,2020-03-11T08:32:18.000Z,2020-03-26T15:42:02.000Z,2020-03-06T14:42:02.000Z,1,2020-03-10T08:27:00.000Z,,Closed,,20-00083042,Standard,450 DELAFIELD PLACE NW,398347.52,142349.05,38.9490378,-77.01906321,WASHINGTON,DC,20011,248319,4
-77.073868758086277,38.936308001512998,261,S0311,Rodent Inspection and Treatment,DOH- Department Of Health,DOH,1,2020-02-25T07:06:50.000Z,2020-03-02T08:07:53.000Z,2020-03-16T08:06:50.000Z,2020-02-25T07:06:50.000Z,1,2020-03-02T08:07:00.000Z,,Closed,,20-00069269,Standard,3401 38TH STREET NW,393595.8,140937.52,38.93630054,-77.07386645,WASHINGTON,DC,20016,223167,3
-77.035205875434798,38.935150638835744,262,S0311,Rodent Inspection and Treatment,DOH- Department Of Health,DOH,1,2020-03-12T11:36:09.000Z,,2020-04-01T11:36:09.000Z,2020-03-12T11:36:09.000Z,,,,Open,,20-00090134,Standard,3536 CENTER STREET NW,396947.81,140807.04,38.93514284,-77.03520358,WASHINGTON,DC,20010,234680,1
-77.004079405166848,38.917169684229798,263,S0311,Rodent Inspection and Treatment,DOH- Department Of Health,DOH,1,2020-03-09T10:08:16.000Z,2020-03-10T12:00:17.000Z,2020-03-27T10:08:16.000Z,2020-03-09T10:08:16.000Z,1,2020-03-10T12:00:17.000Z,,Closed,,20-00084845,Standard,168 U STREET NE,399646.42,138810.42,38.91716223,-77.00407712,WASHINGTON,DC,20002,58060,5
-76.98410247830607,38.920190698781191,264,S0311,Rodent Inspection and Treatment,DOH- Department Of Health,DOH,1,2020-03-02T09:11:59.000Z,2020-03-05T15:08:06.000Z,2020-03-20T10:11:59.000Z,2020-03-02T09:11:59.000Z,1,2020-03-05T15:07:00.000Z,,Closed,,20-00076500,Standard,1348 ADAMS STREET NE,401378.82,139145.89,38.92018291,-76.9841002,WASHINGTON,DC,20018,66428,5
-77.008063775120178,38.916801576832938,265,S0311,Rodent Inspection and Treatment,DOH- Department Of Health,DOH,1,2020-03-08T13:10:21.000Z,2020-03-10T11:39:05.000Z,2020-03-26T13:10:21.000Z,2020-03-08T13:10:21.000Z,1,2020-03-10T11:39:04.000Z,,Closed,,20-00084147,Standard,23 U STREET NE,399300.88,138769.58,38.91679412,-77.00806149,WASHINGTON,DC,20002,49129,5
-76.981017292031126,38.884454087811108,266,S0311,Rodent Inspection and Treatment,DOH- Department Of Health,DOH,1,2020-03-13T08:02:44.000Z,,2020-04-02T08:02:44.000Z,2020-03-13T08:02:44.000Z,,,,Open,,20-00091344,Standard,337 17TH STREET SE,401647.19,135178.89,38.88444664,-76.98101502,WASHINGTON,DC,20003,35520,6
-76.999922213068871,38.961046277166467,267,S0311,Rodent Inspection and Treatment,DOH- Department Of Health,DOH,1,2020-03-12T08:36:53.000Z,,2020-04-01T08:36:53.000Z,2020-03-12T08:36:53.000Z,,,,Open,,20-00089607,Standard,533 OGLETHORPE STREET NE,400006.94,143681.1,38.96103881,-76.99991993,WASHINGTON,DC,20011,9915,4
-77.019924498322325,38.929695028970301,268,S0311,Rodent Inspection and Treatment,DOH- Department Of Health,DOH,1,2020-03-12T13:17:23.000Z,,2020-04-01T13:17:22.000Z,2020-03-12T13:17:23.000Z,,,,Open,,20-00090406,Standard,3112 WARDER STREET NW,398272.59,140201.02,38.92968757,-77.01992221,WASHINGTON,DC,20010,229277,1
-77.010229767678069,38.915376829303483,269,S0311,Rodent Inspection and Treatment,DOH- Department Of Health,DOH,1,2020-03-12T13:19:00.000Z,,2020-04-01T13:19:00.000Z,2020-03-12T13:19:00.000Z,,,,Open,,20-00090410,Standard,32 T STREET NW,399113.02,138611.44,38.91536937,-77.01022748,WASHINGTON,DC,20001,227315,5
-77.0220511738612,38.936005145596006,270,S0311,Rodent Inspection and Treatment,DOH- Department Of Health,DOH,1,2020-02-24T09:17:30.000Z,2020-02-27T07:16:52.000Z,2020-03-13T10:17:30.000Z,2020-02-24T09:17:30.000Z,1,2020-02-25T10:16:00.000Z,,Closed,,20-00067906,Standard,728 QUEBEC PLACE NW,398088.36,140901.54,38.93599769,-77.02204888,WASHINGTON,DC,20010,228400,1
-77.053345209611024,38.928215386456507,271,S0311,Rodent Inspection and Treatment,DOH- Department Of Health,DOH,1,2020-03-12T17:07:06.000Z,2020-03-12T20:47:57.000Z,2020-04-01T17:07:06.000Z,2020-03-12T17:07:06.000Z,1,2020-03-12T20:47:57.000Z,,Closed,,20-00090914,Standard,2331 CATHEDRAL AVENUE NW,395374.66,140037.93,38.92820793,-77.05334291,WASHINGTON,DC,20008,219215,3
-76.954805397440126,38.895297991330203,272,S0311,Rodent Inspection and Treatment,DOH- Department Of Health,DOH,1,2020-02-27T20:31:06.000Z,2020-03-04T08:57:26.000Z,2020-03-18T21:31:05.000Z,2020-02-27T20:31:06.000Z,1,2020-03-04T08:56:00.000Z,,Closed,,20-00073818,Standard,36TH STREET NE AND EADS STREET NE,403920.810017591,136383.447014604,38.895290202433,-76.9548031282666,WASHINGTON,DC,20019,900201,7
-77.027398060275203,38.909455134639344,273,S0311,Rodent Inspection and Treatment,DOH- Department Of Health,DOH,1,2020-03-07T12:05:56.000Z,2020-03-11T08:45:15.000Z,2020-03-26T13:05:56.000Z,2020-03-07T12:05:56.000Z,1,2020-03-10T10:10:00.000Z,,Closed,,20-00083617,Standard,1426 11TH STREET NW,397623.9,137954.39,38.90944768,-77.02739577,WASHINGTON,DC,20001,225526,2
-77.041103463318379,38.914691178929608,274,S0311,Rodent Inspection and Treatment,DOH- Department Of Health,DOH,1,2020-03-09T09:14:48.000Z,2020-03-13T11:20:17.000Z,2020-03-27T09:14:48.000Z,2020-03-09T09:14:48.000Z,1,2020-03-13T11:20:16.000Z,,Closed,,20-00084713,Standard,1756 SWANN STREET NW,396435.46,138536.08,38.91468372,-77.04110117,WASHINGTON,DC,20009,241542,2
-76.988709755908303,38.844435107266669,275,S0311,Rodent Inspection and Treatment,DOH- Department Of Health,DOH,1,2020-03-09T09:15:42.000Z,,2020-03-27T09:15:42.000Z,2020-03-09T09:15:42.000Z,,,,Open,,20-00084718,Standard,1249 ALABAMA AVENUE SE,400980.32,130736.38,38.84442766,-76.98870748,WASHINGTON,DC,20032,69751,8
-77.012396323367071,38.9143728206164,276,S0311,Rodent Inspection and Treatment,DOH- Department Of Health,DOH,1,2020-03-08T08:33:30.000Z,2020-03-09T12:20:08.000Z,2020-03-26T08:33:30.000Z,2020-03-08T08:33:30.000Z,1,2020-03-09T12:20:07.000Z,,Closed,,20-00084030,Standard,1806 1ST STREET NW,398925.11,138500.01,38.91436536,-77.01239404,WASHINGTON,DC,20001,227187,5
-76.958763898043088,38.893739413056167,277,S0311,Rodent Inspection and Treatment,DOH- Department Of Health,DOH,1,2020-03-03T07:16:18.000Z,2020-03-10T09:01:59.000Z,2020-03-23T08:16:18.000Z,2020-03-03T07:16:18.000Z,1,2020-03-10T09:01:00.000Z,,Closed,,20-00077882,Standard,3334 CLAY STREET NE,403577.49,136210.27,38.89373196,-76.95876163,WASHINGTON,DC,20019,36117,7
-77.006154619752664,38.84086904601066,278,S0311,Rodent Inspection and Treatment,DOH- Department Of Health,DOH,1,2020-03-03T08:22:54.000Z,2020-03-05T11:50:15.000Z,2020-03-23T09:22:54.000Z,2020-03-03T08:22:54.000Z,1,2020-03-05T11:50:14.000Z,,Closed,,20-00077973,Standard,131 RALEIGH STREET SE,399465.88,130340.48,38.8408616,-77.00615234,WASHINGTON,DC,20032,68495,8
-76.954564417214257,38.895206489801673,279,S0311,Rodent Inspection and Treatment,DOH- Department Of Health,DOH,1,2020-03-06T10:19:08.000Z,2020-03-09T09:21:39.000Z,2020-03-26T11:19:08.000Z,2020-03-06T10:19:08.000Z,1,2020-03-09T09:20:00.000Z,,Closed,,20-00082547,Standard,417 36TH STREET NE,403941.72,136373.3,38.89519904,-76.95456215,WASHINGTON,DC,20019,25933,7
-77.016418378502095,38.949842083323908,280,S0311,Rodent Inspection and Treatment,DOH- Department Of Health,DOH,1,2020-02-19T09:48:50.000Z,2020-02-24T09:08:42.000Z,2020-03-10T10:48:50.000Z,2020-02-19T09:48:50.000Z,1,2020-02-21T11:05:00.000Z,,Closed,,20-00062545,Standard,314 EMERSON STREET NW,398577,142437.46,38.94983462,-77.01641609,WASHINGTON,DC,20011,243858,4
-76.983391932039027,38.90424817946527,281,S0311,Rodent Inspection and Treatment,DOH- Department Of Health,DOH,1,2020-02-19T09:49:09.000Z,2020-02-25T07:46:00.000Z,2020-03-10T10:49:09.000Z,2020-02-19T09:49:09.000Z,1,2020-02-25T07:40:00.000Z,,Closed,,20-00062547,Standard,1425 STAPLES STREET NE,401440.76,137376.15,38.90424072,-76.98338965,WASHINGTON,DC,20002,64028,5
-77.044016477391509,38.913644610130568,282,S0311,Rodent Inspection and Treatment,DOH- Department Of Health,DOH,1,2020-03-06T13:53:55.000Z,2020-03-11T08:42:45.000Z,2020-03-26T14:53:55.000Z,2020-03-06T13:53:55.000Z,1,2020-03-10T11:18:00.000Z,,Closed,,20-00082943,Standard,1735 FRASER COURT NW,396182.77,138420.02,38.91363682,-77.04401418,WASHINGTON,DC,20009,306670,2
-77.035726793035153,38.926729512815406,283,S0311,Rodent Inspection and Treatment,DOH- Department Of Health,DOH,1,2020-03-03T10:49:11.000Z,2020-03-13T09:08:41.000Z,2020-03-23T11:49:11.000Z,2020-03-03T10:49:11.000Z,1,2020-03-12T09:06:00.000Z,,Closed,,20-00078370,Standard,1504 COLUMBIA ROAD NW,396902.28,139872.24,38.92672205,-77.0357245,WASHINGTON,DC,20009,235872,1
-77.011458761101721,38.914274455214063,284,S0311,Rodent Inspection and Treatment,DOH- Department Of Health,DOH,1,2020-03-06T16:35:27.000Z,2020-03-09T12:31:31.000Z,2020-03-26T17:35:27.000Z,2020-03-06T16:35:27.000Z,1,2020-03-09T12:31:30.000Z,,Closed,,20-00083224,Standard,73 S STREET NW,399006.42,138489.08,38.914267,-77.01145647,WASHINGTON,DC,20001,227086,5
-77.04112770777779,38.905671600432704,285,S0311,Rodent Inspection and Treatment,DOH- Department Of Health,DOH,1,2020-03-06T16:37:01.000Z,2020-03-12T08:22:51.000Z,2020-03-26T17:37:01.000Z,2020-03-06T16:37:01.000Z,1,2020-03-11T10:31:00.000Z,,Closed,,20-00083227,Standard,M STREET NW AND CONNECTICUT AVENUE NW,396432.906266641,137534.833895671,38.9056638126595,-77.0411254110877,WASHINGTON,DC,20036,906262,2
-77.010521475686588,38.90743892288652,286,S0311,Rodent Inspection and Treatment,DOH- Department Of Health,DOH,1,2020-02-18T11:56:38.000Z,2020-02-19T10:15:33.000Z,2020-03-09T12:56:38.000Z,2020-02-18T11:56:38.000Z,1,2020-02-19T10:15:32.000Z,,Closed,,20-00061102,Standard,29 N STREET NW,399087.62,137730.27,38.90743147,-77.01051919,WASHINGTON,DC,20001,236955,5
-77.020748403894387,38.941544044788074,287,S0311,Rodent Inspection and Treatment,DOH- Department Of Health,DOH,1,2020-03-12T09:17:20.000Z,,2020-04-01T09:17:20.000Z,2020-03-12T09:17:20.000Z,,,,Open,,20-00089732,Standard,4120 NEW HAMPSHIRE AVENUE NW,398201.45,141516.38,38.94153658,-77.02074611,WASHINGTON,DC,20011,247609,4
-77.063074371005854,38.908279875068374,288,S0311,Rodent Inspection and Treatment,DOH- Department Of Health,DOH,1,2020-03-11T22:27:31.000Z,2020-03-13T15:45:51.000Z,2020-03-31T22:27:31.000Z,2020-03-11T22:27:31.000Z,1,2020-03-13T11:30:00.000Z,,Closed,,20-00089397,Standard,3146 1/2 O STREET NW,394529.52,137825.46,38.90827242,-77.06307207,WASHINGTON,DC,20007,303714,2
-76.989956280821417,38.899092814422133,289,S0311,Rodent Inspection and Treatment,DOH- Department Of Health,DOH,1,2020-03-04T15:20:12.000Z,2020-03-16T08:52:59.000Z,2020-03-24T16:20:12.000Z,2020-03-04T15:20:12.000Z,1,2020-03-16T08:52:58.000Z,,Closed,,20-00080483,Standard,1200 G STREET NE,400871.44,136803.78,38.89908536,-76.989954,WASHINGTON,DC,20002,72283,6
-77.033036074828402,38.963424473251592,290,S0311,Rodent Inspection and Treatment,DOH- Department Of Health,DOH,1,2020-03-05T01:37:12.000Z,2020-03-06T14:39:25.000Z,2020-03-25T02:37:12.000Z,2020-03-05T01:37:12.000Z,1,2020-03-06T10:27:00.000Z,,Closed,,20-00080897,Standard,1385 PEABODY STREET NW,397137.07,143945.62,38.96341701,-77.03303378,WASHINGTON,DC,20011,258182,4
-77.025234055730493,38.950214536347417,291,S0311,Rodent Inspection and Treatment,DOH- Department Of Health,DOH,1,2020-03-13T10:00:36.000Z,,2020-04-02T10:00:36.000Z,2020-03-13T10:00:36.000Z,,,,Open,,20-00091588,Standard,4911 9TH STREET NW,397812.84,142478.98,38.95020707,-77.02523176,WASHINGTON,DC,20011,251859,4
-76.997247874835779,38.884452444754537,292,S0311,Rodent Inspection and Treatment,DOH- Department Of Health,DOH,1,2020-03-09T10:48:28.000Z,2020-03-12T07:49:41.000Z,2020-03-27T10:48:28.000Z,2020-03-09T10:48:28.000Z,1,2020-03-12T07:49:00.000Z,,Closed,,20-00084924,Standard,632 D STREET SE,400238.98,135178.54,38.88444499,-76.99724559,WASHINGTON,DC,20003,2738,6
-76.993537402803554,38.879458678189579,293,S0311,Rodent Inspection and Treatment,DOH- Department Of Health,DOH,1,2020-02-26T07:38:28.000Z,2020-02-28T08:23:46.000Z,2020-03-17T08:38:28.000Z,2020-02-26T07:38:28.000Z,1,2020-02-28T08:21:00.000Z,,Closed,,20-00070859,Standard,900 1/2 I STREET SE,400560.95,134624.21,38.87945123,-76.99353512,WASHINGTON,DC,20003,280164,6
-77.042148422145331,38.920448031942556,294,S0311,Rodent Inspection and Treatment,DOH- Department Of Health,DOH,1,2020-03-06T13:35:05.000Z,2020-03-09T14:17:50.000Z,2020-03-26T14:35:04.000Z,2020-03-06T13:35:05.000Z,1,2020-03-09T22:16:00.000Z,,Closed,,20-00082907,Standard,1800 BELMONT ROAD NW,396345.13,139175.18,38.92044058,-77.04214612,WASHINGTON,DC,20009,235428,1
-77.029202608315245,38.960215671858379,295,S0311,Rodent Inspection and Treatment,DOH- Department Of Health,DOH,1,2020-02-27T11:01:07.000Z,2020-03-02T15:19:36.000Z,2020-03-18T12:01:07.000Z,2020-02-27T11:01:07.000Z,1,2020-02-28T11:36:00.000Z,,Closed,,20-00072948,Standard,5817 COLORADO AVENUE NW,397469.19,143589.3,38.96020821,-77.02920031,WASHINGTON,DC,20011,253137,4
-76.983024824957738,38.895642529979732,296,S0311,Rodent Inspection and Treatment,DOH- Department Of Health,DOH,1,2020-03-10T12:01:53.000Z,2020-03-16T08:46:32.000Z,2020-03-30T12:01:53.000Z,2020-03-10T12:01:53.000Z,1,2020-03-16T08:46:31.000Z,,Closed,,20-00086756,Standard,1512 ISHERWOOD STREET NE,401472.78,136420.86,38.89563508,-76.98302255,WASHINGTON,DC,20002,61992,6
-77.021626714425295,38.90708381716459,297,S0311,Rodent Inspection and Treatment,DOH- Department Of Health,DOH,1,2020-03-09T11:11:30.000Z,2020-03-16T08:47:51.000Z,2020-03-27T11:11:29.000Z,2020-03-09T11:11:30.000Z,1,2020-03-16T08:47:50.000Z,,Closed,,20-00084972,Standard,1211 7TH STREET NW,398124.4,137691.02,38.90707636,-77.02162442,WASHINGTON,DC,20001,278936,6
-77.029513523670786,38.934784315824707,298,S0311,Rodent Inspection and Treatment,DOH- Department Of Health,DOH,1,2020-03-12T15:05:49.000Z,,2020-04-01T15:05:49.000Z,2020-03-12T15:05:49.000Z,,,,Open,,20-00090644,Standard,3605 13TH STREET NW,397441.33,140766.2,38.93477686,-77.02951123,WASHINGTON,DC,20010,230343,1
-77.015943818505363,38.941260767519765,299,S0311,Rodent Inspection and Treatment,DOH- Department Of Health,DOH,1,2020-02-27T17:50:27.000Z,,2020-03-18T18:50:26.000Z,2020-02-27T17:50:27.000Z,,,,Open,,20-00073683,Standard,301 TAYLOR STREET NW,398617.97,141484.85,38.94125331,-77.01594153,WASHINGTON,DC,20011,244141,4
-77.030787691120324,38.911875823396713,300,S0311,Rodent Inspection and Treatment,DOH- Department Of Health,DOH,1,2020-03-06T15:39:38.000Z,2020-03-11T08:48:52.000Z,2020-03-26T16:39:38.000Z,2020-03-06T15:39:38.000Z,1,2020-03-10T10:15:00.000Z,,Closed,,20-00083146,Standard,1300 - 1399 BLOCK OF CORCORAN STREET NW,397330.000000006,138223.200003318,38.9118680339869,-77.0307853972707,WASHINGTON,DC,20009,811946,2
-77.033041266927611,38.941025671667646,301,S0311,Rodent Inspection and Treatment,DOH- Department Of Health,DOH,1,2020-02-16T22:17:51.000Z,2020-02-20T13:43:25.000Z,2020-03-06T22:17:51.000Z,2020-02-16T22:17:51.000Z,1,2020-02-20T13:43:24.000Z,,Closed,,20-00059654,Standard,4102 14TH STREET NW,397135.72,141459.15,38.94101821,-77.03303897,WASHINGTON,DC,20011,259162,4
-77.026469792870785,38.939563316742507,302,S0311,Rodent Inspection and Treatment,DOH- Department Of Health,DOH,1,2020-02-16T22:18:58.000Z,2020-02-26T08:43:42.000Z,2020-03-05T22:18:57.000Z,2020-02-16T22:18:58.000Z,1,2020-02-25T13:49:00.000Z,,Closed,,20-00059656,Standard,938 SHEPHERD STREET NW,397705.38,141296.63,38.93955586,-77.0264675,WASHINGTON,DC,20011,225103,4
-77.026781177128555,38.945571684828515,303,S0311,Rodent Inspection and Treatment,DOH- Department Of Health,DOH,1,2020-03-13T10:34:39.000Z,,2020-04-02T10:34:39.000Z,2020-03-13T10:34:39.000Z,,,,Open,,20-00091676,Standard,4516 GEORGIA AVENUE NW,397678.58,141963.62,38.94556422,-77.02677888,WASHINGTON,DC,20011,252714,4
-77.024170151863871,38.924285815186309,304,S0311,Rodent Inspection and Treatment,DOH- Department Of Health,DOH,1,2020-03-02T15:19:02.000Z,2020-03-03T15:31:23.000Z,2020-03-20T16:19:02.000Z,2020-03-02T15:19:02.000Z,1,2020-03-03T15:30:00.000Z,,Closed,,20-00077396,Standard,809 EUCLID STREET NW,397904.3,139600.64,38.92427802,-77.02416786,WASHINGTON,DC,20001,232370,1
-77.024267767370375,38.924782603813789,305,S0311,Rodent Inspection and Treatment,DOH- Department Of Health,DOH,1,2020-03-02T15:31:20.000Z,2020-03-03T15:36:08.000Z,2020-03-20T16:31:20.000Z,2020-03-02T15:31:20.000Z,1,2020-03-03T15:35:00.000Z,,Closed,,20-00077424,Standard,750 FAIRMONT STREET NW,397895.85,139655.79,38.92477515,-77.02426547,WASHINGTON,DC,20001,232363,1
-76.990496381025494,38.89641278123711,306,S0311,Rodent Inspection and Treatment,DOH- Department Of Health,DOH,1,2020-03-01T11:00:32.000Z,2020-03-16T08:58:20.000Z,2020-03-19T12:00:32.000Z,2020-03-01T11:00:32.000Z,1,2020-03-16T08:58:19.000Z,,Closed,,20-00075937,Standard,506 12TH STREET NE,400824.62,136506.27,38.89640533,-76.9904941,WASHINGTON,DC,20002,14144,6
-77.031400127489746,38.94163148127754,307,S0311,Rodent Inspection and Treatment,DOH- Department Of Health,DOH,1,2020-03-08T15:02:01.000Z,2020-03-11T08:36:49.000Z,2020-03-26T15:02:00.000Z,2020-03-08T15:02:01.000Z,1,2020-03-10T11:45:00.000Z,,Closed,,20-00084232,Standard,1350 UPSHUR STREET NW,397278.02,141526.35,38.94162369,-77.03139783,WASHINGTON,DC,20011,255302,4
-77.027270147247989,38.938879132884679,308,S0311,Rodent Inspection and Treatment,DOH- Department Of Health,DOH,1,2020-03-01T15:42:42.000Z,2020-03-05T09:12:16.000Z,2020-03-19T16:42:42.000Z,2020-03-01T15:42:42.000Z,1,2020-03-03T00:33:00.000Z,,Closed,,20-00076051,Standard,965 RANDOLPH STREET NW,397635.97,141220.7,38.93887167,-77.02726785,WASHINGTON,DC,20011,225106,4
-77.031355167628604,38.895010139724491,309,S0311,Rodent Inspection and Treatment,DOH- Department Of Health,DOH,1,2020-03-05T17:31:45.000Z,2020-03-11T09:13:57.000Z,2020-03-25T18:31:44.000Z,2020-03-05T17:31:45.000Z,1,2020-03-11T09:13:00.000Z,,Closed,,20-00082045,Standard,1350 PENNSYLVANIA AVENUE NW,397280.14,136350.99,38.89500269,-77.03135287,WASHINGTON,DC,20004,293203,2
-76.985883712867192,38.909271742875127,310,S0311,Rodent Inspection and Treatment,DOH- Department Of Health,DOH,1,2020-03-01T22:32:56.000Z,2020-03-03T08:22:06.000Z,2020-03-19T23:32:56.000Z,2020-03-01T22:32:56.000Z,1,2020-03-03T08:15:00.000Z,,Closed,,20-00076252,Standard,1706 MONTELLO AVENUE NE,401224.54,137933.77,38.90926429,-76.98588143,WASHINGTON,DC,20002,57755,5
-76.988856172891929,38.93959947428376,311,S0311,Rodent Inspection and Treatment,DOH- Department Of Health,DOH,1,2020-03-07T18:07:01.000Z,2020-03-11T07:58:50.000Z,2020-03-26T19:07:00.000Z,2020-03-07T18:07:01.000Z,1,2020-03-11T07:58:00.000Z,,Closed,,20-00083900,Standard,1227 MICHIGAN AVENUE NE,400966.32,141300.37,38.93959201,-76.98885389,WASHINGTON,DC,20017,70599,5
-76.958763898043088,38.893739413056167,312,S0311,Rodent Inspection and Treatment,DOH- Department Of Health,DOH,1,2020-03-10T11:55:20.000Z,,2020-03-30T11:55:19.000Z,2020-03-10T11:55:20.000Z,,,,Open,,20-00086740,Standard,3334 CLAY STREET NE,403577.49,136210.27,38.89373196,-76.95876163,WASHINGTON,DC,20019,36117,7
-76.996682277734067,38.890097892108308,313,S0311,Rodent Inspection and Treatment,DOH- Department Of Health,DOH,1,2020-03-10T15:40:08.000Z,2020-03-16T08:33:43.000Z,2020-03-30T15:40:08.000Z,2020-03-10T15:40:08.000Z,1,2020-03-16T08:33:43.000Z,,Closed,,20-00087206,Standard,646 EAST CAPITOL STREET NE,400288.03,135805.23,38.89009044,-76.99668,WASHINGTON,DC,20003,1679,6
-77.015986993195497,38.957871934428006,314,S0311,Rodent Inspection and Treatment,DOH- Department Of Health,DOH,1,2020-03-11T08:36:39.000Z,2020-03-13T14:25:31.000Z,2020-03-31T08:36:38.000Z,2020-03-11T08:36:39.000Z,1,2020-03-13T10:48:00.000Z,,Closed,,20-00087886,Standard,5601 3RD STREET NW,398614.55,143328.84,38.95786447,-77.0159847,WASHINGTON,DC,20011,246185,4
-77.03533651872992,38.912040830132113,315,S0311,Rodent Inspection and Treatment,DOH- Department Of Health,DOH,1,2020-03-11T08:37:25.000Z,2020-03-13T12:56:43.000Z,2020-03-31T08:37:25.000Z,2020-03-11T08:37:25.000Z,1,2020-03-13T12:56:42.000Z,,Closed,,20-00087887,Standard,1517 CORCORAN STREET NW,396935.49,138241.66,38.91203338,-77.03533422,WASHINGTON,DC,20009,242237,2
-77.017778741097629,38.958196243360931,316,S0311,Rodent Inspection and Treatment,DOH- Department Of Health,DOH,1,2020-03-05T11:01:14.000Z,2020-03-09T09:13:59.000Z,2020-03-25T12:01:14.000Z,2020-03-05T11:01:14.000Z,1,2020-03-06T10:35:00.000Z,,Closed,,20-00081314,Standard,340 MADISON STREET NW,398459.26,143364.87,38.95818878,-77.01777645,WASHINGTON,DC,20011,249417,4
-76.98099743279171,38.888913864123687,317,S0311,Rodent Inspection and Treatment,DOH- Department Of Health,DOH,1,2020-03-10T18:16:19.000Z,2020-03-12T07:48:29.000Z,2020-03-30T18:16:19.000Z,2020-03-10T18:16:19.000Z,1,2020-03-12T07:47:00.000Z,,Closed,,20-00087539,Standard,33 17TH STREET SE,401648.81,135673.96,38.88890641,-76.98099516,WASHINGTON,DC,20003,37281,6
-77.039938841098589,38.91998271715687,318,S0311,Rodent Inspection and Treatment,DOH- Department Of Health,DOH,1,2020-03-11T08:24:50.000Z,2020-03-13T09:38:58.000Z,2020-03-31T08:24:50.000Z,2020-03-11T08:24:50.000Z,1,2020-03-13T09:38:00.000Z,,Closed,,20-00087868,Standard,2254 ONTARIO ROAD NW,396536.72,139123.44,38.91997526,-77.03993654,WASHINGTON,DC,20009,235638,1
-76.984057123694825,38.919835764495993,319,S0311,Rodent Inspection and Treatment,DOH- Department Of Health,DOH,1,2020-02-23T18:24:20.000Z,2020-02-25T07:36:42.000Z,2020-03-12T19:24:20.000Z,2020-02-23T18:24:20.000Z,1,2020-02-25T07:35:00.000Z,,Closed,,20-00067564,Standard,1367 ADAMS STREET NE,401382.76,139106.49,38.91982831,-76.98405484,WASHINGTON,DC,20018,65704,5
-76.989669132883193,38.881467992086371,320,S0311,Rodent Inspection and Treatment,DOH- Department Of Health,DOH,1,2020-02-20T14:09:56.000Z,2020-02-24T08:32:37.000Z,2020-03-11T15:09:56.000Z,2020-02-20T14:09:56.000Z,1,2020-02-24T08:32:00.000Z,,Closed,,20-00064549,Standard,1216 G STREET SE,400896.57,134847.29,38.88146054,-76.98966685,WASHINGTON,DC,20003,71293,6
-77.002567229791779,38.913860965842836,448,S0311,Rodent Inspection and Treatment,DOH- Department Of Health,DOH,1,2020-02-25T11:10:17.000Z,2020-02-27T08:20:56.000Z,2020-03-16T12:10:17.000Z,2020-02-25T11:10:17.000Z,1,2020-02-27T08:19:00.000Z,,Closed,,20-00069731,Standard,227 S STREET NE,399777.55,138443.12,38.91385351,-77.00256494,WASHINGTON,DC,20002,49209,5
-77.023824276875558,38.956649619927603,449,S0311,Rodent Inspection and Treatment,DOH- Department Of Health,DOH,1,2020-02-26T03:10:59.000Z,2020-03-04T08:42:32.000Z,2020-03-17T04:10:59.000Z,2020-02-26T03:10:59.000Z,1,2020-02-28T11:40:00.000Z,,Closed,,20-00070806,Standard,5507 8TH STREET NW,397935.23,143193.3,38.95664216,-77.02382198,WASHINGTON,DC,20011,250289,4
-77.030479311147587,38.919008794390976,450,S0311,Rodent Inspection and Treatment,DOH- Department Of Health,DOH,1,2020-02-25T15:09:07.000Z,2020-02-26T14:23:38.000Z,2020-03-16T16:09:07.000Z,2020-02-25T15:09:07.000Z,1,2020-02-26T14:21:00.000Z,,Closed,,20-00070336,Standard,1316 W STREET NW,397357.01,139015.01,38.91900134,-77.03047702,WASHINGTON,DC,20009,240323,1
-76.993758315035635,38.900770886521286,451,S0311,Rodent Inspection and Treatment,DOH- Department Of Health,DOH,1,2020-02-25T15:09:26.000Z,2020-02-26T14:35:39.000Z,2020-03-16T16:09:26.000Z,2020-02-25T15:09:26.000Z,1,2020-02-26T14:34:00.000Z,,Closed,,20-00070337,Standard,800 - 899 BLOCK OF 9TH STREET NE,400541.619999997,136990.030003324,38.9007630979701,-76.9937560333959,WASHINGTON,DC,20002,806015,6
-77.026177876554911,38.954706844249429,452,S0311,Rodent Inspection and Treatment,DOH- Department Of Health,DOH,1,2020-02-17T20:40:52.000Z,2020-02-20T10:46:02.000Z,2020-03-08T21:40:52.000Z,2020-02-17T20:40:52.000Z,1,2020-02-20T10:45:59.000Z,,Closed,,20-00060336,Standard,5317 ILLINOIS AVENUE NW,397731.17,142977.69,38.95469938,-77.02617558,WASHINGTON,DC,20011,254661,4
-76.982271866597983,38.85474689708979,453,S0311,Rodent Inspection and Treatment,DOH- Department Of Health,DOH,1,2020-03-05T21:40:48.000Z,,2020-03-25T22:40:48.000Z,2020-03-05T21:40:48.000Z,,,,Open,,20-00082178,Standard,2426 15TH PLACE SE,401538.98,131881.15,38.85473945,-76.98226959,WASHINGTON,DC,20020,47314,8
-77.001196372486646,38.886186494756892,454,S0311,Rodent Inspection and Treatment,DOH- Department Of Health,DOH,1,2020-03-06T07:10:01.000Z,2020-03-09T09:23:37.000Z,2020-03-26T08:10:01.000Z,2020-03-06T07:10:01.000Z,1,2020-03-09T09:22:00.000Z,,Closed,,20-00082277,Standard,320 C STREET SE,399896.4,135371.03,38.88617904,-77.00119409,WASHINGTON,DC,20003,38985,6
-76.99809516655327,38.960793760267791,455,S0311,Rodent Inspection and Treatment,DOH- Department Of Health,DOH,1,2020-02-19T08:10:25.000Z,2020-02-21T07:54:53.000Z,2020-03-10T09:10:25.000Z,2020-02-19T08:10:25.000Z,1,2020-02-19T13:53:00.000Z,,Closed,,20-00062343,Standard,637 OGLETHORPE STREET NE,400165.29,143653.07,38.96078629,-76.99809288,WASHINGTON,DC,20011,2418,4
-77.014993728396419,38.941984619354649,456,S0311,Rodent Inspection and Treatment,DOH- Department Of Health,DOH,1,2020-03-04T09:21:34.000Z,2020-03-05T14:54:06.000Z,2020-03-24T10:21:34.000Z,2020-03-04T09:21:34.000Z,1,2020-03-05T09:57:00.000Z,,Closed,,20-00079742,Standard,228 UPSHUR STREET NW,398700.35,141565.19,38.94197716,-77.01499144,WASHINGTON,DC,20011,244340,4
-77.024548828652826,38.909436940632524,457,S0311,Rodent Inspection and Treatment,DOH- Department Of Health,DOH,1,2020-02-24T15:03:48.000Z,2020-03-03T08:21:06.000Z,2020-03-13T16:03:48.000Z,2020-02-24T15:03:48.000Z,1,2020-03-02T10:25:00.000Z,,Closed,,20-00068751,Standard,912 P STREET NW,397871.02,137952.3,38.90942949,-77.02454654,WASHINGTON,DC,20001,225994,2
-77.0580161995249,38.935859413660289,458,S0311,Rodent Inspection and Treatment,DOH- Department Of Health,DOH,1,2020-03-04T05:21:48.000Z,,2020-03-24T06:21:48.000Z,2020-03-04T05:21:48.000Z,,,,Open,,20-00079429,Standard,3505 CONNECTICUT AVENUE NW,394970.18,140886.73,38.93585195,-77.0580139,WASHINGTON,DC,20008,301779,3
-77.018691110242742,38.931266101854234,459,S0311,Rodent Inspection and Treatment,DOH- Department Of Health,DOH,1,2020-02-18T07:32:54.000Z,2020-02-25T07:31:57.000Z,2020-03-09T08:32:54.000Z,2020-02-18T07:32:54.000Z,1,2020-02-24T10:11:00.000Z,,Closed,,20-00060446,Standard,3228 PARK PLACE NW,398379.57,140375.4,38.93125864,-77.01868882,WASHINGTON,DC,20010,229128,1
-77.031800993160076,38.933675964653219,460,S0311,Rodent Inspection and Treatment,DOH- Department Of Health,DOH,1,2020-03-02T12:24:21.000Z,2020-03-03T10:30:12.000Z,2020-03-20T13:24:20.000Z,2020-03-02T12:24:21.000Z,1,2020-03-03T10:30:11.000Z,,Closed,,20-00076981,Standard,1356 OAK STREET NW,397242.96,140643.23,38.93366851,-77.0317987,WASHINGTON,DC,20010,230760,1
-77.034525565207673,38.956023036929246,461,S0311,Rodent Inspection and Treatment,DOH- Department Of Health,DOH,1,2020-02-25T12:16:56.000Z,2020-02-26T14:35:13.000Z,2020-03-16T13:16:55.000Z,2020-02-25T12:16:56.000Z,1,2020-02-26T23:53:00.000Z,,Closed,,20-00069888,Standard,1410 KENNEDY STREET NW,397007.67,143124.04,38.95601557,-77.03452327,WASHINGTON,DC,20011,255877,4
-76.976529197013363,38.869718057389804,462,S0311,Rodent Inspection and Treatment,DOH- Department Of Health,DOH,1,2020-03-04T13:09:12.000Z,,2020-03-24T14:09:12.000Z,2020-03-04T13:09:12.000Z,,,,Open,,20-00080216,Standard,1920 R STREET SE,402037.01,133543.17,38.86971061,-76.97652692,WASHINGTON,DC,20020,53964,8
-77.057702515724074,38.933914766165643,463,S0311,Rodent Inspection and Treatment,DOH- Department Of Health,DOH,1,2020-03-04T21:26:01.000Z,,2020-03-24T22:26:00.000Z,2020-03-04T21:26:01.000Z,,,,Open,,20-00080845,Standard,3318 CONNECTICUT AVENUE NW,394997.24,140670.84,38.93390697,-77.05770021,WASHINGTON,DC,20008,317101,3
-77.019306023671788,38.949434467947093,464,S0311,Rodent Inspection and Treatment,DOH- Department Of Health,DOH,1,2020-03-02T21:38:33.000Z,2020-03-09T09:19:18.000Z,2020-03-20T22:38:33.000Z,2020-03-02T21:38:33.000Z,1,2020-03-06T11:49:00.000Z,,Closed,,20-00077803,Standard,459 DELAFIELD PLACE NW,398326.68,142392.26,38.949427,-77.01930373,WASHINGTON,DC,20011,248374,4
-77.023253572179712,38.915778626575978,465,S0311,Rodent Inspection and Treatment,DOH- Department Of Health,DOH,1,2020-02-29T07:48:15.000Z,2020-03-03T08:36:35.000Z,2020-03-19T08:48:15.000Z,2020-02-29T07:48:15.000Z,1,2020-03-03T08:33:00.000Z,,Closed,,20-00075266,Standard,805 T STREET NW,397983.54,138656.25,38.91577117,-77.02325128,WASHINGTON,DC,20001,239837,1
-77.018017513725425,38.940633399029309,466,S0311,Rodent Inspection and Treatment,DOH- Department Of Health,DOH,1,2020-03-02T13:10:53.000Z,2020-03-03T14:44:42.000Z,2020-03-20T14:10:53.000Z,2020-03-02T13:10:53.000Z,1,2020-03-03T09:50:00.000Z,,Closed,,20-00077089,Standard,4018 ILLINOIS AVENUE NW,398438.18,141415.24,38.94062594,-77.01801522,WASHINGTON,DC,20011,247976,4
-76.984033796100505,38.896292445728328,467,S0311,Rodent Inspection and Treatment,DOH- Department Of Health,DOH,1,2020-03-03T13:25:49.000Z,2020-03-16T08:53:50.000Z,2020-03-23T14:25:49.000Z,2020-03-03T13:25:49.000Z,1,2020-03-16T08:53:58.000Z,,Closed,,20-00078705,Standard,1420 E STREET NE,401385.24,136492.99,38.89628499,-76.98403152,WASHINGTON,DC,20002,64179,6
-76.954564417214257,38.895206489801673,468,S0311,Rodent Inspection and Treatment,DOH- Department Of Health,DOH,1,2020-03-03T20:40:02.000Z,2020-03-09T09:14:40.000Z,2020-03-23T21:40:02.000Z,2020-03-03T20:40:02.000Z,1,2020-03-06T09:13:00.000Z,,Closed,,20-00079349,Standard,417 36TH STREET NE,403941.72,136373.3,38.89519904,-76.95456215,WASHINGTON,DC,20019,25933,7
-77.026087867081173,38.954650742858284,469,S0311,Rodent Inspection and Treatment,DOH- Department Of Health,DOH,1,2020-03-04T15:10:09.000Z,2020-03-05T14:50:46.000Z,2020-03-24T16:10:09.000Z,2020-03-04T15:10:09.000Z,1,2020-03-05T10:35:00.000Z,,Closed,,20-00080470,Standard,5313 ILLINOIS AVENUE NW,397738.97,142971.46,38.95464294,-77.02608557,WASHINGTON,DC,20011,254664,4
-77.079379417555742,38.949488744789562,470,S0311,Rodent Inspection and Treatment,DOH- Department Of Health,DOH,1,2020-02-17T12:08:52.000Z,2020-02-25T08:43:53.000Z,2020-03-06T12:08:52.000Z,2020-02-17T12:08:52.000Z,1,2020-02-25T08:43:00.000Z,,Closed,,20-00059863,Standard,4000 BRANDYWINE STREET NW,393119.3,142401.1,38.94948128,-77.07937711,WASHINGTON,DC,20016,265176,3
-77.01946599653327,38.908758038253332,471,S0311,Rodent Inspection and Treatment,DOH- Department Of Health,DOH,1,2020-03-03T10:07:49.000Z,2020-03-16T08:59:04.000Z,2020-03-23T11:07:49.000Z,2020-03-03T10:07:49.000Z,1,2020-03-16T08:59:04.000Z,,Closed,,20-00078276,Standard,509 O STREET NW,398311.85,137876.83,38.90875058,-77.01946371,WASHINGTON,DC,20001,226600,6
-77.033044461447673,38.964341240708954,472,S0311,Rodent Inspection and Treatment,DOH- Department Of Health,DOH,1,2020-03-03T10:39:05.000Z,2020-03-06T08:43:43.000Z,2020-03-23T11:39:04.000Z,2020-03-03T10:39:05.000Z,1,2020-03-05T11:05:00.000Z,,Closed,,20-00078355,Standard,6103 14TH STREET NW,397136.38,144047.39,38.96433344,-77.03304216,WASHINGTON,DC,20011,257725,4
-77.024230106249831,38.924248598405647,473,S0311,Rodent Inspection and Treatment,DOH- Department Of Health,DOH,1,2020-03-02T08:50:02.000Z,2020-03-03T15:29:59.000Z,2020-03-20T09:50:02.000Z,2020-03-02T08:50:02.000Z,1,2020-03-03T15:27:00.000Z,,Closed,,20-00076455,Standard,811 EUCLID STREET NW,397899.1,139596.51,38.92424114,-77.02422781,WASHINGTON,DC,20001,232371,1
-76.95457273405323,38.894636533493575,474,S0311,Rodent Inspection and Treatment,DOH- Department Of Health,DOH,1,2020-03-04T11:33:37.000Z,2020-03-09T09:19:43.000Z,2020-03-24T12:33:37.000Z,2020-03-04T11:33:37.000Z,1,2020-03-12T09:04:57.000Z,,Closed,,20-00080025,Standard,337 36TH STREET NE,403941.03,136310.03,38.89462908,-76.95457046,WASHINGTON,DC,20019,35526,7
-76.954578525762201,38.894592484816044,475,S0311,Rodent Inspection and Treatment,DOH- Department Of Health,DOH,1,2020-02-24T14:51:53.000Z,2020-03-04T09:24:15.000Z,2020-03-13T15:51:53.000Z,2020-02-24T14:51:53.000Z,1,2020-03-04T09:22:00.000Z,,Closed,,20-00068722,Standard,335 36TH STREET NE,403940.53,136305.14,38.89458503,-76.95457626,WASHINGTON,DC,20019,35743,7
-77.010701215544984,38.907415935270812,476,S0311,Rodent Inspection and Treatment,DOH- Department Of Health,DOH,1,2020-03-04T11:17:28.000Z,2020-03-11T11:50:43.000Z,2020-03-24T12:17:28.000Z,2020-03-04T11:17:28.000Z,1,2020-03-11T11:50:42.000Z,,Closed,,20-00079990,Standard,35 N STREET NW,399072.03,137727.72,38.90740848,-77.01069893,WASHINGTON,DC,20001,237052,5
-76.918742817160862,38.899674133367746,477,S0311,Rodent Inspection and Treatment,DOH- Department Of Health,DOH,1,2020-03-04T09:17:42.000Z,2020-03-11T09:13:26.000Z,2020-03-24T10:17:42.000Z,2020-03-04T09:17:42.000Z,1,2020-03-10T13:28:00.000Z,,Closed,,20-00079725,Standard,714 57TH PLACE NE,407048.79,136871.4,38.89966668,-76.91874056,WASHINGTON,DC,20019,77198,7
-77.024320387407741,38.924203718213505,478,S0311,Rodent Inspection and Treatment,DOH- Department Of Health,DOH,1,2020-03-02T14:42:09.000Z,2020-03-03T15:32:28.000Z,2020-03-20T15:42:09.000Z,2020-03-02T14:42:09.000Z,1,2020-03-03T15:31:00.000Z,,Closed,,20-00077318,Standard,821 EUCLID STREET NW,397891.27,139591.53,38.92419626,-77.02431809,WASHINGTON,DC,20001,232340,1
-76.976583739331815,38.905429810115621,479,S0311,Rodent Inspection and Treatment,DOH- Department Of Health,DOH,1,2020-02-19T09:10:44.000Z,2020-02-25T07:33:50.000Z,2020-03-10T10:10:44.000Z,2020-02-19T09:10:44.000Z,1,2020-02-25T07:33:00.000Z,,Closed,,20-00062458,Standard,1845 M STREET NE,402031.26,137507.45,38.90542235,-76.97658146,WASHINGTON,DC,20002,54705,5
-77.02626757050281,38.954845551460252,321,S0311,Rodent Inspection and Treatment,DOH- Department Of Health,DOH,1,2020-03-12T16:00:33.000Z,2020-03-13T14:35:14.000Z,2020-04-01T16:00:33.000Z,2020-03-12T16:00:33.000Z,1,2020-03-13T10:30:00.000Z,,Closed,,20-00090778,Standard,5323 ILLINOIS AVENUE NW,397723.4,142993.09,38.95483809,-77.02626528,WASHINGTON,DC,20011,254662,4
-76.988294604643869,38.84231781100798,322,S0311,Rodent Inspection and Treatment,DOH- Department Of Health,DOH,1,2020-02-19T01:56:23.000Z,2020-02-21T12:13:51.000Z,2020-03-10T02:56:23.000Z,2020-02-19T01:56:23.000Z,1,2020-02-21T12:13:50.000Z,,Closed,,20-00062244,Standard,3324 13TH STREET SE,401016.39,130501.35,38.84231037,-76.98829233,WASHINGTON,DC,20032,36310,8
-77.024744085116453,38.964769382187583,323,S0311,Rodent Inspection and Treatment,DOH- Department Of Health,DOH,1,2020-03-09T10:37:16.000Z,2020-03-10T14:47:53.000Z,2020-03-27T10:37:16.000Z,2020-03-09T10:37:16.000Z,1,2020-03-10T10:16:00.000Z,,Closed,,20-00084906,Standard,804 RITTENHOUSE STREET NW,397855.75,144094.69,38.96476192,-77.02474179,WASHINGTON,DC,20011,254229,4
-76.978816372259843,38.934842154903933,324,S0311,Rodent Inspection and Treatment,DOH- Department Of Health,DOH,1,2020-03-08T17:11:01.000Z,2020-03-11T07:58:07.000Z,2020-03-26T17:11:00.000Z,2020-03-08T17:11:01.000Z,1,2020-03-11T07:57:00.000Z,,Closed,,20-00084298,Standard,1819 OTIS STREET NE,401836.85,140772.42,38.93483469,-76.97881409,WASHINGTON,DC,20018,55451,5
-76.989927519750822,38.912556873342524,325,S0311,Rodent Inspection and Treatment,DOH- Department Of Health,DOH,1,2020-03-05T13:24:26.000Z,2020-03-09T08:09:51.000Z,2020-03-25T14:24:26.000Z,2020-03-05T13:24:26.000Z,1,2020-03-09T08:06:00.000Z,,Closed,,20-00081593,Standard,958 MOUNT OLIVET ROAD NE,400873.77,138298.4,38.91254942,-76.98992524,WASHINGTON,DC,20002,82905,5
-77.010217830626559,38.828855349502334,326,S0311,Rodent Inspection and Treatment,DOH- Department Of Health,DOH,1,2020-03-06T11:43:13.000Z,,2020-03-26T12:43:13.000Z,2020-03-06T11:43:13.000Z,,,,Open,,20-00082722,Standard,141 CHESAPEAKE STREET SW,399112.98,129006.91,38.82884791,-77.01021555,WASHINGTON,DC,20032,64742,8
-76.934399792347222,38.879465207488636,327,S0311,Rodent Inspection and Treatment,DOH- Department Of Health,DOH,1,2020-02-21T13:36:56.000Z,2020-02-26T15:45:18.000Z,2020-03-12T14:36:56.000Z,2020-02-21T13:36:56.000Z,1,2020-02-26T15:44:00.000Z,,Closed,,20-00065931,Standard,4632 HANNA PLACE SE,405692.25,134626.96,38.87945776,-76.93439753,WASHINGTON,DC,20019,18748,7
-77.026312641217729,38.960676950222947,328,S0311,Rodent Inspection and Treatment,DOH- Department Of Health,DOH,1,2020-02-27T08:03:47.000Z,2020-03-02T15:18:30.000Z,2020-03-18T09:03:46.000Z,2020-02-27T08:03:47.000Z,1,2020-02-28T11:10:00.000Z,,Closed,,20-00072500,Standard,903 MISSOURI AVENUE NW,397719.68,143640.43,38.96066949,-77.02631035,WASHINGTON,DC,20011,277533,4
-77.02298329025956,38.954414296809148,329,S0311,Rodent Inspection and Treatment,DOH- Department Of Health,DOH,1,2020-02-26T12:52:11.000Z,2020-03-02T15:21:35.000Z,2020-03-17T13:52:10.000Z,2020-02-26T12:52:11.000Z,1,2020-02-28T10:40:00.000Z,,Closed,,20-00071542,Standard,713 INGRAHAM STREET NW,398008.06,142945.14,38.95440683,-77.022981,WASHINGTON,DC,20011,250231,4
-77.018704067516239,38.908998145063251,330,S0311,Rodent Inspection and Treatment,DOH- Department Of Health,DOH,1,2020-02-27T10:58:24.000Z,2020-02-28T08:14:52.000Z,2020-03-18T11:58:24.000Z,2020-02-27T10:58:24.000Z,1,2020-02-28T08:14:00.000Z,,Closed,,20-00072937,Standard,1409 5TH STREET NW,398377.94,137903.47,38.90899069,-77.01870178,WASHINGTON,DC,20001,218112,6
-77.000794135995349,38.960243999076241,331,S0311,Rodent Inspection and Treatment,DOH- Department Of Health,DOH,1,2020-02-26T13:14:04.000Z,2020-03-04T08:29:37.000Z,2020-03-17T14:14:04.000Z,2020-02-26T13:14:04.000Z,1,2020-02-28T12:25:00.000Z,,Closed,,20-00071591,Standard,509 NICHOLSON STREET NE,399931.37,143592.04,38.96023653,-77.00079185,WASHINGTON,DC,20011,13617,4
-76.957506762469237,38.89564222401237,332,S0311,Rodent Inspection and Treatment,DOH- Department Of Health,DOH,1,2020-02-27T21:30:24.000Z,2020-03-04T09:00:49.000Z,2020-03-18T22:30:24.000Z,2020-02-27T21:30:24.000Z,1,2020-03-04T08:57:00.000Z,,Closed,,20-00073843,Standard,34TH STREET NE AND EADS STREET NE,403686.450017369,136421.547014644,38.8956344351462,-76.9575044924333,WASHINGTON,DC,20019,901330,7
-77.023580208406372,38.883257566248773,333,S0311,Rodent Inspection and Treatment,DOH- Department Of Health,DOH,1,2020-02-28T01:04:39.000Z,,2020-03-19T02:04:38.000Z,2020-02-28T01:04:39.000Z,,,,Open,,20-00073893,Standard,500 L'ENFANT PLAZA SW,397954.28,135046.16,38.88324978,-77.02357792,WASHINGTON,DC,20024,307163,6
-77.018127587236805,38.879522850651639,334,S0311,Rodent Inspection and Treatment,DOH- Department Of Health,DOH,1,2020-02-28T01:06:10.000Z,,2020-03-19T02:06:10.000Z,2020-02-28T01:06:10.000Z,,,,Open,,20-00073894,Standard,401 I STREET SW,398427.29,134631.47,38.8795154,-77.0181253,WASHINGTON,DC,20024,294482,6
-77.010307825092113,38.867481641043838,335,S0311,Rodent Inspection and Treatment,DOH- Department Of Health,DOH,1,2020-02-28T01:07:42.000Z,,2020-03-19T02:07:42.000Z,2020-02-28T01:07:42.000Z,,,,Open,,20-00073895,Standard,1824 HALF STREET SW,399105.65,133294.7,38.86747419,-77.01030554,WASHINGTON,DC,20024,277759,6
-77.028205511362103,38.927884004011702,336,S0311,Rodent Inspection and Treatment,DOH- Department Of Health,DOH,1,2020-02-29T11:45:37.000Z,2020-03-03T08:49:32.000Z,2020-03-19T12:45:37.000Z,2020-02-29T11:45:37.000Z,1,2020-03-03T10:02:14.000Z,,Closed,,20-00075431,Standard,1119 COLUMBIA ROAD NW,397554.5,140000.17,38.92787655,-77.02820322,WASHINGTON,DC,20009,231457,1
-76.986797631021375,38.867751422237006,337,S0311,Rodent Inspection and Treatment,DOH- Department Of Health,DOH,1,2020-02-25T14:24:12.000Z,2020-02-28T10:01:40.000Z,2020-03-16T15:24:12.000Z,2020-02-25T14:24:12.000Z,1,2020-02-28T10:01:40.000Z,,Closed,,20-00070186,Standard,1302 T STREET SE,401145.94,133324.68,38.86774397,-76.98679535,WASHINGTON,DC,20020,68637,8
-77.040406250883535,38.922293822783594,338,S0311,Rodent Inspection and Treatment,DOH- Department Of Health,DOH,1,2020-02-27T09:58:26.000Z,2020-03-03T15:20:44.000Z,2020-03-18T10:58:26.000Z,2020-02-27T09:58:26.000Z,1,2020-03-03T15:20:00.000Z,,Closed,,20-00072772,Standard,2462 ONTARIO ROAD NW,396496.3,139380.01,38.92228637,-77.04040395,WASHINGTON,DC,20009,235675,1
-77.015675886839773,38.942940309362491,339,S0311,Rodent Inspection and Treatment,DOH- Department Of Health,DOH,1,2020-02-20T14:20:03.000Z,2020-02-24T08:47:04.000Z,2020-03-11T15:20:03.000Z,2020-02-20T14:20:03.000Z,1,2020-02-21T09:57:00.000Z,,Closed,,20-00064580,Standard,4226 3RD STREET NW,398641.23,141671.29,38.94293285,-77.0156736,WASHINGTON,DC,20011,244126,4
-77.016058727050478,38.942379221143661,340,S0311,Rodent Inspection and Treatment,DOH- Department Of Health,DOH,1,2020-02-25T17:03:44.000Z,2020-02-26T14:59:31.000Z,2020-03-16T18:03:44.000Z,2020-02-25T17:03:44.000Z,1,2020-02-26T10:21:00.000Z,,Closed,,20-00070548,Standard,315 UPSHUR STREET NW,398608.03,141609.01,38.94237176,-77.01605644,WASHINGTON,DC,20011,244114,4
-77.03976465151969,38.919659287482773,341,S0311,Rodent Inspection and Treatment,DOH- Department Of Health,DOH,1,2020-02-27T14:43:51.000Z,2020-03-03T15:22:50.000Z,2020-03-18T15:43:51.000Z,2020-02-27T14:43:51.000Z,1,2020-03-03T15:22:00.000Z,,Closed,,20-00073425,Standard,2238 ONTARIO ROAD NW,396551.81,139087.53,38.91965183,-77.03976235,WASHINGTON,DC,20009,235646,1
-77.007027971930128,38.900612925064024,342,S0311,Rodent Inspection and Treatment,DOH- Department Of Health,DOH,1,2020-02-29T13:26:04.000Z,2020-03-16T08:57:49.000Z,2020-03-19T14:26:04.000Z,2020-02-29T13:26:04.000Z,1,2020-03-16T08:57:48.000Z,,Closed,,20-00075532,Standard,810 1ST STREET NE,399390.57,136972.5,38.90060547,-77.00702569,WASHINGTON,DC,20002,79999,6
-77.015458701970772,38.910063135699815,343,S0311,Rodent Inspection and Treatment,DOH- Department Of Health,DOH,1,2020-02-25T13:58:46.000Z,2020-02-28T11:19:06.000Z,2020-03-16T14:58:46.000Z,2020-02-25T13:58:46.000Z,1,2020-02-28T11:19:05.000Z,,Closed,,20-00070138,Standard,1504 3RD STREET NW,398659.44,138021.64,38.91005535,-77.01545641,WASHINGTON,DC,20001,237683,5
-77.014574438283219,38.949915024569172,344,S0311,Rodent Inspection and Treatment,DOH- Department Of Health,DOH,1,2020-02-26T16:34:24.000Z,2020-03-04T08:33:41.000Z,2020-03-17T17:34:24.000Z,2020-02-26T16:34:24.000Z,1,2020-03-04T14:50:00.000Z,,Closed,,20-00072057,Standard,208 EMERSON STREET NW,398736.84,142445.53,38.94990756,-77.01457215,WASHINGTON,DC,20011,244555,4
-77.025028691974242,38.963963713714847,345,S0311,Rodent Inspection and Treatment,DOH- Department Of Health,DOH,1,2020-02-26T16:48:35.000Z,2020-03-02T15:13:37.000Z,2020-03-17T17:48:35.000Z,2020-02-26T16:48:35.000Z,1,2020-02-28T11:16:00.000Z,,Closed,,20-00072084,Standard,815 QUACKENBOS STREET NW,397831.06,144005.26,38.96395625,-77.0250264,WASHINGTON,DC,20011,254240,4
-76.983437107220553,38.881980212374287,346,S0311,Rodent Inspection and Treatment,DOH- Department Of Health,DOH,1,2020-02-25T15:29:07.000Z,2020-02-26T14:33:38.000Z,2020-03-16T16:29:06.000Z,2020-02-25T15:29:07.000Z,1,2020-02-26T14:32:00.000Z,,Closed,,20-00070389,Standard,600 KENTUCKY AVENUE SE,401437.29,134904.23,38.88197276,-76.98343483,WASHINGTON,DC,20003,309113,6
-77.086710687781803,38.955189649200861,347,S0311,Rodent Inspection and Treatment,DOH- Department Of Health,DOH,1,2020-02-18T12:49:37.000Z,2020-02-24T15:23:28.000Z,2020-03-09T13:49:37.000Z,2020-02-18T12:49:37.000Z,1,2020-02-24T15:22:00.000Z,,Closed,,20-00061275,Standard,4408 FARADAY PLACE NW,392484.4,143034.53,38.95518219,-77.08670837,WASHINGTON,DC,20016,267860,3
-77.006399887322743,38.947883040053725,348,S0311,Rodent Inspection and Treatment,DOH- Department Of Health,DOH,1,2020-02-20T11:53:43.000Z,2020-02-25T07:40:12.000Z,2020-03-11T12:53:43.000Z,2020-02-20T11:53:43.000Z,1,2020-02-25T07:39:00.000Z,,Closed,,20-00064241,Standard,4710 FORT TOTTEN DRIVE NE,399445.42,142219.88,38.94787558,-77.0063976,WASHINGTON,DC,20011,17960,5
-77.002743402381739,38.913537112087425,349,S0311,Rodent Inspection and Treatment,DOH- Department Of Health,DOH,1,2020-02-16T12:51:28.000Z,2020-02-21T11:25:17.000Z,2020-03-06T12:51:28.000Z,2020-02-16T12:51:28.000Z,1,2020-02-21T11:25:17.000Z,,Closed,,20-00059421,Standard,220 RANDOLPH PLACE NE,399762.27,138407.17,38.91352966,-77.00274112,WASHINGTON,DC,20002,50730,5
-77.024668396554489,38.90945051804853,350,S0311,Rodent Inspection and Treatment,DOH- Department Of Health,DOH,1,2020-02-18T12:56:03.000Z,2020-02-21T14:34:53.000Z,2020-03-09T13:56:03.000Z,2020-02-18T12:56:03.000Z,1,2020-02-21T10:30:00.000Z,,Closed,,20-00061294,Standard,916 P STREET NW,397860.65,137953.81,38.90944306,-77.0246661,WASHINGTON,DC,20001,218791,2
-76.988699860418961,38.899684188674328,351,S0311,Rodent Inspection and Treatment,DOH- Department Of Health,DOH,1,2020-02-26T16:40:30.000Z,2020-02-28T08:21:19.000Z,2020-03-17T17:40:30.000Z,2020-02-26T16:40:30.000Z,1,2020-02-28T08:18:00.000Z,,Closed,,20-00072071,Standard,1250 LINDEN PLACE NE,400980.42,136869.44,38.89967673,-76.98869758,WASHINGTON,DC,20002,69634,6
-77.007515139358972,38.917942878981194,352,S0311,Rodent Inspection and Treatment,DOH- Department Of Health,DOH,1,2020-02-16T13:24:54.000Z,2020-02-21T13:00:19.000Z,2020-03-06T13:24:54.000Z,2020-02-16T13:24:54.000Z,1,2020-02-21T13:00:18.000Z,,Closed,,20-00059442,Standard,39 V STREET NE,399348.47,138896.27,38.91793542,-77.00751285,WASHINGTON,DC,20002,29587,5
-77.021022324382287,38.942212050669241,353,S0311,Rodent Inspection and Treatment,DOH- Department Of Health,DOH,1,2020-02-16T13:20:16.000Z,2020-03-04T14:28:31.000Z,2020-03-06T13:20:16.000Z,2020-02-16T13:20:16.000Z,1,2020-03-04T10:35:00.000Z,,Closed,,20-00059437,Standard,619 UPSHUR STREET NW,398177.72,141590.54,38.94220459,-77.02102003,WASHINGTON,DC,20011,247526,4
-77.039961091785912,38.928616554771132,354,S0311,Rodent Inspection and Treatment,DOH- Department Of Health,DOH,1,2020-02-20T14:30:40.000Z,2020-02-27T07:21:34.000Z,2020-03-11T15:30:40.000Z,2020-02-20T14:30:40.000Z,1,2020-02-25T11:20:00.000Z,,Closed,,20-00064620,Standard,1720 IRVING STREET NW,396535.21,140081.87,38.9286091,-77.03995879,WASHINGTON,DC,20010,236112,1
-76.984520513631082,38.904690374318157,355,S0311,Rodent Inspection and Treatment,DOH- Department Of Health,DOH,1,2020-02-25T15:29:29.000Z,2020-02-27T08:23:25.000Z,2020-03-16T16:29:28.000Z,2020-02-25T15:29:29.000Z,1,2020-02-27T08:22:00.000Z,,Closed,,20-00070392,Standard,1422 ORREN STREET NE,401342.86,137425.22,38.90468292,-76.98451823,WASHINGTON,DC,20002,64085,5
-77.033355733844118,38.933688593308943,356,S0311,Rodent Inspection and Treatment,DOH- Department Of Health,DOH,1,2020-02-26T15:50:39.000Z,2020-03-03T10:14:39.000Z,2020-03-17T16:50:38.000Z,2020-02-26T15:50:39.000Z,1,2020-03-03T10:14:39.000Z,,Closed,,20-00071991,Standard,1413 MERIDIAN PLACE NW,397108.16,140644.68,38.93368113,-77.03335344,WASHINGTON,DC,20010,234612,1
-76.979640864641567,38.896275187404633,357,S0311,Rodent Inspection and Treatment,DOH- Department Of Health,DOH,1,2020-03-01T13:14:03.000Z,,2020-03-19T14:14:03.000Z,2020-03-01T13:14:03.000Z,,,,Open,,20-00075993,Standard,1730 E STREET NE,401766.32,136491.15,38.89626773,-76.97963859,WASHINGTON,DC,20002,56807,6
-77.029448542391023,38.958128666465306,358,S0311,Rodent Inspection and Treatment,DOH- Department Of Health,DOH,1,2020-02-25T14:43:57.000Z,2020-02-26T14:54:11.000Z,2020-03-16T15:43:57.000Z,2020-02-25T14:43:57.000Z,1,2020-02-26T11:02:00.000Z,,Closed,,20-00070262,Standard,1216 MADISON STREET NW,397447.8,143357.63,38.9581212,-77.02944625,WASHINGTON,DC,20011,253106,4
-77.001352059875785,38.890764461028816,359,S0311,Rodent Inspection and Treatment,DOH- Department Of Health,DOH,1,2020-02-28T10:25:19.000Z,2020-03-16T08:56:49.000Z,2020-03-19T11:25:19.000Z,2020-02-28T10:25:19.000Z,1,2020-03-16T08:56:48.000Z,,Closed,,20-00074206,Standard,317 A STREET NE,399882.9,135879.22,38.89075701,-77.00134978,WASHINGTON,DC,20002,39148,6
-77.026240783915668,38.939748218615129,360,S0311,Rodent Inspection and Treatment,DOH- Department Of Health,DOH,1,2020-02-27T09:00:21.000Z,2020-03-03T08:31:38.000Z,2020-03-18T10:00:21.000Z,2020-02-27T09:00:21.000Z,1,2020-03-02T10:20:00.000Z,,Closed,,20-00072636,Standard,900  - 999 BLOCK OF SHEPHERD STREET NW,397725.239999999,141317.15000332,38.9397404234185,-77.0262384897771,WASHINGTON,DC,20011,800599,4
-76.983432675442671,38.880715613949562,361,S0311,Rodent Inspection and Treatment,DOH- Department Of Health,DOH,1,2020-02-27T09:04:44.000Z,2020-02-28T08:18:08.000Z,2020-03-18T10:04:44.000Z,2020-02-27T09:04:44.000Z,1,2020-02-28T08:15:00.000Z,,Closed,,20-00072647,Standard,706 15TH STREET SE,401437.7,134763.85,38.88070783,-76.9834304,WASHINGTON,DC,20003,312584,6
-76.987198592649833,38.896877568383594,362,S0311,Rodent Inspection and Treatment,DOH- Department Of Health,DOH,1,2020-02-20T12:01:30.000Z,2020-02-24T08:33:17.000Z,2020-03-11T13:01:30.000Z,2020-02-20T12:01:30.000Z,1,2020-02-24T08:33:00.000Z,,Closed,,20-00064254,Standard,1324 EMERALD STREET NE,401110.69,136557.9,38.89687011,-76.98719631,WASHINGTON,DC,20002,67513,6
-77.012427142641315,38.913899339133977,363,S0311,Rodent Inspection and Treatment,DOH- Department Of Health,DOH,1,2020-02-28T09:14:07.000Z,2020-02-28T12:08:44.000Z,2020-03-19T10:14:07.000Z,2020-02-28T09:14:07.000Z,1,2020-02-28T12:08:44.000Z,,Closed,,20-00074077,Standard,1738 1ST STREET NW,398922.43,138447.45,38.91389188,-77.01242485,WASHINGTON,DC,20001,226957,5
-77.028446623980344,38.915363364481131,364,S0311,Rodent Inspection and Treatment,DOH- Department Of Health,DOH,1,2020-02-27T23:29:19.000Z,2020-03-03T15:23:26.000Z,2020-03-19T00:29:19.000Z,2020-02-27T23:29:19.000Z,1,2020-03-03T15:23:00.000Z,,Closed,,20-00073882,Standard,1206 T STREET NW,397533.16,138610.28,38.91535591,-77.02844433,WASHINGTON,DC,20009,240848,1
-76.957256020629316,38.892980456224869,365,S0311,Rodent Inspection and Treatment,DOH- Department Of Health,DOH,1,2020-02-20T05:12:04.000Z,2020-02-24T15:31:47.000Z,2020-03-11T06:12:04.000Z,2020-02-20T05:12:04.000Z,1,2020-02-24T15:28:00.000Z,,Closed,,20-00063712,Standard,229 34TH STREET NE,403708.34,136126.08,38.892973,-76.95725375,WASHINGTON,DC,20019,49279,7
-77.035371527487911,38.96356422871451,366,S0311,Rodent Inspection and Treatment,DOH- Department Of Health,DOH,1,2020-02-19T13:27:22.000Z,2020-02-20T15:25:44.000Z,2020-03-10T14:27:22.000Z,2020-02-19T13:27:22.000Z,1,2020-02-20T23:44:00.000Z,,Closed,,20-00063043,Standard,1444 ROCK CREEK FORD ROAD NW,396934.67,143961.21,38.96355676,-77.03536923,WASHINGTON,DC,20011,256158,4
-76.976430858109055,38.895327714422649,367,S0311,Rodent Inspection and Treatment,DOH- Department Of Health,DOH,1,2020-02-19T13:32:01.000Z,2020-02-26T15:41:21.000Z,2020-03-10T14:32:00.000Z,2020-02-19T13:32:01.000Z,1,2020-02-26T15:40:00.000Z,,Closed,,20-00063054,Standard,416 20TH STREET NE,402044.81,136386.04,38.89532026,-76.97642858,WASHINGTON,DC,20002,26093,7
-76.991295914098259,38.927781596746534,368,S0311,Rodent Inspection and Treatment,DOH- Department Of Health,DOH,1,2020-03-04T09:31:08.000Z,2020-03-09T08:26:30.000Z,2020-03-24T10:31:08.000Z,2020-03-04T09:31:08.000Z,1,2020-03-09T08:18:00.000Z,,Closed,,20-00079768,Standard,1022 HAMLIN STREET NE,400754.93,139988.46,38.92777414,-76.99129363,WASHINGTON,DC,20017,75411,5
-77.024220439764818,38.915821399905546,369,S0311,Rodent Inspection and Treatment,DOH- Department Of Health,DOH,1,2020-03-04T09:37:47.000Z,2020-03-13T09:12:18.000Z,2020-03-24T10:37:47.000Z,2020-03-04T09:37:47.000Z,1,2020-03-13T09:11:00.000Z,,Closed,,20-00079783,Standard,1904 9TH STREET NW,397899.69,138661.02,38.91581394,-77.02421815,WASHINGTON,DC,20001,239477,1
-76.992882214892319,38.89215811784959,370,S0311,Rodent Inspection and Treatment,DOH- Department Of Health,DOH,1,2020-03-08T21:12:58.000Z,2020-03-16T08:48:29.000Z,2020-03-26T21:12:58.000Z,2020-03-08T21:12:58.000Z,1,2020-03-16T08:48:28.000Z,,Closed,,20-00084396,Standard,928 CONSTITUTION AVENUE NE,400617.69,136033.95,38.89215067,-76.99287993,WASHINGTON,DC,20002,82738,6
-77.024736654325551,38.909123320506751,371,S0311,Rodent Inspection and Treatment,DOH- Department Of Health,DOH,1,2020-02-25T09:30:12.000Z,2020-02-26T15:18:56.000Z,2020-03-16T10:30:12.000Z,2020-02-25T09:30:12.000Z,1,2020-02-26T10:20:00.000Z,,Closed,,20-00069472,Standard,1415 COLUMBIA STREET NW,397854.72,137917.49,38.90911587,-77.02473436,WASHINGTON,DC,20001,225495,2
-76.982271866597983,38.85474689708979,372,S0311,Rodent Inspection and Treatment,DOH- Department Of Health,DOH,1,2020-03-09T18:37:14.000Z,,2020-03-27T18:37:14.000Z,2020-03-09T18:37:14.000Z,,,,Open,,20-00085942,Standard,2426 15TH PLACE SE,401538.98,131881.15,38.85473945,-76.98226959,WASHINGTON,DC,20020,47314,8
-77.027410305110976,38.91131580517785,373,S0311,Rodent Inspection and Treatment,DOH- Department Of Health,DOH,1,2020-03-09T19:34:18.000Z,2020-03-12T08:24:18.000Z,2020-03-27T19:34:18.000Z,2020-03-09T19:34:18.000Z,1,2020-03-11T09:50:00.000Z,,Closed,,20-00086012,Standard,1101 Q STREET NW,397622.9,138160.94,38.91130802,-77.02740801,WASHINGTON,DC,20009,218249,2
-77.006160202717197,38.833487696834815,374,S0311,Rodent Inspection and Treatment,DOH- Department Of Health,DOH,1,2020-03-03T09:33:01.000Z,2020-03-09T09:20:58.000Z,2020-03-23T10:33:01.000Z,2020-03-03T09:33:01.000Z,1,2020-03-06T00:25:00.000Z,,Closed,,20-00078138,Standard,3831 1ST STREET SE,399465.34,129521.1,38.83348026,-77.00615792,WASHINGTON,DC,20032,30046,8
-77.005887778699204,38.833051043802172,375,S0311,Rodent Inspection and Treatment,DOH- Department Of Health,DOH,1,2020-03-03T09:33:48.000Z,2020-03-09T09:21:38.000Z,2020-03-23T10:33:48.000Z,2020-03-03T09:33:48.000Z,1,2020-03-06T00:25:00.000Z,,Closed,,20-00078143,Standard,MISSISSIPPI AVENUE SE AND 1ST STREET SE,399488.990013481,129472.627008197,38.8330432693712,-77.005885497407,WASHINGTON,DC,20032,905053,8
-77.006160202717197,38.833487696834815,376,S0311,Rodent Inspection and Treatment,DOH- Department Of Health,DOH,1,2020-03-03T09:37:26.000Z,2020-03-09T09:17:55.000Z,2020-03-23T10:37:26.000Z,2020-03-03T09:37:26.000Z,1,2020-03-06T00:25:00.000Z,,Closed,,20-00078153,Standard,3831 1ST STREET SE,399465.34,129521.1,38.83348026,-77.00615792,WASHINGTON,DC,20032,30046,8
-77.03171714111744,38.93367040229024,377,S0311,Rodent Inspection and Treatment,DOH- Department Of Health,DOH,1,2020-03-03T16:22:03.000Z,2020-03-05T10:19:21.000Z,2020-03-23T17:22:03.000Z,2020-03-03T16:22:03.000Z,1,2020-03-05T10:19:21.000Z,,Closed,,20-00079100,Standard,1354 OAK STREET NW,397250.23,140642.61,38.93366294,-77.03171485,WASHINGTON,DC,20010,230761,1
-77.026777259280848,38.91395314353845,378,S0311,Rodent Inspection and Treatment,DOH- Department Of Health,DOH,1,2020-03-09T21:07:05.000Z,2020-03-16T09:00:51.000Z,2020-03-27T21:07:05.000Z,2020-03-09T21:07:05.000Z,1,2020-03-16T09:00:51.000Z,,Closed,,20-00086072,Standard,1749 11TH STREET NW,397677.89,138453.69,38.91394569,-77.02677497,WASHINGTON,DC,20001,239268,6
-77.076298392986956,38.965284539151625,379,S0311,Rodent Inspection and Treatment,DOH- Department Of Health,DOH,1,2020-03-03T15:35:24.000Z,2020-03-04T12:27:24.000Z,2020-03-23T16:35:24.000Z,2020-03-03T15:35:24.000Z,1,2020-03-04T12:27:23.000Z,,Closed,,20-00079024,Standard,5612 CONNECTICUT AVENUE NW,393387.84,144154.35,38.96527707,-77.07629608,WASHINGTON,DC,20015,263861,3
-77.076298392986956,38.965284539151625,380,S0311,Rodent Inspection and Treatment,DOH- Department Of Health,DOH,1,2020-03-03T15:36:18.000Z,,2020-03-23T16:36:18.000Z,2020-03-03T15:36:18.000Z,,,,Open,,20-00079026,Standard,5612 CONNECTICUT AVENUE NW,393387.84,144154.35,38.96527707,-77.07629608,WASHINGTON,DC,20015,263861,3
-76.972319350795402,38.87308321630956,381,S0311,Rodent Inspection and Treatment,DOH- Department Of Health,DOH,1,2020-03-10T14:37:23.000Z,,2020-03-30T14:37:23.000Z,2020-03-10T14:37:23.000Z,,,,Open,,20-00087067,Standard,2330 NICHOLSON STREET SE,402402.23,133916.83,38.87307577,-76.97231708,WASHINGTON,DC,20020,48464,7
-77.023000122988634,38.939363886709756,382,S0311,Rodent Inspection and Treatment,DOH- Department Of Health,DOH,1,2020-03-10T12:36:12.000Z,,2020-03-30T12:36:12.000Z,2020-03-10T12:36:12.000Z,,,,Open,,20-00086832,Standard,3921 8TH STREET NW,398006.18,141274.41,38.93935643,-77.02299783,WASHINGTON,DC,20011,249641,4
-76.980245140446968,38.906269344162766,383,S0311,Rodent Inspection and Treatment,DOH- Department Of Health,DOH,1,2020-03-10T16:20:10.000Z,,2020-03-30T16:20:10.000Z,2020-03-10T16:20:10.000Z,,,,Open,,20-00087279,Standard,1231 16TH STREET NE,401713.66,137600.57,38.90626189,-76.98024286,WASHINGTON,DC,20002,70583,5
-76.996932617481647,38.879783298954955,384,S0311,Rodent Inspection and Treatment,DOH- Department Of Health,DOH,1,2020-03-10T10:16:12.000Z,2020-03-12T07:49:08.000Z,2020-03-30T10:16:11.000Z,2020-03-10T10:16:12.000Z,1,2020-03-12T07:48:00.000Z,,Closed,,20-00086510,Standard,643 1/2 I STREET SE,400266.35,134660.23,38.87977585,-76.99693034,WASHINGTON,DC,20003,289985,6
-76.993464425893976,38.933848834400138,385,S0311,Rodent Inspection and Treatment,DOH- Department Of Health,DOH,1,2020-03-10T18:47:36.000Z,,2020-03-30T18:47:36.000Z,2020-03-10T18:47:36.000Z,,,,Open,,20-00087570,Standard,900 NEWTON STREET NE,400566.85,140661.96,38.93384104,-76.99346214,WASHINGTON,DC,20017,316828,5
-77.015458701970772,38.910063135699815,386,S0311,Rodent Inspection and Treatment,DOH- Department Of Health,DOH,1,2020-02-25T18:05:19.000Z,2020-02-28T11:21:29.000Z,2020-03-16T19:05:19.000Z,2020-02-25T18:05:19.000Z,1,2020-02-28T11:21:28.000Z,,Closed,,20-00070644,Standard,1504 3RD STREET NW,398659.44,138021.64,38.91005535,-77.01545641,WASHINGTON,DC,20001,237683,5
-77.027915988054929,38.916851308971822,387,S0311,Rodent Inspection and Treatment,DOH- Department Of Health,DOH,1,2020-03-09T23:39:12.000Z,2020-03-10T14:26:05.000Z,2020-03-27T23:39:12.000Z,2020-03-09T23:39:12.000Z,1,2020-03-10T11:24:00.000Z,,Closed,,20-00086141,Standard,1118 U STREET NW,397579.23,138775.44,38.91684385,-77.02791369,WASHINGTON,DC,20009,302953,1
-76.984896776677573,38.867313473175884,388,S0311,Rodent Inspection and Treatment,DOH- Department Of Health,DOH,1,2020-03-10T01:07:30.000Z,,2020-03-30T01:07:30.000Z,2020-03-10T01:07:30.000Z,,,,Open,,20-00086150,Standard,1906 14TH STREET SE,401310.91,133276.09,38.86730603,-76.9848945,WASHINGTON,DC,20020,54440,8
-76.925299109219367,38.901981767534224,389,S0311,Rodent Inspection and Treatment,DOH- Department Of Health,DOH,1,2020-03-03T16:34:57.000Z,2020-03-10T09:04:14.000Z,2020-03-23T17:34:56.000Z,2020-03-03T16:34:57.000Z,1,2020-03-10T09:02:00.000Z,,Closed,,20-00079119,Standard,5200 JAY STREET NE,406479.86,137127.08,38.90197431,-76.92529685,WASHINGTON,DC,20019,11760,7
-77.032354626446164,38.912113760663928,390,S0311,Rodent Inspection and Treatment,DOH- Department Of Health,DOH,1,2020-02-24T18:27:45.000Z,2020-02-26T15:24:15.000Z,2020-03-13T19:27:45.000Z,2020-02-24T18:27:45.000Z,1,2020-02-26T11:14:00.000Z,,Closed,,20-00069065,Standard,1622 14TH STREET NW,397194.11,138249.66,38.91210631,-77.03235233,WASHINGTON,DC,20009,243120,2
-76.990309741362921,38.843840963827887,391,S0311,Rodent Inspection and Treatment,DOH- Department Of Health,DOH,1,2020-03-03T12:06:42.000Z,2020-03-05T12:08:26.000Z,2020-03-23T13:06:42.000Z,2020-03-03T12:06:42.000Z,1,2020-03-05T12:08:25.000Z,,Closed,,20-00078540,Standard,3212 12TH STREET SE,400841.43,130670.41,38.84383352,-76.99030746,WASHINGTON,DC,20032,38515,8
-77.008380777071508,38.917928947258673,392,S0311,Rodent Inspection and Treatment,DOH- Department Of Health,DOH,1,2020-03-09T19:27:11.000Z,2020-03-11T11:03:53.000Z,2020-03-27T19:27:11.000Z,2020-03-09T19:27:11.000Z,1,2020-03-11T11:03:52.000Z,,Closed,,20-00086001,Standard,15 V STREET NE,399273.4,138894.73,38.91792149,-77.00837849,WASHINGTON,DC,20002,62734,5
-77.024321073850771,38.94278289670526,393,S0311,Rodent Inspection and Treatment,DOH- Department Of Health,DOH,1,2020-03-03T17:17:05.000Z,2020-03-04T14:35:01.000Z,2020-03-23T18:17:05.000Z,2020-03-03T17:17:05.000Z,1,2020-03-04T11:22:00.000Z,,Closed,,20-00079181,Standard,828 VARNUM STREET NW,397891.76,141653.98,38.94277544,-77.02431878,WASHINGTON,DC,20011,252448,4
-77.030005133855553,38.937068875956982,394,S0311,Rodent Inspection and Treatment,DOH- Department Of Health,DOH,1,2020-03-03T18:43:23.000Z,2020-03-04T14:36:41.000Z,2020-03-23T19:43:23.000Z,2020-03-03T18:43:23.000Z,1,2020-03-04T11:42:00.000Z,,Closed,,20-00079294,Standard,3708 13TH STREET NW,397398.79,141019.82,38.93706142,-77.03000284,WASHINGTON,DC,20010,225284,4
-76.980433229796276,38.902731885589212,395,S0311,Rodent Inspection and Treatment,DOH- Department Of Health,DOH,1,2020-03-10T08:17:22.000Z,2020-03-11T07:51:23.000Z,2020-03-30T08:17:22.000Z,2020-03-10T08:17:22.000Z,1,2020-03-11T07:48:00.000Z,,Closed,,20-00086264,Standard,1628 K STREET NE,401697.43,137207.88,38.90272443,-76.98043095,WASHINGTON,DC,20002,59166,5
-77.007076470187627,38.915354451951025,396,S0311,Rodent Inspection and Treatment,DOH- Department Of Health,DOH,1,2020-03-07T12:24:37.000Z,2020-03-11T07:59:53.000Z,2020-03-26T13:24:37.000Z,2020-03-07T12:24:37.000Z,1,2020-03-11T07:59:00.000Z,,Closed,,20-00083627,Standard,49 T STREET NE,399386.49,138608.93,38.915347,-77.00707418,WASHINGTON,DC,20002,16507,5
-76.98353430497572,38.853836329534786,397,S0311,Rodent Inspection and Treatment,DOH- Department Of Health,DOH,1,2020-02-28T19:29:12.000Z,2020-03-03T08:37:31.000Z,2020-03-19T20:29:12.000Z,2020-02-28T19:29:12.000Z,1,2020-03-03T08:37:00.000Z,,Closed,,20-00075121,Standard,3032 STANTON ROAD SE,401429.42,131780.05,38.85382888,-76.98353203,WASHINGTON,DC,20020,41510,8
-77.016310915207313,38.943023188805313,398,S0311,Rodent Inspection and Treatment,DOH- Department Of Health,DOH,1,2020-02-21T12:25:20.000Z,2020-02-26T15:25:10.000Z,2020-03-12T13:25:20.000Z,2020-02-21T12:25:20.000Z,1,2020-02-27T00:38:00.000Z,,Closed,,20-00065780,Standard,316 VARNUM STREET NW,398586.18,141680.5,38.94301573,-77.01630862,WASHINGTON,DC,20011,244109,4
-77.097029638718055,38.950210773570397,399,S0311,Rodent Inspection and Treatment,DOH- Department Of Health,DOH,1,2020-02-22T19:22:59.000Z,2020-02-24T08:09:20.000Z,2020-03-12T20:22:59.000Z,2020-02-22T19:22:59.000Z,1,2020-02-24T08:08:00.000Z,,Closed,,20-00067194,Standard,4610 49TH STREET NW,391589.4,142482.73,38.95020331,-77.09702732,WASHINGTON,DC,20016,269375,3
-77.045085333044554,38.913624654485538,400,S0311,Rodent Inspection and Treatment,DOH- Department Of Health,DOH,1,2020-03-04T21:30:20.000Z,2020-03-06T08:50:07.000Z,2020-03-24T22:30:20.000Z,2020-03-04T21:30:20.000Z,1,2020-03-05T10:25:00.000Z,,Closed,,20-00080849,Standard,1724 20TH STREET NW,396090.07,138417.85,38.9136172,-77.04508303,WASHINGTON,DC,20009,242571,2
-76.983772194894485,38.853895097815773,401,S0311,Rodent Inspection and Treatment,DOH- Department Of Health,DOH,1,2020-03-09T18:21:50.000Z,,2020-03-27T18:21:50.000Z,2020-03-09T18:21:50.000Z,,,,Open,,20-00085917,Standard,3026 STANTON ROAD SE,401408.77,131786.57,38.85388765,-76.98376992,WASHINGTON,DC,20020,287398,8
-76.996025972152054,38.941521406619145,402,S0311,Rodent Inspection and Treatment,DOH- Department Of Health,DOH,1,2020-03-05T15:04:39.000Z,2020-03-09T08:17:23.000Z,2020-03-25T16:04:38.000Z,2020-03-05T15:04:39.000Z,1,2020-03-09T08:16:00.000Z,,Closed,,20-00081788,Standard,4351 VARNUM PLACE NE,400344.72,141513.67,38.94151394,-76.99602369,WASHINGTON,DC,20017,22881,5
-77.024589165978455,38.915742319792173,403,S0311,Rodent Inspection and Treatment,DOH- Department Of Health,DOH,1,2020-03-05T19:01:49.000Z,2020-03-13T09:34:18.000Z,2020-03-25T20:01:49.000Z,2020-03-05T19:01:49.000Z,1,2020-03-13T09:33:00.000Z,,Closed,,20-00082106,Standard,913 T STREET NW,397867.71,138652.25,38.91573486,-77.02458687,WASHINGTON,DC,20001,239503,1
-76.991200341548961,38.896663809447723,404,S0311,Rodent Inspection and Treatment,DOH- Department Of Health,DOH,1,2020-03-10T13:56:38.000Z,2020-03-16T08:44:53.000Z,2020-03-30T13:56:38.000Z,2020-03-10T13:56:38.000Z,1,2020-03-16T08:44:52.000Z,,Closed,,20-00086990,Standard,1105 MARYLAND AVENUE NE,400763.55,136534.13,38.89665636,-76.99119806,WASHINGTON,DC,20002,74294,6
-77.042504546307654,38.914696713234882,405,S0311,Rodent Inspection and Treatment,DOH- Department Of Health,DOH,1,2020-03-10T13:05:43.000Z,2020-03-12T07:47:43.000Z,2020-03-30T13:05:43.000Z,2020-03-10T13:05:43.000Z,1,2020-03-12T00:53:00.000Z,,Closed,,20-00086883,Standard,1824 SWANN STREET NW,396313.95,138536.75,38.91468926,-77.04250225,WASHINGTON,DC,20009,241116,2
-77.034695963032675,38.96596179689223,406,S0311,Rodent Inspection and Treatment,DOH- Department Of Health,DOH,1,2020-02-25T16:52:47.000Z,2020-02-26T14:28:17.000Z,2020-03-16T17:52:47.000Z,2020-02-25T16:52:47.000Z,1,2020-02-26T23:14:00.000Z,,Closed,,20-00070533,Standard,1436 SHERIDAN STREET NW,396993.32,144227.34,38.96595433,-77.03469366,WASHINGTON,DC,20011,257946,4
-77.021036846855651,38.946472156724674,407,S0311,Rodent Inspection and Treatment,DOH- Department Of Health,DOH,1,2020-03-10T16:45:29.000Z,,2020-03-30T16:45:28.000Z,2020-03-10T16:45:29.000Z,,,,Open,,20-00087337,Standard,545 BUCHANAN STREET NW,398176.57,142063.45,38.94646469,-77.02103455,WASHINGTON,DC,20011,247359,4
-76.980278229191612,38.896261063516185,408,S0311,Rodent Inspection and Treatment,DOH- Department Of Health,DOH,1,2020-03-10T16:48:17.000Z,,2020-03-30T16:48:17.000Z,2020-03-10T16:48:17.000Z,,,,Open,,20-00087345,Standard,1700 E STREET NE,401711.03,136489.57,38.89625328,-76.98027595,WASHINGTON,DC,20002,301220,6
-76.984804645145218,38.868694000154655,409,S0311,Rodent Inspection and Treatment,DOH- Department Of Health,DOH,1,2020-03-04T22:58:25.000Z,2020-03-05T08:21:58.000Z,2020-03-24T23:58:25.000Z,2020-03-04T22:58:25.000Z,1,2020-03-05T08:21:00.000Z,,Closed,,20-00080884,Standard,1405 RIDGE PLACE SE,401318.88,133429.34,38.86868655,-76.98480237,WASHINGTON,DC,20020,65028,8
-77.002296101746182,38.91238675683153,410,S0311,Rodent Inspection and Treatment,DOH- Department Of Health,DOH,1,2020-03-05T16:15:40.000Z,2020-03-09T08:15:57.000Z,2020-03-25T17:15:40.000Z,2020-03-05T16:15:40.000Z,1,2020-03-09T08:10:00.000Z,,Closed,,20-00081914,Standard,239 R STREET NE,399801.06,138279.47,38.9123793,-77.00229382,WASHINGTON,DC,20002,308920,5
-77.008008443668558,38.912845840087805,411,S0311,Rodent Inspection and Treatment,DOH- Department Of Health,DOH,1,2020-03-11T07:32:14.000Z,2020-03-11T11:54:20.000Z,2020-03-31T07:32:14.000Z,2020-03-11T07:32:14.000Z,1,2020-03-11T11:54:19.000Z,,Closed,,20-00087797,Standard,18 R STREET NE,399305.64,138330.46,38.91283838,-77.00800616,WASHINGTON,DC,20002,56106,5
-76.981821395254698,38.895936472116695,412,S0311,Rodent Inspection and Treatment,DOH- Department Of Health,DOH,1,2020-02-21T17:25:10.000Z,2020-02-25T08:14:53.000Z,2020-03-12T18:25:10.000Z,2020-02-21T17:25:10.000Z,1,2020-02-25T08:13:00.000Z,,Closed,,20-00066380,Standard,1609 E STREET NE,401577.17,136453.51,38.89592902,-76.98181912,WASHINGTON,DC,20002,60018,6
-77.02682343629327,38.917165505294449,413,S0311,Rodent Inspection and Treatment,DOH- Department Of Health,DOH,1,2020-03-02T11:35:17.000Z,2020-03-03T15:38:13.000Z,2020-03-20T12:35:17.000Z,2020-03-02T11:35:17.000Z,1,2020-03-03T15:36:00.000Z,,Closed,,20-00076851,Standard,2001 11TH STREET NW,397673.99,138810.29,38.91715805,-77.02682114,WASHINGTON,DC,20001,239179,1
-77.053687329320752,38.90087519419005,414,S0311,Rodent Inspection and Treatment,DOH- Department Of Health,DOH,1,2020-02-20T13:26:28.000Z,2020-02-26T11:36:22.000Z,2020-03-11T14:26:28.000Z,2020-02-20T13:26:28.000Z,1,2020-02-26T11:36:21.000Z,,Closed,,20-00064430,Standard,2503 I STREET NW,395343.21,137002.96,38.90086774,-77.05368503,WASHINGTON,DC,20037,273893,2
-77.014336622120339,38.913516266051033,415,S0311,Rodent Inspection and Treatment,DOH- Department Of Health,DOH,1,2020-03-04T17:44:13.000Z,2020-03-09T11:50:57.000Z,2020-03-24T18:44:13.000Z,2020-03-04T17:44:13.000Z,1,2020-03-09T11:50:57.000Z,,Closed,,20-00080705,Standard,1708 2ND STREET NW,398756.82,138404.95,38.91350881,-77.01433433,WASHINGTON,DC,20001,230069,5
-76.984563407389246,38.868431553540766,416,S0311,Rodent Inspection and Treatment,DOH- Department Of Health,DOH,1,2020-03-03T11:43:13.000Z,2020-03-04T10:12:35.000Z,2020-03-23T12:43:13.000Z,2020-03-03T11:43:13.000Z,1,2020-03-04T10:12:35.000Z,,Closed,,20-00078497,Standard,1410 S STREET SE,401339.82,133400.21,38.86842377,-76.98456113,WASHINGTON,DC,20020,64798,8
-77.017690475489289,38.949818115876553,417,S0311,Rodent Inspection and Treatment,DOH- Department Of Health,DOH,1,2020-02-28T10:37:09.000Z,2020-03-03T08:26:05.000Z,2020-03-19T11:37:09.000Z,2020-02-28T10:37:09.000Z,1,2020-03-02T11:00:00.000Z,,Closed,,20-00074236,Standard,400 EMERSON STREET NW,398466.73,142434.82,38.94981065,-77.01768818,WASHINGTON,DC,20011,248400,4
-76.982112045788213,38.901289196011398,418,S0311,Rodent Inspection and Treatment,DOH- Department Of Health,DOH,1,2020-03-04T18:34:32.000Z,2020-03-05T15:09:40.000Z,2020-03-24T19:34:32.000Z,2020-03-04T18:34:32.000Z,1,2020-03-05T15:09:00.000Z,,Closed,,20-00080752,Standard,845 BLADENSBURG ROAD NE,401551.84,137047.7,38.90128141,-76.98210977,WASHINGTON,DC,20002,289021,5
-76.955051439192502,38.894127115150219,419,S0311,Rodent Inspection and Treatment,DOH- Department Of Health,DOH,1,2020-02-16T23:54:28.000Z,2020-02-24T15:26:22.000Z,2020-03-06T23:54:28.000Z,2020-02-16T23:54:28.000Z,1,2020-02-24T15:25:00.000Z,,Closed,,20-00059679,Standard,314 36TH STREET NE,403899.53,136253.46,38.89411966,-76.95504917,WASHINGTON,DC,20019,39692,7
-76.985980160710326,38.908381819979873,420,S0311,Rodent Inspection and Treatment,DOH- Department Of Health,DOH,1,2020-03-02T06:42:04.000Z,2020-03-03T08:27:04.000Z,2020-03-20T07:42:04.000Z,2020-03-02T06:42:04.000Z,1,2020-03-03T08:23:00.000Z,,Closed,,20-00076296,Standard,1659 MONTELLO AVENUE NE,401216.19,137834.98,38.90837403,-76.98597788,WASHINGTON,DC,20002,58305,5
-77.042136459211875,38.906837607166693,421,S0311,Rodent Inspection and Treatment,DOH- Department Of Health,DOH,1,2020-03-06T12:04:32.000Z,2020-03-11T08:46:37.000Z,2020-03-26T13:04:31.000Z,2020-03-06T12:04:32.000Z,1,2020-03-10T11:56:00.000Z,,Closed,,20-00082752,Standard,1228 CONNECTICUT AVENUE NW,396345.47,137664.31,38.90683015,-77.04213416,WASHINGTON,DC,20036,302357,2
-77.028494962959769,38.907058291535108,422,S0311,Rodent Inspection and Treatment,DOH- Department Of Health,DOH,1,2020-03-03T14:40:23.000Z,2020-03-04T13:53:06.000Z,2020-03-23T15:40:23.000Z,2020-03-03T14:40:23.000Z,1,2020-03-04T13:53:06.000Z,,Closed,,20-00078899,Standard,1200 N STREET NW,397528.68,137688.35,38.90705084,-77.02849267,WASHINGTON,DC,20005,226383,2
-77.023967754620742,38.925289744029698,423,S0311,Rodent Inspection and Treatment,DOH- Department Of Health,DOH,1,2020-02-17T16:46:36.000Z,2020-02-21T08:27:29.000Z,2020-03-06T16:46:36.000Z,2020-02-17T16:46:36.000Z,1,2020-02-18T08:27:00.000Z,,Closed,,20-00060157,Standard,739 FAIRMONT STREET NW,397921.88,139712.08,38.92528229,-77.02396546,WASHINGTON,DC,20001,232415,1
-76.996558102011178,38.926669613398794,424,S0311,Rodent Inspection and Treatment,DOH- Department Of Health,DOH,1,2020-02-17T16:56:58.000Z,2020-02-27T08:18:00.000Z,2020-03-06T16:56:58.000Z,2020-02-17T16:56:58.000Z,1,2020-02-27T08:16:00.000Z,,Closed,,20-00060175,Standard,650 GIRARD STREET NE,400298.65,139864.99,38.92666182,-76.99655582,WASHINGTON,DC,20017,1576,5
-77.021493992770203,38.967465472760871,425,S0311,Rodent Inspection and Treatment,DOH- Department Of Health,DOH,1,2020-03-02T08:23:37.000Z,2020-03-03T14:46:36.000Z,2020-03-20T09:23:37.000Z,2020-03-02T08:23:37.000Z,1,2020-03-03T10:21:00.000Z,,Closed,,20-00076401,Standard,605 TUCKERMAN STREET NW,398137.49,144393.91,38.96745801,-77.0214917,WASHINGTON,DC,20011,251380,4
-77.042029606639488,38.913921897733672,426,S0311,Rodent Inspection and Treatment,DOH- Department Of Health,DOH,1,2020-03-10T10:55:33.000Z,,2020-03-30T10:55:33.000Z,2020-03-10T10:55:33.000Z,,,,Open,,20-00086593,Standard,1804 S STREET NW,396355.1,138450.72,38.91391444,-77.04202731,WASHINGTON,DC,20009,241192,2
-77.009372108285561,38.921461667940918,427,S0311,Rodent Inspection and Treatment,DOH- Department Of Health,DOH,1,2020-03-10T12:07:38.000Z,,2020-03-30T12:07:38.000Z,2020-03-10T12:07:38.000Z,,,,Open,,20-00086771,Standard,2400 NORTH CAPITOL STREET NW,399187.47,139286.9,38.92145421,-77.00936982,WASHINGTON,DC,20002,228284,5
-77.037508686395327,38.924544977665498,428,S0311,Rodent Inspection and Treatment,DOH- Department Of Health,DOH,1,2020-03-10T11:20:31.000Z,2020-03-13T09:37:30.000Z,2020-03-30T11:20:31.000Z,2020-03-10T11:20:31.000Z,1,2020-03-13T09:36:00.000Z,,Closed,,20-00086662,Standard,1620 FULLER STREET NW,396747.67,139629.8,38.92453719,-77.03750639,WASHINGTON,DC,20009,235852,1
-77.066189481372305,38.906108490470473,429,S0311,Rodent Inspection and Treatment,DOH- Department Of Health,DOH,1,2020-03-10T11:21:31.000Z,2020-03-12T07:54:02.000Z,2020-03-30T11:21:31.000Z,2020-03-10T11:21:31.000Z,1,2020-03-11T11:05:00.000Z,,Closed,,20-00086668,Standard,3301 PROSPECT STREET NW,394259.16,137584.61,38.90610104,-77.06618718,WASHINGTON,DC,20007,272175,2
-76.985904529787163,38.868688462783453,430,S0311,Rodent Inspection and Treatment,DOH- Department Of Health,DOH,1,2020-02-20T15:20:24.000Z,2020-02-21T10:41:18.000Z,2020-03-11T16:20:24.000Z,2020-02-20T15:20:24.000Z,1,2020-02-21T10:41:18.000Z,,Closed,,20-00064740,Standard,1335 RIDGE PLACE SE,401223.43,133428.71,38.86868101,-76.98590225,WASHINGTON,DC,20020,67020,8
-77.022261199936608,38.934500809433253,431,S0311,Rodent Inspection and Treatment,DOH- Department Of Health,DOH,1,2020-03-03T10:22:39.000Z,2020-03-05T10:18:06.000Z,2020-03-23T11:22:39.000Z,2020-03-03T10:22:39.000Z,1,2020-03-05T10:18:06.000Z,,Closed,,20-00078311,Standard,700 OTIS PLACE NW,398070.11,140734.55,38.93449335,-77.02225891,WASHINGTON,DC,20010,228609,1
-77.049774417435387,38.903406023473245,432,S0311,Rodent Inspection and Treatment,DOH- Department Of Health,DOH,1,2020-03-11T00:45:06.000Z,2020-03-13T15:40:31.000Z,2020-03-31T00:45:06.000Z,2020-03-11T00:45:06.000Z,1,2020-03-14T00:20:00.000Z,,Closed,,20-00087744,Standard,1 WASHINGTON CIRCLE NW,395682.78,137283.71,38.90339824,-77.04977212,WASHINGTON,DC,20037,242366,2
-77.049112005995298,38.903282709176004,433,S0311,Rodent Inspection and Treatment,DOH- Department Of Health,DOH,1,2020-03-11T00:45:58.000Z,2020-03-13T15:41:39.000Z,2020-03-31T00:45:58.000Z,2020-03-11T00:45:58.000Z,1,2020-03-14T00:00:00.000Z,,Closed,,20-00087745,Standard,1009 NEW HAMPSHIRE AVENUE NW,395740.23,137269.99,38.90327526,-77.04910971,WASHINGTON,DC,20037,242740,2
-77.032797788642512,38.96338733625101,434,S0311,Rodent Inspection and Treatment,DOH- Department Of Health,DOH,1,2020-03-11T03:18:45.000Z,2020-03-11T15:16:36.000Z,2020-03-31T03:18:45.000Z,2020-03-11T03:18:45.000Z,1,2020-03-11T10:50:00.000Z,,Closed,,20-00087761,Standard,1371 PEABODY STREET NW,397157.72,143941.49,38.96337987,-77.03279549,WASHINGTON,DC,20011,258185,4
-77.048580700174668,38.903360853605477,435,S0311,Rodent Inspection and Treatment,DOH- Department Of Health,DOH,1,2020-03-05T11:30:09.000Z,2020-03-12T08:19:41.000Z,2020-03-25T12:30:08.000Z,2020-03-05T11:30:09.000Z,1,2020-03-11T11:52:00.000Z,,Closed,,20-00081375,Standard,1099 22ND STREET NW,395786.32,137278.64,38.9033534,-77.0485784,WASHINGTON,DC,20037,226519,2
-77.017649404493952,38.95819617287578,436,S0311,Rodent Inspection and Treatment,DOH- Department Of Health,DOH,1,2020-03-05T11:32:06.000Z,2020-03-09T09:16:02.000Z,2020-03-25T12:32:06.000Z,2020-03-05T11:32:06.000Z,1,2020-03-06T10:35:00.000Z,,Closed,,20-00081379,Standard,336 MADISON STREET NW,398470.47,143364.86,38.95818871,-77.01764711,WASHINGTON,DC,20011,249419,4
-77.032427898767864,38.963459415365477,437,S0311,Rodent Inspection and Treatment,DOH- Department Of Health,DOH,1,2020-03-11T03:21:44.000Z,2020-03-11T15:11:38.000Z,2020-03-31T03:21:43.000Z,2020-03-11T03:21:44.000Z,1,2020-03-11T10:47:00.000Z,,Closed,,20-00087762,Standard,1363 PEABODY STREET NW,397189.78,143949.48,38.96345195,-77.0324256,WASHINGTON,DC,20011,258184,4
-76.98793214516887,38.895926633237352,438,S0311,Rodent Inspection and Treatment,DOH- Department Of Health,DOH,1,2020-03-02T10:36:09.000Z,,2020-03-20T11:36:09.000Z,2020-03-02T10:36:09.000Z,,,,Open,,20-00076700,Standard,1307 E STREET NE,401047.07,136452.33,38.89591918,-76.98792987,WASHINGTON,DC,20002,68566,6
-77.039263685119295,38.923350077883903,439,S0311,Rodent Inspection and Treatment,DOH- Department Of Health,DOH,1,2020-02-27T08:19:25.000Z,2020-03-03T15:20:03.000Z,2020-03-18T09:19:25.000Z,2020-02-27T08:19:25.000Z,1,2020-03-03T15:19:00.000Z,,Closed,,20-00072538,Standard,1705 EUCLID STREET NW,396595.43,139497.22,38.92334262,-77.03926139,WASHINGTON,DC,20009,235709,1
-77.030298579686388,38.890154545361334,440,S0311,Rodent Inspection and Treatment,DOH- Department Of Health,DOH,1,2020-02-28T01:09:21.000Z,,2020-03-19T02:09:21.000Z,2020-02-28T01:09:21.000Z,,,,Open,,20-00073896,Standard,1300 MADISON DRIVE NW,397371.62,135811.95,38.89014676,-77.03029629,WASHINGTON,DC,20004,313453,2
-77.014195410971126,38.873151034418846,441,S0311,Rodent Inspection and Treatment,DOH- Department Of Health,DOH,1,2020-02-28T01:11:11.000Z,,2020-03-19T02:11:11.000Z,2020-02-28T01:11:11.000Z,,,,Open,,20-00073897,Standard,215 O STREET SW,398768.37,133924.09,38.87314359,-77.01419312,WASHINGTON,DC,20024,156257,6
-77.001098587885281,38.875834593947019,442,S0311,Rodent Inspection and Treatment,DOH- Department Of Health,DOH,1,2020-02-28T01:19:00.000Z,,2020-03-19T02:19:00.000Z,2020-02-28T01:19:00.000Z,,,,Open,,20-00073899,Standard,1201 4TH STREET SE,399904.87,134221.89,38.87582714,-77.00109631,WASHINGTON,DC,20003,306176,6
-77.036123756065209,38.911732684269069,443,S0311,Rodent Inspection and Treatment,DOH- Department Of Health,DOH,1,2020-02-26T16:09:27.000Z,2020-03-02T08:41:06.000Z,2020-03-17T17:09:27.000Z,2020-02-26T16:09:27.000Z,1,2020-02-28T10:20:00.000Z,,Closed,,20-00072021,Standard,1611 16TH STREET NW,396867.2,138207.48,38.91172523,-77.03612146,WASHINGTON,DC,20009,301850,2
-77.013676740420436,38.913526434503403,444,S0311,Rodent Inspection and Treatment,DOH- Department Of Health,DOH,1,2020-03-01T21:59:00.000Z,2020-03-04T10:05:31.000Z,2020-03-19T22:59:00.000Z,2020-03-01T21:59:00.000Z,1,2020-03-04T10:05:30.000Z,,Closed,,20-00076239,Standard,153 RANDOLPH PLACE NW,398814.05,138406.07,38.91351898,-77.01367445,WASHINGTON,DC,20001,226949,5
-76.984520114133915,38.867745377181691,445,S0311,Rodent Inspection and Treatment,DOH- Department Of Health,DOH,1,2020-03-05T08:12:10.000Z,,2020-03-25T09:12:09.000Z,2020-03-05T08:12:10.000Z,,,,Open,,20-00080981,Standard,1404 T STREET SE,401343.59,133324.04,38.86773793,-76.98451784,WASHINGTON,DC,20020,64991,8
-77.030987818818772,38.915775480083759,446,S0311,Rodent Inspection and Treatment,DOH- Department Of Health,DOH,1,2020-03-05T08:12:18.000Z,,2020-03-25T09:12:18.000Z,2020-03-05T08:12:18.000Z,,,,Open,,20-00080983,Standard,1337 T STREET NW,397312.79,138656.1,38.91576802,-77.03098552,WASHINGTON,DC,20009,240374,1
-77.027280142648124,38.952641176052445,447,S0311,Rodent Inspection and Treatment,DOH- Department Of Health,DOH,1,2020-03-03T16:53:30.000Z,2020-03-09T09:22:53.000Z,2020-03-23T17:53:30.000Z,2020-03-03T16:53:30.000Z,1,2020-03-06T09:20:00.000Z,,Closed,,20-00079145,Standard,5121 GEORGIA AVENUE NW,397635.56,142748.41,38.95263371,-77.02727785,WASHINGTON,DC,20011,251741,4
-77.047316794685017,38.917249447308095,98,S0311,Rodent Inspection and Treatment,DOH- Department Of Health,DOH,1,2020-02-24T11:02:56.000Z,2020-02-26T13:11:02.000Z,2020-03-13T12:02:56.000Z,2020-02-24T11:02:56.000Z,1,2020-02-26T13:11:02.000Z,,Closed,,20-00068165,Standard,2016 CONNECTICUT AVENUE NW,395896.75,138820.33,38.91724199,-77.0473145,WASHINGTON,DC,20008,235002,2
-77.042302461570699,38.931686483884505,99,S0311,Rodent Inspection and Treatment,DOH- Department Of Health,DOH,1,2020-02-18T12:38:38.000Z,2020-02-21T08:28:22.000Z,2020-03-09T13:38:37.000Z,2020-02-18T12:38:38.000Z,1,2020-02-21T08:28:00.000Z,,Closed,,20-00061240,Standard,1825 LAMONT STREET NW,396332.35,140422.75,38.93167903,-77.04230016,WASHINGTON,DC,20010,233472,1
-77.033863463416466,38.927171385038633,100,S0311,Rodent Inspection and Treatment,DOH- Department Of Health,DOH,1,2020-02-23T16:27:30.000Z,2020-02-24T11:49:20.000Z,2020-03-12T17:27:30.000Z,2020-02-23T16:27:30.000Z,1,2020-02-24T11:49:20.000Z,,Closed,,20-00067498,Standard,1438 COLUMBIA ROAD NW,397063.87,139921.23,38.92716393,-77.03386117,WASHINGTON,DC,20009,277062,1
-77.039449632066876,38.901348168507603,101,S0311,Rodent Inspection and Treatment,DOH- Department Of Health,DOH,1,2020-02-18T15:41:05.000Z,2020-02-26T08:21:10.000Z,2020-03-09T16:41:05.000Z,2020-02-18T15:41:05.000Z,1,2020-02-25T11:20:00.000Z,,Closed,,20-00061798,Standard,I STREET NW AND 17TH STREET NW,396578.250010785,137054.833895227,38.9013403815435,-77.0394473361635,WASHINGTON,DC,20006,903596,2
-76.93248457039806,38.877169136805129,102,S0311,Rodent Inspection and Treatment,DOH- Department Of Health,DOH,1,2020-02-23T14:54:24.000Z,2020-03-04T09:22:17.000Z,2020-03-12T15:54:23.000Z,2020-02-23T14:54:24.000Z,1,2020-02-28T09:21:00.000Z,,Closed,,20-00067462,Standard,1163 46TH PLACE SE,405858.62,134372.2,38.87716135,-76.93248231,WASHINGTON,DC,20019,72583,7
-76.990519352845638,38.903113742307234,103,S0311,Rodent Inspection and Treatment,DOH- Department Of Health,DOH,1,2020-02-17T21:47:53.000Z,2020-02-21T14:41:41.000Z,2020-03-06T21:47:52.000Z,2020-02-17T21:47:53.000Z,1,2020-02-21T14:41:00.000Z,,Closed,,20-00060357,Standard,1130 FLORIDA AVENUE NE,400822.55,137250.13,38.90310629,-76.99051707,WASHINGTON,DC,20002,73159,5
-77.023216057355512,38.952845640741685,104,S0311,Rodent Inspection and Treatment,DOH- Department Of Health,DOH,1,2020-02-17T21:51:57.000Z,2020-02-21T08:15:06.000Z,2020-03-06T21:51:57.000Z,2020-02-17T21:51:57.000Z,1,2020-02-21T00:15:00.000Z,,Closed,,20-00060361,Standard,732 HAMILTON STREET NW,397987.84,142771.01,38.95283818,-77.02321376,WASHINGTON,DC,20011,250109,4
-77.076261332005515,38.965048727279232,105,S0311,Rodent Inspection and Treatment,DOH- Department Of Health,DOH,1,2020-02-18T10:41:52.000Z,2020-02-25T08:43:13.000Z,2020-03-09T11:41:52.000Z,2020-02-18T10:41:52.000Z,1,2020-02-25T08:43:00.000Z,,Closed,,20-00060891,Standard,3811 MCKINLEY STREET NW,393391.03,144128.17,38.96504126,-77.07625902,WASHINGTON,DC,20015,303168,3
-77.010458704081302,38.910231065362957,106,S0311,Rodent Inspection and Treatment,DOH- Department Of Health,DOH,1,2020-02-21T13:46:08.000Z,2020-02-28T10:48:36.000Z,2020-03-12T14:46:08.000Z,2020-02-21T13:46:08.000Z,1,2020-02-28T10:48:35.000Z,,Closed,,20-00065954,Standard,38 BATES STREET NW,399093.1,138040.22,38.91022361,-77.01045642,WASHINGTON,DC,20001,236829,5
-77.039393041300912,38.912018903747878,107,S0311,Rodent Inspection and Treatment,DOH- Department Of Health,DOH,1,2020-02-17T22:11:20.000Z,2020-03-03T08:35:11.000Z,2020-03-06T22:11:20.000Z,2020-02-17T22:11:20.000Z,1,2020-03-02T10:43:00.000Z,,Closed,,20-00060367,Standard,1721 CORCORAN STREET NW,396583.67,138239.37,38.91201145,-77.03939074,WASHINGTON,DC,20009,241700,2
-77.028631867911145,38.905463960177187,108,S0311,Rodent Inspection and Treatment,DOH- Department Of Health,DOH,1,2020-02-24T12:23:15.000Z,2020-03-03T08:05:26.000Z,2020-03-13T13:23:14.000Z,2020-02-24T12:23:15.000Z,1,2020-03-02T11:38:00.000Z,,Closed,,20-00068360,Standard,1208 M STREET NW,397516.75,137511.37,38.90545651,-77.02862958,WASHINGTON,DC,20005,240916,2
-77.01235099733951,38.952919900293544,109,S0311,Rodent Inspection and Treatment,DOH- Department Of Health,DOH,1,2020-02-23T11:56:06.000Z,2020-02-24T15:01:18.000Z,2020-03-12T12:56:06.000Z,2020-02-23T11:56:06.000Z,1,2020-02-24T10:02:00.000Z,,Closed,,20-00067371,Standard,5120 NEW HAMPSHIRE AVENUE NW,398929.62,142779.07,38.95291244,-77.01234871,WASHINGTON,DC,20011,259385,4
-76.984520513631082,38.904690374318157,110,S0311,Rodent Inspection and Treatment,DOH- Department Of Health,DOH,1,2020-02-24T08:13:18.000Z,2020-02-25T15:20:59.000Z,2020-03-13T09:13:18.000Z,2020-02-24T08:13:18.000Z,1,2020-02-25T15:20:00.000Z,,Closed,,20-00067789,Standard,1422 ORREN STREET NE,401342.86,137425.22,38.90468292,-76.98451823,WASHINGTON,DC,20002,64085,5
-77.04287479424697,38.923713195409185,111,S0311,Rodent Inspection and Treatment,DOH- Department Of Health,DOH,1,2020-02-24T18:54:38.000Z,2020-02-26T07:32:27.000Z,2020-03-13T19:54:38.000Z,2020-02-24T18:54:38.000Z,1,2020-02-25T10:31:00.000Z,,Closed,,20-00069091,Standard,1786 LANIER PLACE NW,396282.31,139537.67,38.92370574,-77.0428725,WASHINGTON,DC,20009,235899,1
-77.072124278553119,38.919139508513183,112,S0311,Rodent Inspection and Treatment,DOH- Department Of Health,DOH,1,2020-02-19T17:21:19.000Z,2020-02-24T15:25:46.000Z,2020-03-10T18:21:19.000Z,2020-02-19T17:21:19.000Z,1,2020-02-24T15:25:00.000Z,,Closed,,20-00063483,Standard,2216 HALL PLACE NW,393745.54,139031.55,38.91913205,-77.07212197,WASHINGTON,DC,20007,224618,3
-77.023302597063235,38.952183155195115,113,S0311,Rodent Inspection and Treatment,DOH- Department Of Health,DOH,1,2020-02-19T17:25:37.000Z,2020-02-20T15:47:44.000Z,2020-03-10T18:25:37.000Z,2020-02-19T17:25:37.000Z,1,2020-02-20T12:47:00.000Z,,Closed,,20-00063490,Standard,731 GALLATIN STREET NW,397980.32,142697.47,38.95217569,-77.0233003,WASHINGTON,DC,20011,250136,4
-77.040638493815948,38.923697058860192,114,S0311,Rodent Inspection and Treatment,DOH- Department Of Health,DOH,1,2020-02-24T15:54:01.000Z,2020-02-26T07:35:36.000Z,2020-03-13T16:54:01.000Z,2020-02-24T15:54:01.000Z,1,2020-02-26T07:32:00.000Z,,Closed,,20-00068827,Standard,1752 COLUMBIA ROAD NW,396476.23,139535.79,38.9236896,-77.0406362,WASHINGTON,DC,20009,235691,1
-77.024154678367552,38.939544540367031,115,S0311,Rodent Inspection and Treatment,DOH- Department Of Health,DOH,1,2020-02-18T10:49:14.000Z,2020-02-26T08:45:54.000Z,2020-03-09T11:49:14.000Z,2020-02-18T10:49:14.000Z,1,2020-02-26T14:08:00.000Z,,Closed,,20-00060918,Standard,822 SHEPHERD STREET NW,397906.09,141294.49,38.93953708,-77.02415239,WASHINGTON,DC,20011,252531,4
-77.071831603774754,38.919472456555859,116,S0311,Rodent Inspection and Treatment,DOH- Department Of Health,DOH,1,2020-02-19T17:26:54.000Z,2020-02-24T15:25:03.000Z,2020-03-10T18:26:53.000Z,2020-02-19T17:26:54.000Z,1,2020-02-24T15:24:00.000Z,,Closed,,20-00063491,Standard,2225 HALL PLACE NW,393770.95,139068.49,38.919465,-77.0718293,WASHINGTON,DC,20007,284301,3
-76.995047102418866,38.853735049618869,117,S0311,Rodent Inspection and Treatment,DOH- Department Of Health,DOH,1,2020-02-21T13:01:40.000Z,2020-02-21T15:40:08.000Z,2020-03-12T14:01:40.000Z,2020-02-21T13:01:40.000Z,,,,Voided,,20-00065858,Standard,2720 MARTIN LUTHER KING JR AVENUE SE,400430.11,131768.69,38.8537276,-76.99504482,WASHINGTON,DC,20032,301360,8
-77.015675886839773,38.942940309362491,118,S0311,Rodent Inspection and Treatment,DOH- Department Of Health,DOH,1,2020-02-18T16:01:27.000Z,2020-03-04T14:30:28.000Z,2020-03-09T17:01:26.000Z,2020-02-18T16:01:27.000Z,1,2020-03-04T10:51:00.000Z,,Closed,,20-00061833,Standard,4226 3RD STREET NW,398641.23,141671.29,38.94293285,-77.0156736,WASHINGTON,DC,20011,244126,4
-76.98053124633536,38.897155366425729,119,S0311,Rodent Inspection and Treatment,DOH- Department Of Health,DOH,1,2020-02-18T16:05:13.000Z,2020-02-24T08:36:49.000Z,2020-03-09T17:05:13.000Z,2020-02-18T16:05:13.000Z,1,2020-02-24T08:36:00.000Z,,Closed,,20-00061841,Standard,1661 ROSEDALE STREET NE,401689.06,136588.84,38.89714791,-76.98052897,WASHINGTON,DC,20002,58347,6
-77.019332126395128,38.931259061174195,120,S0311,Rodent Inspection and Treatment,DOH- Department Of Health,DOH,1,2020-02-22T09:58:36.000Z,2020-02-24T10:32:27.000Z,2020-03-12T10:58:36.000Z,2020-02-22T09:58:36.000Z,1,2020-02-24T10:32:26.000Z,,Closed,,20-00066715,Standard,432 LAMONT STREET NW,398323.99,140374.63,38.9312516,-77.01932984,WASHINGTON,DC,20010,229142,1
-77.001675377265968,38.914994951477418,121,S0311,Rodent Inspection and Treatment,DOH- Department Of Health,DOH,1,2020-02-19T10:05:01.000Z,2020-02-21T11:03:16.000Z,2020-03-10T11:05:01.000Z,2020-02-19T10:05:01.000Z,1,2020-02-21T11:03:16.000Z,,Closed,,20-00062581,Standard,306 SEATON PLACE NE,399854.9,138569,38.91498749,-77.00167309,WASHINGTON,DC,20002,41003,5
-77.032456855247005,38.938873213424181,122,S0311,Rodent Inspection and Treatment,DOH- Department Of Health,DOH,1,2020-02-23T09:34:00.000Z,2020-02-24T14:41:16.000Z,2020-03-12T10:34:00.000Z,2020-02-23T09:34:00.000Z,1,2020-02-24T11:12:00.000Z,,Closed,,20-00067314,Standard,3903 14TH STREET NW,397186.3,141220.19,38.93886575,-77.03245456,WASHINGTON,DC,20011,225129,4
-77.037181080735465,38.917954410796625,123,S0311,Rodent Inspection and Treatment,DOH- Department Of Health,DOH,1,2020-02-18T09:51:10.000Z,2020-02-21T07:45:20.000Z,2020-03-09T10:51:10.000Z,2020-02-18T09:51:10.000Z,1,2020-02-20T09:23:00.000Z,,Closed,,20-00060743,Standard,1608 V STREET NW,396775.78,138898.18,38.91794695,-77.03717878,WASHINGTON,DC,20009,241842,1
-77.022407608067851,38.933174668963723,124,S0311,Rodent Inspection and Treatment,DOH- Department Of Health,DOH,1,2020-02-17T07:37:15.000Z,2020-02-18T10:08:54.000Z,2020-03-06T07:37:15.000Z,2020-02-17T07:37:15.000Z,1,2020-02-18T10:08:51.000Z,,Closed,,20-00059713,Standard,613 PARK ROAD NW,398057.38,140587.34,38.93316721,-77.02240532,WASHINGTON,DC,20010,228760,1
-77.044390449507475,38.925010818663452,125,S0311,Rodent Inspection and Treatment,DOH- Department Of Health,DOH,1,2020-02-17T16:03:01.000Z,2020-02-24T09:07:57.000Z,2020-03-06T16:03:01.000Z,2020-02-17T16:03:01.000Z,1,2020-02-24T09:07:00.000Z,,Closed,,20-00060070,Standard,1860 CLYDESDALE PLACE NW,396150.95,139681.78,38.92500336,-77.04438815,WASHINGTON,DC,20009,236080,1
-76.981089637443119,38.894592667779449,126,S0311,Rodent Inspection and Treatment,DOH- Department Of Health,DOH,1,2020-02-24T11:35:38.000Z,2020-02-26T14:32:38.000Z,2020-03-13T12:35:38.000Z,2020-02-24T11:35:38.000Z,1,2020-02-26T14:31:00.000Z,,Closed,,20-00068242,Standard,1633 D STREET NE,401640.68,136304.35,38.89458488,-76.98108736,WASHINGTON,DC,20002,58888,6
-77.018313012497842,38.95805914522461,127,S0311,Rodent Inspection and Treatment,DOH- Department Of Health,DOH,1,2020-02-21T15:46:29.000Z,2020-02-24T14:57:56.000Z,2020-03-12T16:46:29.000Z,2020-02-21T15:46:29.000Z,1,2020-02-24T10:23:00.000Z,,Closed,,20-00066218,Standard,403 MISSOURI AVENUE NW,398412.95,143349.66,38.95805168,-77.01831072,WASHINGTON,DC,20011,248806,4
-77.026312641217729,38.960676950222947,128,S0311,Rodent Inspection and Treatment,DOH- Department Of Health,DOH,1,2020-02-23T19:01:23.000Z,2020-02-24T14:55:49.000Z,2020-03-12T20:01:23.000Z,2020-02-23T19:01:23.000Z,1,2020-02-24T10:36:00.000Z,,Closed,,20-00067577,Standard,903 MISSOURI AVENUE NW,397719.68,143640.43,38.96066949,-77.02631035,WASHINGTON,DC,20011,277533,4
-76.977889827474158,38.932342539068848,129,S0311,Rodent Inspection and Treatment,DOH- Department Of Health,DOH,1,2020-02-21T13:40:06.000Z,2020-02-25T07:34:37.000Z,2020-03-12T14:40:06.000Z,2020-02-21T13:40:06.000Z,1,2020-02-25T07:34:00.000Z,,Closed,,20-00065938,Standard,1916 LAWRENCE STREET NE,401917.25,140494.96,38.93233508,-76.97788755,WASHINGTON,DC,20018,54059,5
-77.06479301786554,38.908974108849087,130,S0311,Rodent Inspection and Treatment,DOH- Department Of Health,DOH,1,2020-02-21T13:59:57.000Z,2020-02-26T08:12:59.000Z,2020-03-12T14:59:57.000Z,2020-02-21T13:59:57.000Z,1,2020-02-25T14:25:00.000Z,,Closed,,20-00066003,Standard,3245 P STREET NW,394380.51,137902.63,38.90896666,-77.06479071,WASHINGTON,DC,20007,273664,2
-77.009433014790872,38.912020119372542,131,S0311,Rodent Inspection and Treatment,DOH- Department Of Health,DOH,1,2020-02-18T22:05:18.000Z,2020-02-21T08:42:45.000Z,2020-03-09T23:05:18.000Z,2020-02-18T22:05:18.000Z,1,2020-02-19T09:43:00.000Z,,Closed,,20-00062205,Standard,1626 NORTH CAPITOL STREET NW,399182.08,138238.81,38.91201266,-77.00943073,WASHINGTON,DC,20002,226712,5
-76.957252347481102,38.894301262307941,132,S0311,Rodent Inspection and Treatment,DOH- Department Of Health,DOH,1,2020-02-19T04:06:51.000Z,2020-02-24T15:27:58.000Z,2020-03-10T05:06:43.000Z,2020-02-19T04:06:51.000Z,1,2020-02-24T15:27:00.000Z,,Closed,,20-00062248,Standard,325 34TH STREET NE,403708.59,136272.7,38.89429381,-76.95725008,WASHINGTON,DC,20019,37571,7
-77.014574438283219,38.949915024569172,133,S0311,Rodent Inspection and Treatment,DOH- Department Of Health,DOH,1,2020-02-21T14:06:27.000Z,2020-02-26T15:21:48.000Z,2020-03-12T15:06:27.000Z,2020-02-21T14:06:27.000Z,1,2020-02-27T12:18:00.000Z,,Closed,,20-00066025,Standard,208 EMERSON STREET NW,398736.84,142445.53,38.94990756,-77.01457215,WASHINGTON,DC,20011,244555,4
-77.043164645410513,38.913891486162242,134,S0311,Rodent Inspection and Treatment,DOH- Department Of Health,DOH,1,2020-02-23T19:50:53.000Z,2020-02-25T15:41:53.000Z,2020-03-12T20:50:52.000Z,2020-02-23T19:50:53.000Z,1,2020-02-25T11:20:00.000Z,,Closed,,20-00067594,Standard,1739 19TH STREET NW,396256.66,138447.39,38.91388403,-77.04316235,WASHINGTON,DC,20009,241180,2
-77.010921259825921,38.907077381165344,135,S0311,Rodent Inspection and Treatment,DOH- Department Of Health,DOH,1,2020-02-18T15:52:24.000Z,2020-02-19T10:21:13.000Z,2020-03-09T16:52:24.000Z,2020-02-18T15:52:24.000Z,1,2020-02-19T10:21:12.000Z,,Closed,,20-00061822,Standard,10 N STREET NW,399052.94,137690.14,38.90706993,-77.01091897,WASHINGTON,DC,20001,237094,5
-77.048206600784567,38.90746701576645,136,S0311,Rodent Inspection and Treatment,DOH- Department Of Health,DOH,1,2020-02-19T15:14:48.000Z,2020-02-26T15:15:55.000Z,2020-03-10T16:14:48.000Z,2020-02-19T15:14:48.000Z,1,2020-02-27T00:24:00.000Z,,Closed,,20-00063296,Standard,2139 N STREET NW,395819.01,137734.44,38.90745956,-77.0482043,WASHINGTON,DC,20037,242401,2
-77.044432208527766,38.901156178104713,137,S0311,Rodent Inspection and Treatment,DOH- Department Of Health,DOH,1,2020-02-20T17:32:38.000Z,2020-02-26T08:24:08.000Z,2020-03-11T18:32:37.000Z,2020-02-20T17:32:38.000Z,1,2020-02-25T11:59:00.000Z,,Closed,,20-00065002,Standard,1920 I STREET NW,396146.04,137033.72,38.90114873,-77.04442991,WASHINGTON,DC,20006,241081,2
-76.983416297423815,38.89614336132756,138,S0311,Rodent Inspection and Treatment,DOH- Department Of Health,DOH,1,2020-02-23T19:57:22.000Z,2020-02-25T08:23:57.000Z,2020-03-12T20:57:22.000Z,2020-02-23T19:57:22.000Z,1,2020-02-25T08:23:00.000Z,,Closed,,20-00067596,Standard,445 15TH STREET NE,401438.81,136476.45,38.89613591,-76.98341402,WASHINGTON,DC,20002,21022,6
-77.028467278421672,38.936775139671703,139,S0311,Rodent Inspection and Treatment,DOH- Department Of Health,DOH,1,2020-02-24T17:11:55.000Z,2020-03-02T15:23:11.000Z,2020-03-13T18:11:55.000Z,2020-02-24T17:11:55.000Z,1,2020-02-28T10:14:00.000Z,,Closed,,20-00068985,Standard,1036 QUEBEC PLACE NW,397532.11,140987.17,38.93676768,-77.02846498,WASHINGTON,DC,20010,230100,4
-77.027324716017532,38.911822904789034,140,S0311,Rodent Inspection and Treatment,DOH- Department Of Health,DOH,1,2020-02-24T11:51:45.000Z,2020-03-03T08:13:15.000Z,2020-03-13T12:51:45.000Z,2020-02-24T11:51:45.000Z,1,2020-03-02T11:11:00.000Z,,Closed,,20-00068277,Standard,1618 11TH STREET NW,397630.34,138217.23,38.91181545,-77.02732242,WASHINGTON,DC,20001,242892,2
-77.005890820849601,38.89363336999466,141,S0311,Rodent Inspection and Treatment,DOH- Department Of Health,DOH,1,2020-02-20T09:02:55.000Z,2020-02-26T14:37:57.000Z,2020-03-11T10:02:55.000Z,2020-02-20T09:02:55.000Z,1,2020-02-26T14:36:00.000Z,,Closed,,20-00063874,Standard,1ST STREET NE AND C STREET NE,399489.159997482,136197.707014431,38.8936255833351,-77.005888535867,WASHINGTON,DC,20002,902163,6
-77.03389498169804,38.915355965476259,142,S0311,Rodent Inspection and Treatment,DOH- Department Of Health,DOH,1,2020-02-17T17:20:14.000Z,2020-02-26T15:17:04.000Z,2020-03-06T17:20:14.000Z,2020-02-17T17:20:14.000Z,1,2020-02-26T15:16:00.000Z,,Closed,,20-00060209,Standard,1452 T STREET NW,397060.65,138609.62,38.91534851,-77.03389269,WASHINGTON,DC,20009,240025,2
-77.062944350460825,38.907010398421384,143,S0311,Rodent Inspection and Treatment,DOH- Department Of Health,DOH,1,2020-02-20T10:21:12.000Z,2020-02-25T08:28:33.000Z,2020-03-11T11:21:12.000Z,2020-02-20T10:21:12.000Z,1,2020-02-21T10:30:00.000Z,,Closed,,20-00064044,Standard,1305 WISCONSIN AVENUE NW,394540.7,137684.53,38.90700295,-77.06294205,WASHINGTON,DC,20007,223432,2
-77.023608522854644,38.963599174890327,144,S0311,Rodent Inspection and Treatment,DOH- Department Of Health,DOH,1,2020-02-20T12:22:48.000Z,2020-02-21T14:50:24.000Z,2020-03-11T13:22:48.000Z,2020-02-20T12:22:48.000Z,1,2020-02-21T11:19:00.000Z,,Closed,,20-00064300,Standard,728 QUACKENBOS STREET NW,397954.13,143964.76,38.96359171,-77.02360623,WASHINGTON,DC,20011,250446,4
-77.032797788642512,38.96338733625101,145,S0311,Rodent Inspection and Treatment,DOH- Department Of Health,DOH,1,2020-02-20T02:33:40.000Z,2020-02-20T15:22:06.000Z,2020-03-11T03:33:40.000Z,2020-02-20T02:33:40.000Z,1,2020-02-20T10:27:00.000Z,,Closed,,20-00063705,Standard,1371 PEABODY STREET NW,397157.72,143941.49,38.96337987,-77.03279549,WASHINGTON,DC,20011,258185,4
-76.984896776677573,38.867313473175884,146,S0311,Rodent Inspection and Treatment,DOH- Department Of Health,DOH,1,2020-02-18T21:22:26.000Z,2020-02-21T10:27:23.000Z,2020-03-09T22:22:26.000Z,2020-02-18T21:22:26.000Z,1,2020-02-21T10:27:23.000Z,,Closed,,20-00062178,Standard,1906 14TH STREET SE,401310.91,133276.09,38.86730603,-76.9848945,WASHINGTON,DC,20020,54440,8
-77.026195652272108,38.964775281676062,147,S0311,Rodent Inspection and Treatment,DOH- Department Of Health,DOH,1,2020-02-23T10:49:01.000Z,2020-02-24T14:47:46.000Z,2020-03-12T11:49:01.000Z,2020-02-23T10:49:01.000Z,1,2020-02-24T10:50:00.000Z,,Closed,,20-00067341,Standard,900 RITTENHOUSE STREET NW,397729.95,144095.38,38.96476782,-77.02619336,WASHINGTON,DC,20011,254257,4
-77.031059565070692,38.90947890147195,148,S0311,Rodent Inspection and Treatment,DOH- Department Of Health,DOH,1,2020-02-19T22:41:50.000Z,2020-02-25T15:43:21.000Z,2020-03-10T23:41:50.000Z,2020-02-19T22:41:50.000Z,1,2020-02-25T10:01:00.000Z,,Closed,,20-00063677,Standard,1308 P STREET NW,397306.33,137957.13,38.90947145,-77.03105727,WASHINGTON,DC,20005,303384,2
-76.996508346784779,38.958329604420378,149,S0311,Rodent Inspection and Treatment,DOH- Department Of Health,DOH,1,2020-02-20T06:00:13.000Z,2020-02-24T08:55:23.000Z,2020-03-11T07:00:13.000Z,2020-02-20T06:00:13.000Z,1,2020-02-22T00:25:00.000Z,,Closed,,20-00063716,Standard,644 KENSINGTON PLACE NE,400302.83,143379.53,38.95832214,-76.99650606,WASHINGTON,DC,20011,1833,4
-77.025813088386968,38.927666015238799,150,S0311,Rodent Inspection and Treatment,DOH- Department Of Health,DOH,1,2020-02-18T09:53:24.000Z,2020-02-21T08:35:24.000Z,2020-03-09T10:53:24.000Z,2020-02-18T09:53:24.000Z,1,2020-02-21T08:35:00.000Z,,Closed,,20-00060755,Standard,2919 SHERMAN AVENUE NW,397761.94,139975.91,38.92765856,-77.0258108,WASHINGTON,DC,20001,232693,1
-77.03049717302035,38.916824629687817,151,S0311,Rodent Inspection and Treatment,DOH- Department Of Health,DOH,1,2020-02-18T15:14:14.000Z,2020-02-24T09:08:32.000Z,2020-03-09T16:14:14.000Z,2020-02-18T15:14:14.000Z,1,2020-02-24T09:08:00.000Z,,Closed,,20-00061743,Standard,1314 U STREET NW,397355.38,138772.55,38.91681684,-77.03049488,WASHINGTON,DC,20009,279044,1
-77.028790511166022,38.956025310594335,152,S0311,Rodent Inspection and Treatment,DOH- Department Of Health,DOH,1,2020-02-20T13:35:12.000Z,2020-02-25T08:04:49.000Z,2020-03-11T14:35:12.000Z,2020-02-20T13:35:12.000Z,1,2020-02-24T11:28:00.000Z,,Closed,,20-00064450,Standard,1218 KENNEDY STREET NW,397504.76,143124.12,38.95601785,-77.02878822,WASHINGTON,DC,20011,253041,4
-76.984804645145218,38.868694000154655,153,S0311,Rodent Inspection and Treatment,DOH- Department Of Health,DOH,1,2020-02-18T20:39:36.000Z,2020-02-21T10:43:31.000Z,2020-03-09T21:39:36.000Z,2020-02-18T20:39:36.000Z,1,2020-02-21T10:43:31.000Z,,Closed,,20-00062150,Standard,1405 RIDGE PLACE SE,401318.88,133429.34,38.86868655,-76.98480237,WASHINGTON,DC,20020,65028,8
-77.074995900033628,38.963312934520978,154,S0311,Rodent Inspection and Treatment,DOH- Department Of Health,DOH,1,2020-02-22T18:12:27.000Z,2020-02-24T15:27:48.000Z,2020-03-12T19:12:27.000Z,2020-02-22T18:12:27.000Z,1,2020-02-24T15:27:00.000Z,,Closed,,20-00067161,Standard,5502 CONNECTICUT AVENUE NW,393500.54,143935.39,38.96330547,-77.07499359,WASHINGTON,DC,20015,299967,3
-77.012949015703541,38.916468189510077,155,S0311,Rodent Inspection and Treatment,DOH- Department Of Health,DOH,1,2020-02-17T21:02:35.000Z,2020-02-24T11:51:12.000Z,2020-03-06T21:02:35.000Z,2020-02-17T21:02:35.000Z,1,2020-02-24T11:51:12.000Z,,Closed,,20-00060340,Standard,117 THOMAS STREET NW,398877.21,138732.62,38.91646073,-77.01294673,WASHINGTON,DC,20001,227517,5
-76.989776574160814,38.903006570337183,156,S0311,Rodent Inspection and Treatment,DOH- Department Of Health,DOH,1,2020-02-20T09:14:50.000Z,2020-02-21T14:39:43.000Z,2020-03-11T10:14:50.000Z,2020-02-20T09:14:50.000Z,1,2020-02-21T14:39:00.000Z,,Closed,,20-00063897,Standard,1111 MONTELLO AVENUE NE,400886.98,137238.24,38.90299912,-76.98977429,WASHINGTON,DC,20002,74130,5
-77.000800806833183,38.896909525837088,157,S0311,Rodent Inspection and Treatment,DOH- Department Of Health,DOH,1,2020-02-20T09:16:35.000Z,2020-02-24T08:34:00.000Z,2020-03-11T10:16:35.000Z,2020-02-20T09:16:35.000Z,1,2020-02-24T08:33:00.000Z,,Closed,,20-00063901,Standard,534 4TH STREET NE,399930.73,136561.37,38.89690207,-77.00079852,WASHINGTON,DC,20002,9855,6
-77.029427066502876,38.93322031583056,158,S0311,Rodent Inspection and Treatment,DOH- Department Of Health,DOH,1,2020-02-21T12:44:26.000Z,2020-02-24T11:20:56.000Z,2020-03-12T13:44:26.000Z,2020-02-21T12:44:26.000Z,1,2020-02-24T11:20:56.000Z,,Closed,,20-00065815,Standard,3517 13TH STREET NW,397448.77,140592.58,38.93321286,-77.02942477,WASHINGTON,DC,20010,230642,1
-77.023947569125014,38.965451832875608,159,S0311,Rodent Inspection and Treatment,DOH- Department Of Health,DOH,1,2020-02-24T13:03:14.000Z,2020-02-26T08:55:11.000Z,2020-03-13T14:03:14.000Z,2020-02-24T13:03:14.000Z,1,2020-02-25T11:26:00.000Z,,Closed,,20-00068434,Standard,6211 8TH STREET NW,397924.8,144170.43,38.96544437,-77.02394527,WASHINGTON,DC,20011,250551,4
-77.024669984333755,38.933706243794333,160,S0311,Rodent Inspection and Treatment,DOH- Department Of Health,DOH,1,2020-02-24T13:08:43.000Z,2020-02-27T07:18:50.000Z,2020-03-13T14:08:43.000Z,2020-02-24T13:08:43.000Z,1,2020-02-25T07:17:00.000Z,,Closed,,20-00068446,Standard,719 NEWTON PLACE NW,397861.24,140646.4,38.93369878,-77.02466769,WASHINGTON,DC,20010,232267,1
-77.026432672517728,38.928420863562863,161,S0311,Rodent Inspection and Treatment,DOH- Department Of Health,DOH,1,2020-02-24T13:33:05.000Z,2020-02-27T07:20:10.000Z,2020-03-13T14:33:05.000Z,2020-02-24T13:33:05.000Z,1,2020-03-03T10:05:04.000Z,,Closed,,20-00068491,Standard,3020 SHERMAN AVENUE NW,397708.24,140059.72,38.9284134,-77.02643038,WASHINGTON,DC,20001,231243,1
-77.062703947792699,38.912762446907777,162,S0311,Rodent Inspection and Treatment,DOH- Department Of Health,DOH,1,2020-02-24T09:24:26.000Z,2020-02-26T10:35:36.000Z,2020-03-13T10:24:26.000Z,2020-02-24T09:24:26.000Z,1,2020-02-26T10:35:35.000Z,,Closed,,20-00067933,Standard,1681 31ST STREET NW,394561.99,138323.04,38.91275499,-77.06270164,WASHINGTON,DC,20007,273065,2
-77.018668212346498,38.90944640606957,163,S0311,Rodent Inspection and Treatment,DOH- Department Of Health,DOH,1,2020-02-25T02:22:01.000Z,2020-02-26T14:31:01.000Z,2020-03-16T03:22:01.000Z,2020-02-25T02:22:01.000Z,1,2020-02-26T14:27:00.000Z,,Closed,,20-00069238,Standard,1427 5TH STREET NW,398381.06,137953.23,38.90943895,-77.01866592,WASHINGTON,DC,20001,237432,6
-77.018634619352142,38.949441873612379,164,S0311,Rodent Inspection and Treatment,DOH- Department Of Health,DOH,1,2020-02-18T10:26:27.000Z,2020-02-21T07:59:40.000Z,2020-03-09T11:26:27.000Z,2020-02-18T10:26:27.000Z,1,2020-02-20T13:39:00.000Z,,Closed,,20-00060847,Standard,435 DELAFIELD PLACE NW,398384.88,142393.07,38.94943441,-77.01863233,WASHINGTON,DC,20011,248362,4
-77.001349587738602,38.961053115653385,165,S0311,Rodent Inspection and Treatment,DOH- Department Of Health,DOH,1,2020-02-18T09:01:11.000Z,2020-02-21T08:04:55.000Z,2020-03-09T10:01:11.000Z,2020-02-18T09:01:11.000Z,1,2020-02-19T11:30:00.000Z,,Closed,,20-00060606,Standard,341 OGLETHORPE STREET NE,399883.23,143681.86,38.96104565,-77.0013473,WASHINGTON,DC,20011,35037,4
-77.042302461570699,38.931686483884505,166,S0311,Rodent Inspection and Treatment,DOH- Department Of Health,DOH,1,2020-02-21T08:35:08.000Z,2020-03-03T08:57:19.000Z,2020-03-12T09:35:08.000Z,2020-02-21T08:35:08.000Z,1,2020-03-03T08:57:00.000Z,,Closed,,20-00065328,Standard,1825 LAMONT STREET NW,396332.35,140422.75,38.93167903,-77.04230016,WASHINGTON,DC,20010,233472,1
-76.996624225108135,38.957473462574711,167,S0311,Rodent Inspection and Treatment,DOH- Department Of Health,DOH,1,2020-02-20T13:01:20.000Z,2020-02-24T08:47:00.000Z,2020-03-11T14:01:20.000Z,2020-02-20T13:01:20.000Z,1,2020-02-22T00:48:00.000Z,,Closed,,20-00064386,Standard,716 KENNEDY STREET NE,400292.79,143284.49,38.957466,-76.99662194,WASHINGTON,DC,20011,77377,4
-77.025034426955372,38.951056132358978,168,S0311,Rodent Inspection and Treatment,DOH- Department Of Health,DOH,1,2020-02-20T17:27:06.000Z,2020-02-26T08:53:06.000Z,2020-03-11T18:27:05.000Z,2020-02-20T17:27:06.000Z,1,2020-02-25T11:46:00.000Z,,Closed,,20-00064985,Standard,813 FARRAGUT STREET NW,397830.17,142572.4,38.95104867,-77.02503213,WASHINGTON,DC,20011,251805,4
-77.003038938891819,38.913836992340215,169,S0311,Rodent Inspection and Treatment,DOH- Department Of Health,DOH,1,2020-02-24T20:19:44.000Z,2020-02-26T08:19:41.000Z,2020-03-13T21:19:44.000Z,2020-02-24T20:19:44.000Z,1,2020-02-26T08:13:00.000Z,,Closed,,20-00069152,Standard,205 S STREET NE,399736.64,138440.46,38.9138292,-77.00303665,WASHINGTON,DC,20002,52227,5
-77.031355167628604,38.895010139724491,170,S0311,Rodent Inspection and Treatment,DOH- Department Of Health,DOH,1,2020-02-24T20:41:30.000Z,2020-02-26T15:48:31.000Z,2020-03-13T21:41:30.000Z,2020-02-24T20:41:30.000Z,1,2020-02-26T15:47:00.000Z,,Closed,,20-00069166,Standard,1350 PENNSYLVANIA AVENUE NW,397280.14,136350.99,38.89500269,-77.03135287,WASHINGTON,DC,20004,293203,2
-77.057006005060828,38.930895883345343,171,S0311,Rodent Inspection and Treatment,DOH- Department Of Health,DOH,1,2020-02-21T10:09:30.000Z,2020-02-24T15:30:54.000Z,2020-03-12T11:09:30.000Z,2020-02-21T10:09:30.000Z,1,2020-02-24T15:30:00.000Z,,Closed,,20-00065488,Standard,2718 CORTLAND PLACE NW,395057.42,140335.68,38.93088843,-77.0570037,WASHINGTON,DC,20008,219886,3
-77.023172519323296,38.911545894770704,172,S0311,Rodent Inspection and Treatment,DOH- Department Of Health,DOH,1,2020-02-22T10:29:30.000Z,2020-02-25T08:15:55.000Z,2020-03-12T11:29:29.000Z,2020-02-22T10:29:30.000Z,1,2020-02-25T08:15:00.000Z,,Closed,,20-00066747,Standard,1612 8TH STREET NW,397990.45,138186.38,38.91153844,-77.02317023,WASHINGTON,DC,20001,225821,6
-77.033952634737673,38.915355228070524,173,S0311,Rodent Inspection and Treatment,DOH- Department Of Health,DOH,1,2020-02-20T13:39:28.000Z,2020-02-26T15:27:25.000Z,2020-03-11T14:39:28.000Z,2020-02-20T13:39:28.000Z,1,2020-02-27T00:20:00.000Z,,Closed,,20-00064460,Standard,1454 T STREET NW,397055.65,138609.54,38.91534777,-77.03395034,WASHINGTON,DC,20009,240024,2
-77.040604825033114,38.923300344040619,174,S0311,Rodent Inspection and Treatment,DOH- Department Of Health,DOH,1,2020-02-20T13:42:41.000Z,2020-02-25T08:09:06.000Z,2020-03-11T14:42:41.000Z,2020-02-20T13:42:41.000Z,1,2020-02-24T08:07:00.000Z,,Closed,,20-00064473,Standard,1757 EUCLID STREET NW,396479.13,139491.75,38.92329289,-77.04060253,WASHINGTON,DC,20009,235699,1
-76.996932617481647,38.879783298954955,175,S0311,Rodent Inspection and Treatment,DOH- Department Of Health,DOH,1,2020-02-22T10:32:01.000Z,2020-02-25T08:37:34.000Z,2020-03-12T11:32:01.000Z,2020-02-22T10:32:01.000Z,1,2020-02-25T08:37:00.000Z,,Closed,,20-00066749,Standard,643 1/2 I STREET SE,400266.35,134660.23,38.87977585,-76.99693034,WASHINGTON,DC,20003,289985,6
-77.01155927726424,38.909822703492836,176,S0311,Rodent Inspection and Treatment,DOH- Department Of Health,DOH,1,2020-02-22T17:11:42.000Z,2020-02-24T11:17:53.000Z,2020-03-12T18:11:42.000Z,2020-02-22T17:11:42.000Z,1,2020-02-24T11:17:53.000Z,,Closed,,20-00067126,Standard,77 P STREET NW,398997.64,137994.9,38.90981525,-77.01155699,WASHINGTON,DC,20001,236888,5
-77.07647792202431,38.965809062452649,177,S0311,Rodent Inspection and Treatment,DOH- Department Of Health,DOH,1,2020-02-24T13:35:13.000Z,2020-02-25T08:42:07.000Z,2020-03-13T14:35:13.000Z,2020-02-24T13:35:13.000Z,1,2020-02-25T08:41:00.000Z,,Closed,,20-00068500,Standard,5632 CONNECTICUT AVENUE NW,393372.33,144212.59,38.9658016,-77.07647561,WASHINGTON,DC,20015,263853,3
-76.952125412669758,38.900580266578849,178,S0311,Rodent Inspection and Treatment,DOH- Department Of Health,DOH,1,2020-02-24T20:58:46.000Z,2020-02-28T09:03:18.000Z,2020-03-13T21:58:45.000Z,2020-02-24T20:58:46.000Z,1,2020-02-26T10:02:00.000Z,,Closed,,20-00069175,Standard,663 ANACOSTIA AVENUE NE,404152.99,136969.94,38.90057248,-76.95212314,WASHINGTON,DC,20019,310573,7
-76.999522464347933,38.877011129025099,179,S0311,Rodent Inspection and Treatment,DOH- Department Of Health,DOH,1,2020-03-07T17:01:37.000Z,2020-03-12T07:53:55.000Z,2020-03-26T18:01:37.000Z,2020-03-07T17:01:37.000Z,1,2020-03-12T07:52:00.000Z,,Closed,,20-00083861,Standard,1100 - 1199 BLOCK OF 5TH STREET SE,400041.634653996,134352.49378943,38.8770033454819,-76.9995201823619,WASHINGTON,DC,20003,815204,6
-76.990579876274353,38.89265260464439,180,S0311,Rodent Inspection and Treatment,DOH- Department Of Health,DOH,1,2020-02-21T15:09:18.000Z,2020-02-25T08:23:01.000Z,2020-03-12T16:09:18.000Z,2020-02-21T15:09:18.000Z,1,2020-02-25T08:21:00.000Z,,Closed,,20-00066157,Standard,1131 PARK STREET NE,400817.42,136088.86,38.89264515,-76.9905776,WASHINGTON,DC,20002,73186,6
-76.95217980118602,38.900617583466243,181,S0311,Rodent Inspection and Treatment,DOH- Department Of Health,DOH,1,2020-02-21T15:09:43.000Z,2020-02-24T15:39:27.000Z,2020-03-12T16:09:43.000Z,2020-02-21T15:09:43.000Z,1,2020-02-24T15:38:00.000Z,,Closed,,20-00066158,Standard,665 ANACOSTIA AVENUE NE,404148.27,136974.08,38.90060979,-76.95217753,WASHINGTON,DC,20019,310572,7
-76.95217980118602,38.900617583466243,182,S0311,Rodent Inspection and Treatment,DOH- Department Of Health,DOH,1,2020-02-24T21:26:49.000Z,2020-02-26T15:47:06.000Z,2020-03-13T22:26:49.000Z,2020-02-24T21:26:49.000Z,1,2020-02-26T15:45:00.000Z,,Closed,,20-00069186,Standard,665 ANACOSTIA AVENUE NE,404148.27,136974.08,38.90060979,-76.95217753,WASHINGTON,DC,20019,310572,7
-77.047476948795065,38.908052677067168,183,S0311,Rodent Inspection and Treatment,DOH- Department Of Health,DOH,1,2020-02-24T10:17:27.000Z,2020-02-25T15:40:22.000Z,2020-03-13T11:17:27.000Z,2020-02-24T10:17:27.000Z,1,2020-02-25T11:46:00.000Z,,Closed,,20-00068073,Standard,2123 NEWPORT PLACE NW,395882.33,137799.42,38.90804522,-77.04747465,WASHINGTON,DC,20037,242432,2
-77.021208817560009,38.942892953573406,184,S0311,Rodent Inspection and Treatment,DOH- Department Of Health,DOH,1,2020-02-21T11:32:26.000Z,2020-02-26T08:50:13.000Z,2020-03-12T12:32:26.000Z,2020-02-21T11:32:26.000Z,1,2020-02-26T00:37:00.000Z,,Closed,,20-00065671,Standard,556 VARNUM STREET NW,398161.57,141666.13,38.94288549,-77.02120652,WASHINGTON,DC,20011,247502,4
-76.985862489090223,38.909317863037231,185,S0311,Rodent Inspection and Treatment,DOH- Department Of Health,DOH,1,2020-02-24T12:43:06.000Z,2020-02-27T08:16:03.000Z,2020-03-13T13:43:06.000Z,2020-02-24T12:43:06.000Z,1,2020-02-27T08:15:00.000Z,,Closed,,20-00068396,Standard,1708 MONTELLO AVENUE NE,401226.38,137938.89,38.90931041,-76.98586021,WASHINGTON,DC,20002,57595,5
-77.007647786715822,38.925838486490669,186,S0311,Rodent Inspection and Treatment,DOH- Department Of Health,DOH,1,2020-02-18T14:32:37.000Z,2020-02-21T08:13:33.000Z,2020-03-09T15:32:37.000Z,2020-02-18T14:32:37.000Z,1,2020-02-21T08:12:00.000Z,,Closed,,20-00061633,Standard,23 GIRARD STREET NE,399337.04,139772.75,38.92583103,-77.0076455,WASHINGTON,DC,20002,49112,5
-76.976898895432612,38.848973802902066,187,S0311,Rodent Inspection and Treatment,DOH- Department Of Health,DOH,1,2020-02-21T09:32:57.000Z,2020-03-02T09:13:50.000Z,2020-03-12T10:32:57.000Z,2020-02-21T09:32:57.000Z,1,2020-02-28T10:50:00.000Z,,Closed,,20-00065416,Standard,1904 SAVANNAH PLACE SE,402005.51,131240.4,38.84896636,-76.97689662,WASHINGTON,DC,20020,54397,8
-77.022749911067535,38.951567368422467,188,S0311,Rodent Inspection and Treatment,DOH- Department Of Health,DOH,1,2020-03-08T00:38:34.000Z,2020-03-10T08:39:04.000Z,2020-03-26T01:38:34.000Z,2020-03-08T00:38:34.000Z,1,2020-03-09T11:38:00.000Z,,Closed,,20-00084001,Standard,5021 7TH PLACE NW,398028.21,142629.1,38.9515599,-77.02274762,WASHINGTON,DC,20011,250066,4
-77.019977098450568,38.9297295218228,189,S0311,Rodent Inspection and Treatment,DOH- Department Of Health,DOH,1,2020-03-13T14:43:45.000Z,,2020-04-02T14:43:45.000Z,2020-03-13T14:43:45.000Z,,,,Open,,20-00092304,Standard,3114 WARDER STREET NW,398268.03,140204.85,38.92972173,-77.01997481,WASHINGTON,DC,20010,229283,1
-77.076334777571304,38.923198328892965,190,S0311,Rodent Inspection and Treatment,DOH- Department Of Health,DOH,1,2020-03-02T09:20:14.000Z,,2020-03-20T10:20:14.000Z,2020-03-02T09:20:14.000Z,,,,Open,,20-00076517,Standard,3814 DAVIS PLACE NW,393380.78,139482.41,38.92319087,-77.07633247,WASHINGTON,DC,20007,299914,3
-76.990293974241055,38.843737365381173,191,S0311,Rodent Inspection and Treatment,DOH- Department Of Health,DOH,1,2020-03-09T15:01:03.000Z,,2020-03-27T15:01:03.000Z,2020-03-09T15:01:03.000Z,,,,Open,,20-00085513,Standard,3216 12TH STREET SE,400842.8,130658.91,38.84372992,-76.9902917,WASHINGTON,DC,20032,38423,8
-76.989281543701949,38.902165235595128,192,S0311,Rodent Inspection and Treatment,DOH- Department Of Health,DOH,1,2020-03-11T11:42:27.000Z,2020-03-16T08:45:41.000Z,2020-03-31T11:42:27.000Z,2020-03-11T11:42:27.000Z,1,2020-03-16T08:45:40.000Z,,Closed,,20-00088380,Standard,1207 FLORIDA AVENUE NE,400929.93,137144.85,38.90215778,-76.98927926,WASHINGTON,DC,20002,71855,6
-77.018913834601165,38.932200768047508,193,S0311,Rodent Inspection and Treatment,DOH- Department Of Health,DOH,1,2020-02-20T21:25:21.000Z,2020-02-24T10:33:34.000Z,2020-03-11T22:25:21.000Z,2020-02-20T21:25:21.000Z,1,2020-02-24T10:50:18.000Z,,Closed,,20-00065185,Standard,435 LURAY PLACE NW,398360.28,140479.16,38.93219331,-77.01891154,WASHINGTON,DC,20010,229046,1
-77.023622930257901,38.962159472871704,194,S0311,Rodent Inspection and Treatment,DOH- Department Of Health,DOH,1,2020-02-26T09:39:18.000Z,2020-03-04T08:24:29.000Z,2020-03-17T10:39:18.000Z,2020-02-26T09:39:18.000Z,1,2020-02-27T11:45:00.000Z,,Closed,,20-00071099,Standard,721 ONEIDA PLACE NW,397952.84,143804.94,38.96215201,-77.02362064,WASHINGTON,DC,20011,250420,4
-77.018066041007799,38.910914680630306,195,S0311,Rodent Inspection and Treatment,DOH- Department Of Health,DOH,1,2020-03-11T13:52:51.000Z,,2020-03-31T13:52:51.000Z,2020-03-11T13:52:51.000Z,,,,Open,,20-00088724,Standard,440 Q STREET NW,398433.32,138116.21,38.91090723,-77.01806375,WASHINGTON,DC,20001,218221,6
-77.026752911540967,38.91636278888781,196,S0311,Rodent Inspection and Treatment,DOH- Department Of Health,DOH,1,2020-03-03T14:59:41.000Z,2020-03-05T08:26:39.000Z,2020-03-23T15:59:41.000Z,2020-03-03T14:59:41.000Z,1,2020-03-05T08:24:00.000Z,,Closed,,20-00078956,Standard,1921 11TH STREET NW,397680.08,138721.18,38.91635533,-77.02675062,WASHINGTON,DC,20001,239205,1
-76.994207699261082,38.950352421050567,197,S0311,Rodent Inspection and Treatment,DOH- Department Of Health,DOH,1,2020-03-11T23:00:03.000Z,,2020-03-31T23:00:03.000Z,2020-03-11T23:00:03.000Z,,,,Open,,20-00089401,Standard,5030 SOUTH DAKOTA AVENUE NE,400502.29,142494,38.95034496,-76.99420541,WASHINGTON,DC,20017,14509,5
-77.020491407258731,38.940745775306546,198,S0311,Rodent Inspection and Treatment,DOH- Department Of Health,DOH,1,2020-03-04T16:19:19.000Z,2020-03-11T08:24:58.000Z,2020-03-24T17:19:19.000Z,2020-03-04T16:19:19.000Z,1,2020-03-11T00:24:00.000Z,,Closed,,20-00080597,Standard,536 TAYLOR STREET NW,398223.71,141427.76,38.94073831,-77.02048911,WASHINGTON,DC,20011,247648,4
-77.05789902791561,38.905624460353096,199,S0311,Rodent Inspection and Treatment,DOH- Department Of Health,DOH,1,2020-03-09T16:06:05.000Z,2020-03-13T15:37:51.000Z,2020-03-27T16:06:05.000Z,2020-03-09T16:06:05.000Z,1,2020-03-14T00:38:00.000Z,,Closed,,20-00085678,Standard,1211 29TH STREET NW,394978.21,137530.39,38.90561701,-77.05789673,WASHINGTON,DC,20007,272098,2
-77.034841509629956,38.915775925913742,200,S0311,Rodent Inspection and Treatment,DOH- Department Of Health,DOH,1,2020-02-26T21:25:38.000Z,2020-03-02T08:39:44.000Z,2020-03-17T22:25:38.000Z,2020-02-26T21:25:38.000Z,1,2020-02-28T10:55:00.000Z,,Closed,,20-00072337,Standard,1503 T STREET NW,396978.58,138656.27,38.91576847,-77.03483921,WASHINGTON,DC,20009,242069,2
-77.029460886636627,38.968453472684821,201,S0311,Rodent Inspection and Treatment,DOH- Department Of Health,DOH,1,2020-03-07T21:25:01.000Z,2020-03-09T14:24:05.000Z,2020-03-26T22:25:01.000Z,2020-03-07T21:25:01.000Z,1,2020-03-10T00:03:00.000Z,,Closed,,20-00083960,Standard,6421 13TH STREET NW,397447.1,144503.78,38.96844601,-77.02945859,WASHINGTON,DC,20012,253273,4
-77.038481662086866,38.915582879335354,202,S0311,Rodent Inspection and Treatment,DOH- Department Of Health,DOH,1,2020-03-11T14:20:53.000Z,2020-03-13T11:01:34.000Z,2020-03-31T14:20:53.000Z,2020-03-11T14:20:53.000Z,1,2020-03-13T11:01:33.000Z,,Closed,,20-00088794,Standard,17TH STREET NW AND T STREET NW,396662.879994862,138634.967016689,38.9155750894654,-77.0384793656147,WASHINGTON,DC,20009,904108,2
-77.010877513746991,38.912797323470365,203,S0311,Rodent Inspection and Treatment,DOH- Department Of Health,DOH,1,2020-03-13T17:15:41.000Z,,2020-04-02T17:15:41.000Z,2020-03-13T17:15:41.000Z,,,,Open,,20-00092591,Standard,53 R STREET NW,399056.81,138325.1,38.91278987,-77.01087523,WASHINGTON,DC,20001,226876,5
-77.05789902791561,38.905624460353096,204,S0311,Rodent Inspection and Treatment,DOH- Department Of Health,DOH,1,2020-03-09T16:13:30.000Z,,2020-03-27T16:13:29.000Z,2020-03-09T16:13:30.000Z,,,,Open,,20-00085696,Standard,1211 29TH STREET NW,394978.21,137530.39,38.90561701,-77.05789673,WASHINGTON,DC,20007,272098,2
-77.020236515113922,38.935557130751512,205,S0311,Rodent Inspection and Treatment,DOH- Department Of Health,DOH,1,2020-02-29T20:38:00.000Z,2020-03-03T09:35:29.000Z,2020-03-19T21:38:00.000Z,2020-02-29T20:38:00.000Z,1,2020-03-03T09:35:28.000Z,,Closed,,20-00075789,Standard,626 PRINCETON PLACE NW,398245.68,140851.77,38.93554967,-77.02023422,WASHINGTON,DC,20010,228526,1
-77.010935164788691,38.91279551642031,206,S0311,Rodent Inspection and Treatment,DOH- Department Of Health,DOH,1,2020-03-13T17:17:12.000Z,,2020-04-02T17:17:12.000Z,2020-03-13T17:17:12.000Z,,,,Open,,20-00092596,Standard,55 R STREET NW,399051.81,138324.9,38.91278806,-77.01093288,WASHINGTON,DC,20001,226868,5
-76.994710750225025,38.882572937777915,207,S0311,Rodent Inspection and Treatment,DOH- Department Of Health,DOH,1,2020-02-18T08:38:56.000Z,2020-02-24T08:37:31.000Z,2020-03-09T09:38:56.000Z,2020-02-18T08:38:56.000Z,1,2020-02-24T08:37:00.000Z,,Closed,,20-00060560,Standard,500 8TH STREET SE,400459.12,134969.91,38.88256549,-76.99470847,WASHINGTON,DC,20003,152398,6
-77.040738145589827,38.922916002572357,208,S0311,Rodent Inspection and Treatment,DOH- Department Of Health,DOH,1,2020-02-27T12:46:21.000Z,2020-03-03T15:22:14.000Z,2020-03-18T13:46:20.000Z,2020-02-27T12:46:21.000Z,1,2020-03-03T15:22:00.000Z,,Closed,,20-00073189,Standard,1750 EUCLID STREET NW,396467.55,139449.09,38.92290855,-77.04073585,WASHINGTON,DC,20009,238053,1
-76.99139632662677,38.951990943159863,209,S0311,Rodent Inspection and Treatment,DOH- Department Of Health,DOH,1,2020-02-20T15:35:14.000Z,2020-02-21T08:18:16.000Z,2020-03-11T16:35:14.000Z,2020-02-20T15:35:14.000Z,1,2020-02-21T08:14:00.000Z,,Closed,,20-00064768,Standard,5047 11TH STREET NE,400745.97,142675.91,38.95198348,-76.99139404,WASHINGTON,DC,20017,14160,5
-77.038443679332687,38.933891789225981,210,S0311,Rodent Inspection and Treatment,DOH- Department Of Health,DOH,1,2020-02-27T14:08:50.000Z,2020-03-03T08:53:51.000Z,2020-03-18T15:08:50.000Z,2020-02-27T14:08:50.000Z,1,2020-03-03T08:53:00.000Z,,Closed,,20-00073346,Standard,1650 NEWTON STREET NW,396667.03,140667.41,38.93388433,-77.03844138,WASHINGTON,DC,20010,233635,1
-77.042962577193748,38.909158860368144,211,S0311,Rodent Inspection and Treatment,DOH- Department Of Health,DOH,1,2020-03-06T16:25:07.000Z,2020-03-12T08:21:24.000Z,2020-03-26T17:25:07.000Z,2020-03-06T16:25:07.000Z,1,2020-03-11T10:45:00.000Z,,Closed,,20-00083207,Standard,DUPONT CIRCLE NW AND CONNECTICUT AVENUE NW,396273.937500004,137922.021402616,38.9091510719604,-77.0429602797191,WASHINGTON,DC,20036,913887,2
-77.02724715745903,38.930937959091771,212,S0311,Rodent Inspection and Treatment,DOH- Department Of Health,DOH,1,2020-03-13T12:36:51.000Z,,2020-04-02T12:36:51.000Z,2020-03-13T12:36:51.000Z,,,,Open,,20-00091966,Standard,1017 LAMONT STREET NW,397637.7,140339.16,38.9309305,-77.02724486,WASHINGTON,DC,20010,230977,1
-76.989816592107019,38.899681678912089,213,S0311,Rodent Inspection and Treatment,DOH- Department Of Health,DOH,1,2020-03-05T16:50:11.000Z,2020-03-16T08:52:04.000Z,2020-03-25T17:50:11.000Z,2020-03-05T16:50:11.000Z,1,2020-03-16T08:52:03.000Z,,Closed,,20-00081965,Standard,1200 LINDEN PLACE NE,400883.55,136869.15,38.89967422,-76.98981431,WASHINGTON,DC,20002,72292,6
-77.010640804210396,38.907433957486042,214,S0311,Rodent Inspection and Treatment,DOH- Department Of Health,DOH,1,2020-03-09T15:28:42.000Z,2020-03-11T11:06:16.000Z,2020-03-27T15:28:42.000Z,2020-03-09T15:28:42.000Z,1,2020-03-11T11:06:16.000Z,,Closed,,20-00085592,Standard,33 N STREET NW,399077.27,137729.72,38.9074265,-77.01063852,WASHINGTON,DC,20001,237051,5
-77.021808904331365,38.932808504507342,215,S0311,Rodent Inspection and Treatment,DOH- Department Of Health,DOH,1,2020-02-25T16:40:05.000Z,2020-02-27T07:15:43.000Z,2020-03-16T17:40:05.000Z,2020-02-25T16:40:05.000Z,1,2020-03-03T10:03:34.000Z,,Closed,,20-00070514,Standard,600 PARK ROAD NW,398109.28,140546.68,38.93280104,-77.02180661,WASHINGTON,DC,20010,228844,1
-77.02028601592292,38.935222734010871,216,S0311,Rodent Inspection and Treatment,DOH- Department Of Health,DOH,1,2020-03-01T23:10:04.000Z,2020-03-03T09:34:31.000Z,2020-03-20T00:10:04.000Z,2020-03-01T23:10:04.000Z,1,2020-03-03T09:34:31.000Z,,Closed,,20-00076261,Standard,625 OTIS PLACE NW,398241.38,140814.65,38.93521527,-77.02028372,WASHINGTON,DC,20010,228545,1
-77.053877899563943,38.900884204898318,217,S0311,Rodent Inspection and Treatment,DOH- Department Of Health,DOH,1,2020-02-18T11:43:26.000Z,2020-02-26T11:35:16.000Z,2020-03-09T12:43:25.000Z,2020-02-18T11:43:26.000Z,1,2020-02-26T11:35:16.000Z,,Closed,,20-00061075,Standard,2509 I STREET NW,395326.68,137003.97,38.90087675,-77.0538756,WASHINGTON,DC,20037,273916,2
-76.997979275148026,38.893290669494903,218,S0311,Rodent Inspection and Treatment,DOH- Department Of Health,DOH,1,2020-03-05T20:54:51.000Z,2020-03-16T08:51:18.000Z,2020-03-25T21:54:51.000Z,2020-03-05T20:54:51.000Z,1,2020-03-16T08:51:18.000Z,,Closed,,20-00082160,Standard,606 MASSACHUSETTS AVENUE NE,400175.5,136159.65,38.89328322,-76.99797699,WASHINGTON,DC,20002,5262,6
-77.072092381888012,38.914279170722409,219,S0311,Rodent Inspection and Treatment,DOH- Department Of Health,DOH,1,2020-03-11T14:44:18.000Z,2020-03-13T15:47:29.000Z,2020-03-31T14:44:18.000Z,2020-03-11T14:44:18.000Z,1,2020-03-13T10:50:00.000Z,,Closed,,20-00088857,Standard,3624 S STREET NW,393747.88,138492.01,38.91427172,-77.07209008,WASHINGTON,DC,20007,270449,2
-77.027244182259636,38.955446900052912,220,S0311,Rodent Inspection and Treatment,DOH- Department Of Health,DOH,1,2020-02-20T14:14:03.000Z,2020-02-21T14:52:01.000Z,2020-03-11T15:14:02.000Z,2020-02-20T14:14:03.000Z,1,2020-02-21T10:47:00.000Z,,Closed,,20-00064561,Standard,5402 ILLINOIS AVENUE NW,397638.77,143059.87,38.95543944,-77.02724189,WASHINGTON,DC,20011,254602,4
-77.002509681512677,38.913537117345278,221,S0311,Rodent Inspection and Treatment,DOH- Department Of Health,DOH,1,2020-03-09T16:39:35.000Z,2020-03-11T07:56:55.000Z,2020-03-27T16:39:34.000Z,2020-03-09T16:39:35.000Z,1,2020-03-11T07:56:00.000Z,,Closed,,20-00085757,Standard,228 RANDOLPH PLACE NE,399782.54,138407.17,38.91352966,-77.0025074,WASHINGTON,DC,20002,49256,5
-77.002662471516572,38.913869701797331,222,S0311,Rodent Inspection and Treatment,DOH- Department Of Health,DOH,1,2020-03-09T16:41:46.000Z,2020-03-11T07:54:32.000Z,2020-03-27T16:41:46.000Z,2020-03-09T16:41:46.000Z,1,2020-03-11T07:54:00.000Z,,Closed,,20-00085762,Standard,219 S STREET NE,399769.29,138444.09,38.91386225,-77.00266019,WASHINGTON,DC,20002,50842,5
-77.002507271589863,38.913862768813388,223,S0311,Rodent Inspection and Treatment,DOH- Department Of Health,DOH,1,2020-03-09T16:43:18.000Z,2020-03-11T07:53:10.000Z,2020-03-27T16:43:17.000Z,2020-03-09T16:43:18.000Z,1,2020-03-11T07:52:00.000Z,,Closed,,20-00085766,Standard,229 S STREET NE,399782.75,138443.32,38.91385531,-77.00250499,WASHINGTON,DC,20002,49078,5
-77.002568140555937,38.913537116073989,224,S0311,Rodent Inspection and Treatment,DOH- Department Of Health,DOH,1,2020-03-09T16:45:47.000Z,2020-03-11T07:56:07.000Z,2020-03-27T16:45:47.000Z,2020-03-09T16:45:47.000Z,1,2020-03-11T07:55:00.000Z,,Closed,,20-00085773,Standard,226 RANDOLPH PLACE NE,399777.47,138407.17,38.91352966,-77.00256586,WASHINGTON,DC,20002,49352,5
-77.039713471728319,38.917209579373704,243,S0311,Rodent Inspection and Treatment,DOH- Department Of Health,DOH,1,2020-02-17T11:03:02.000Z,2020-02-21T08:27:22.000Z,2020-03-06T11:03:02.000Z,2020-02-17T11:03:02.000Z,1,2020-02-21T08:21:00.000Z,,Closed,,20-00059809,Standard,1735 U STREET NW,396556.13,138815.59,38.91720212,-77.03971117,WASHINGTON,DC,20009,241352,1
-77.02626757050281,38.954845551460252,244,S0311,Rodent Inspection and Treatment,DOH- Department Of Health,DOH,1,2020-03-12T16:05:59.000Z,2020-03-13T14:33:40.000Z,2020-04-01T16:05:59.000Z,2020-03-12T16:05:59.000Z,1,2020-03-13T10:30:00.000Z,,Closed,,20-00090786,Standard,5323 ILLINOIS AVENUE NW,397723.4,142993.09,38.95483809,-77.02626528,WASHINGTON,DC,20011,254662,4
-77.025497421548593,38.936646466120365,245,S0311,Rodent Inspection and Treatment,DOH- Department Of Health,DOH,1,2020-02-18T13:49:33.000Z,2020-02-24T08:30:08.000Z,2020-03-09T14:49:32.000Z,2020-02-18T13:49:33.000Z,1,2020-02-21T10:24:00.000Z,,Closed,,20-00061505,Standard,3724 9TH STREET NW,397789.59,140972.81,38.93663901,-77.02549513,WASHINGTON,DC,20010,230127,4
-77.025492443161895,38.936594128984993,246,S0311,Rodent Inspection and Treatment,DOH- Department Of Health,DOH,1,2020-02-18T13:52:33.000Z,2020-02-24T08:32:58.000Z,2020-03-09T14:52:33.000Z,2020-02-18T13:52:33.000Z,1,2020-02-21T10:24:00.000Z,,Closed,,20-00061515,Standard,3722 9TH STREET NW,397790.02,140967,38.93658667,-77.02549015,WASHINGTON,DC,20010,230128,4
-77.073192736538019,38.918209904892812,247,S0311,Rodent Inspection and Treatment,DOH- Department Of Health,DOH,1,2020-02-18T18:06:04.000Z,2020-02-24T15:32:17.000Z,2020-03-09T19:06:04.000Z,2020-02-18T18:06:04.000Z,1,2020-02-24T15:31:00.000Z,,Closed,,20-00062037,Standard,2056 37TH STREET NW,393652.8,138928.43,38.91820245,-77.07319043,WASHINGTON,DC,20007,270280,3
-76.926465412020164,38.904031188298255,248,S0311,Rodent Inspection and Treatment,DOH- Department Of Health,DOH,1,2020-03-02T15:22:43.000Z,2020-03-09T09:18:01.000Z,2020-03-20T16:22:43.000Z,2020-03-02T15:22:43.000Z,1,2020-03-06T10:10:00.000Z,,Closed,,20-00077400,Standard,1014 51ST STREET NE,406378.51,137354.5,38.90402373,-76.92646315,WASHINGTON,DC,20019,75737,7
-76.955859256211369,38.890234724660864,249,S0311,Rodent Inspection and Treatment,DOH- Department Of Health,DOH,1,2020-03-13T07:21:18.000Z,,2020-04-02T07:21:18.000Z,2020-03-13T07:21:18.000Z,,,,Open,,20-00091293,Standard,10 35TH STREET NE,403829.66,135821.34,38.89022727,-76.95585699,WASHINGTON,DC,20019,76027,7
-77.018113660265143,38.910916745175705,250,S0311,Rodent Inspection and Treatment,DOH- Department Of Health,DOH,1,2020-03-11T21:08:47.000Z,,2020-03-31T21:08:47.000Z,2020-03-11T21:08:47.000Z,,,,Open,,20-00089350,Standard,442 Q STREET NW,398429.19,138116.44,38.91090929,-77.01811137,WASHINGTON,DC,20001,218225,6
-76.940458006307594,38.909797024919975,251,S0311,Rodent Inspection and Treatment,DOH- Department Of Health,DOH,1,2020-02-19T10:27:44.000Z,2020-02-28T08:57:26.000Z,2020-03-10T11:27:44.000Z,2020-02-19T10:27:44.000Z,1,2020-02-26T11:50:00.000Z,,Closed,,20-00062639,Standard,4350 POLK STREET NE,405164.39,137993.67,38.90978957,-76.94045574,WASHINGTON,DC,20019,22868,7
-77.030190828041128,38.913902855569475,252,S0311,Rodent Inspection and Treatment,DOH- Department Of Health,DOH,1,2020-03-12T13:29:47.000Z,2020-03-16T08:24:58.000Z,2020-04-01T13:29:47.000Z,2020-03-12T13:29:47.000Z,1,2020-03-13T11:28:00.000Z,,Closed,,20-00090443,Standard,1310 S STREET NW,397381.84,138448.2,38.91389507,-77.03018853,WASHINGTON,DC,20009,240496,2
-77.044051283999778,38.914553358182822,253,S0311,Rodent Inspection and Treatment,DOH- Department Of Health,DOH,1,2020-02-19T10:37:59.000Z,2020-03-02T14:36:34.000Z,2020-03-10T11:37:59.000Z,2020-02-19T10:37:59.000Z,1,2020-03-02T14:36:34.000Z,,Closed,,20-00062670,Standard,1809 REAR 20TH STREET NW,396179.8,138520.9,38.91454557,-77.04404899,WASHINGTON,DC,20009,307371,2
-77.03877136712569,38.92352878721794,254,S0311,Rodent Inspection and Treatment,DOH- Department Of Health,DOH,1,2020-03-08T18:56:14.000Z,2020-03-09T14:15:18.000Z,2020-03-26T18:56:14.000Z,2020-03-08T18:56:14.000Z,1,2020-03-09T11:13:00.000Z,,Closed,,20-00084350,Standard,2511 17TH STREET NW,396638.13,139517.04,38.92352133,-77.03876907,WASHINGTON,DC,20009,235858,1
-77.012939297485246,38.904852112438995,255,S0311,Rodent Inspection and Treatment,DOH- Department Of Health,DOH,1,2020-03-11T15:27:25.000Z,2020-03-16T08:36:11.000Z,2020-03-31T15:27:25.000Z,2020-03-11T15:27:25.000Z,1,2020-03-16T08:36:10.000Z,,Closed,,20-00088968,Standard,105 PIERCE STREET NW,398877.87,137443.14,38.90484466,-77.01293701,WASHINGTON,DC,20001,243416,6
-77.001481050749391,38.885559688212901,256,S0311,Rodent Inspection and Treatment,DOH- Department Of Health,DOH,1,2020-03-11T19:57:01.000Z,,2020-03-31T19:57:01.000Z,2020-03-11T19:57:01.000Z,,,,Open,,20-00089319,Standard,314 NORTH CAROLINA AVENUE SE,399871.7,135301.45,38.8855519,-77.00147877,WASHINGTON,DC,20003,39501,6
-77.020675708255297,38.949409460944459,225,S0311,Rodent Inspection and Treatment,DOH- Department Of Health,DOH,1,2020-03-12T12:14:13.000Z,2020-03-13T14:31:37.000Z,2020-04-01T12:14:12.000Z,2020-03-12T12:14:13.000Z,1,2020-03-13T10:17:00.000Z,,Closed,,20-00090230,Standard,4828 KANSAS AVENUE NW,398207.95,142389.51,38.949402,-77.02067342,WASHINGTON,DC,20011,247196,4
-76.980997536420318,38.888957554774677,226,S0311,Rodent Inspection and Treatment,DOH- Department Of Health,DOH,1,2020-03-12T14:12:11.000Z,2020-03-13T13:02:06.000Z,2020-04-01T14:12:11.000Z,2020-03-12T14:12:11.000Z,1,2020-03-13T13:02:05.000Z,,Closed,,20-00090539,Standard,31 17TH STREET SE,401648.8,135678.81,38.8889501,-76.98099526,WASHINGTON,DC,20003,40807,6
-77.033789937277348,38.915356085984953,227,S0311,Rodent Inspection and Treatment,DOH- Department Of Health,DOH,1,2020-02-21T15:03:22.000Z,2020-03-03T15:25:46.000Z,2020-03-12T16:03:22.000Z,2020-02-21T15:03:22.000Z,1,2020-02-27T00:10:00.000Z,,Closed,,20-00066152,Standard,1448 T STREET NW,397069.76,138609.63,38.91534863,-77.03378764,WASHINGTON,DC,20009,240027,2
-76.989281543701949,38.902165235595128,228,S0311,Rodent Inspection and Treatment,DOH- Department Of Health,DOH,1,2020-03-06T19:46:38.000Z,2020-03-16T08:59:34.000Z,2020-03-26T20:46:37.000Z,2020-03-06T19:46:38.000Z,1,2020-03-16T08:59:34.000Z,,Closed,,20-00083349,Standard,1207 FLORIDA AVENUE NE,400929.93,137144.85,38.90215778,-76.98927926,WASHINGTON,DC,20002,71855,6
-77.016895007280667,38.942333791553764,229,S0311,Rodent Inspection and Treatment,DOH- Department Of Health,DOH,1,2020-03-06T20:31:04.000Z,2020-03-09T14:26:55.000Z,2020-03-26T21:31:04.000Z,2020-03-06T20:31:04.000Z,1,2020-03-09T11:34:00.000Z,,Closed,,20-00083362,Standard,4203 4TH STREET NW,398535.53,141603.98,38.94232633,-77.01689272,WASHINGTON,DC,20011,244091,4
-77.034809697244569,38.917455088808509,230,S0311,Rodent Inspection and Treatment,DOH- Department Of Health,DOH,1,2020-03-07T11:10:23.000Z,2020-03-09T14:20:07.000Z,2020-03-26T12:10:23.000Z,2020-03-07T11:10:23.000Z,1,2020-03-10T00:18:00.000Z,,Closed,,20-00083578,Standard,2012 15TH STREET NW,396981.41,138842.67,38.91744763,-77.0348074,WASHINGTON,DC,20009,242048,1
-76.970680255776017,38.897628410678585,231,S0311,Rodent Inspection and Treatment,DOH- Department Of Health,DOH,1,2020-03-11T11:32:18.000Z,,2020-03-31T11:32:18.000Z,2020-03-11T11:32:18.000Z,,,,Open,,20-00088344,Standard,2519 BENNING ROAD NE,402543.59,136641.58,38.89762096,-76.97067798,WASHINGTON,DC,20002,46507,7
-77.024328544319289,38.897073739692459,232,S0311,Rodent Inspection and Treatment,DOH- Department Of Health,DOH,1,2020-03-11T21:57:05.000Z,2020-03-11T21:59:19.000Z,2020-03-31T21:57:05.000Z,2020-03-11T21:57:05.000Z,1,2020-03-11T21:59:00.000Z,,Closed,,20-00089381,Standard,900 F STREET NW,397889.76,136579.88,38.89706629,-77.02432625,WASHINGTON,DC,20004,243269,2
-76.99322788449544,38.921553012071413,233,S0311,Rodent Inspection and Treatment,DOH- Department Of Health,DOH,1,2020-03-12T08:11:10.000Z,,2020-04-01T08:11:10.000Z,2020-03-12T08:11:10.000Z,,,,Open,,20-00089551,Standard,2401 WASHINGTON PLACE NE,400587.46,139297.02,38.92154522,-76.9932256,WASHINGTON,DC,20018,309338,5
-77.022842755754382,38.947531461939896,234,S0311,Rodent Inspection and Treatment,DOH- Department Of Health,DOH,1,2020-03-13T19:41:44.000Z,,2020-04-02T19:41:44.000Z,2020-03-13T19:41:44.000Z,,,,Open,,20-00092720,Standard,34 SHERMAN CIRCLE NW,398020.05,142181.08,38.947524,-77.02284046,WASHINGTON,DC,20011,249899,4
-77.027270147247989,38.938879132884679,235,S0311,Rodent Inspection and Treatment,DOH- Department Of Health,DOH,1,2020-03-01T15:52:59.000Z,2020-03-05T09:09:03.000Z,2020-03-19T16:52:59.000Z,2020-03-01T15:52:59.000Z,1,2020-03-06T00:33:00.000Z,,Closed,,20-00076056,Standard,965 RANDOLPH STREET NW,397635.97,141220.7,38.93887167,-77.02726785,WASHINGTON,DC,20011,225106,4
-77.068840741262747,38.908028439684216,236,S0311,Rodent Inspection and Treatment,DOH- Department Of Health,DOH,1,2020-03-13T15:57:15.000Z,,2020-04-02T15:57:15.000Z,2020-03-13T15:57:15.000Z,,,,Open,,20-00092443,Standard,1405 35TH STREET NW,394029.36,137797.91,38.90802099,-77.06883844,WASHINGTON,DC,20007,272491,2
-76.956068222272719,38.890066256701509,237,S0311,Rodent Inspection and Treatment,DOH- Department Of Health,DOH,1,2020-03-11T11:09:24.000Z,,2020-03-31T11:09:24.000Z,2020-03-11T11:09:24.000Z,,,,Open,,20-00088285,Standard,3428 EAST CAPITOL STREET NE,403811.54,135802.63,38.8900588,-76.95606595,WASHINGTON,DC,20019,287888,7
-77.031355167628604,38.895010139724491,238,S0311,Rodent Inspection and Treatment,DOH- Department Of Health,DOH,1,2020-03-14T06:59:27.000Z,,2020-04-02T06:59:27.000Z,2020-03-14T06:59:27.000Z,,,,Open,,20-00092852,Standard,1350 PENNSYLVANIA AVENUE NW,397280.14,136350.99,38.89500269,-77.03135287,WASHINGTON,DC,20004,293203,2
-76.997509435180618,38.886535819451666,239,S0311,Rodent Inspection and Treatment,DOH- Department Of Health,DOH,1,2020-02-19T21:52:23.000Z,2020-02-24T08:34:45.000Z,2020-03-10T22:52:23.000Z,2020-02-19T21:52:23.000Z,1,2020-02-24T08:34:00.000Z,,Closed,,20-00063665,Standard,625 NORTH CAROLINA AVENUE SE,400216.28,135409.81,38.88652803,-76.99750715,WASHINGTON,DC,20003,3139,6
-76.981038412016218,38.889119982472103,240,S0311,Rodent Inspection and Treatment,DOH- Department Of Health,DOH,1,2020-03-12T14:19:52.000Z,,2020-04-01T14:19:52.000Z,2020-03-12T14:19:52.000Z,,,,Open,,20-00090556,Standard,23 17TH STREET SE,401645.25,135696.84,38.88911253,-76.98103613,WASHINGTON,DC,20003,49086,6
-77.026187965124763,38.907119277474457,241,S0311,Rodent Inspection and Treatment,DOH- Department Of Health,DOH,1,2020-03-01T16:41:42.000Z,2020-03-03T08:08:02.000Z,2020-03-19T17:41:42.000Z,2020-03-01T16:41:42.000Z,1,2020-03-02T11:00:00.000Z,,Closed,,20-00076094,Standard,1000 N STREET NW,397728.78,137695.06,38.90711182,-77.02618567,WASHINGTON,DC,20001,239337,2
-76.997241230522604,38.954997016557876,242,S0311,Rodent Inspection and Treatment,DOH- Department Of Health,DOH,1,2020-03-11T15:11:50.000Z,,2020-03-31T15:11:50.000Z,2020-03-11T15:11:50.000Z,,,,Open,,20-00088936,Standard,546 INGRAHAM STREET NE,400239.32,143009.58,38.95498955,-76.99723894,WASHINGTON,DC,20011,8600,5
-77.028522767577314,38.926997959186657,1,S0311,Rodent Inspection and Treatment,DOH- Department Of Health,DOH,1,2020-02-28T16:33:29.000Z,2020-03-03T08:52:34.000Z,2020-03-19T17:33:29.000Z,2020-02-28T16:33:29.000Z,1,2020-03-03T08:51:00.000Z,,Closed,,20-00074918,Standard,1205 HARVARD STREET NW,397526.96,139901.82,38.9269905,-77.02852047,WASHINGTON,DC,20009,231537,1
-77.020142581971257,38.967641013831205,2,S0311,Rodent Inspection and Treatment,DOH- Department Of Health,DOH,1,2020-02-26T08:44:32.000Z,2020-03-02T15:11:31.000Z,2020-03-17T09:44:32.000Z,2020-02-26T08:44:32.000Z,1,2020-02-28T11:56:00.000Z,,Closed,,20-00070977,Standard,6406 5TH STREET NW,398254.61,144413.37,38.96763355,-77.02014029,WASHINGTON,DC,20012,251428,4
-77.031989872626994,38.952090927918817,3,S0311,Rodent Inspection and Treatment,DOH- Department Of Health,DOH,1,2020-02-17T21:15:38.000Z,2020-02-20T15:30:06.000Z,2020-03-08T22:15:38.000Z,2020-02-17T21:15:38.000Z,1,2020-02-20T22:47:00.000Z,,Closed,,20-00060342,Standard,1329 GALLATIN STREET NW,397227.3,142687.46,38.95208346,-77.03198758,WASHINGTON,DC,20011,255018,4
-77.024610704324033,38.933714724099026,4,S0311,Rodent Inspection and Treatment,DOH- Department Of Health,DOH,1,2020-02-17T16:33:26.000Z,2020-02-21T08:24:09.000Z,2020-03-06T16:33:26.000Z,2020-02-17T16:33:26.000Z,1,2020-02-18T08:23:00.000Z,,Closed,,20-00060133,Standard,717 NEWTON PLACE NW,397866.38,140647.34,38.93370726,-77.02460841,WASHINGTON,DC,20010,232266,1
-77.018734144492996,38.954147419308427,5,S0311,Rodent Inspection and Treatment,DOH- Department Of Health,DOH,1,2020-03-13T12:02:13.000Z,,2020-04-02T12:02:13.000Z,2020-03-13T12:02:13.000Z,,,,Open,,20-00091878,Standard,426 INGRAHAM STREET NW,398376.36,142915.43,38.95413996,-77.01873185,WASHINGTON,DC,20011,248623,4
-76.996377387533812,38.926671499686449,6,S0311,Rodent Inspection and Treatment,DOH- Department Of Health,DOH,1,2020-02-27T22:22:37.000Z,,2020-03-18T23:22:37.000Z,2020-02-27T22:22:37.000Z,,,,Open,,20-00073864,Standard,2900 7TH STREET NE,400314.32,139865.2,38.92666371,-76.9963751,WASHINGTON,DC,20017,304087,5
-76.982271866597983,38.85474689708979,7,S0311,Rodent Inspection and Treatment,DOH- Department Of Health,DOH,1,2020-03-08T22:41:19.000Z,,2020-03-26T22:41:19.000Z,2020-03-08T22:41:19.000Z,,,,Open,,20-00084434,Standard,2426 15TH PLACE SE,401538.98,131881.15,38.85473945,-76.98226959,WASHINGTON,DC,20020,47314,8
-77.024275413537566,38.924207691226208,8,S0311,Rodent Inspection and Treatment,DOH- Department Of Health,DOH,1,2020-03-02T13:29:20.000Z,2020-03-03T15:39:33.000Z,2020-03-20T14:29:20.000Z,2020-03-02T13:29:20.000Z,1,2020-03-03T15:38:00.000Z,,Closed,,20-00077130,Standard,819 EUCLID STREET NW,397895.17,139591.97,38.92420023,-77.02427312,WASHINGTON,DC,20001,232339,1
-77.035228404675834,38.910952024454694,9,S0311,Rodent Inspection and Treatment,DOH- Department Of Health,DOH,1,2020-03-11T16:06:42.000Z,2020-03-13T13:12:19.000Z,2020-03-31T16:06:42.000Z,2020-03-11T16:06:42.000Z,1,2020-03-13T13:12:19.000Z,,Closed,,20-00089037,Standard,1512 Q STREET NW,396944.82,138120.79,38.91094457,-77.03522611,WASHINGTON,DC,20009,225633,2
-77.001349587738602,38.961053115653385,10,S0311,Rodent Inspection and Treatment,DOH- Department Of Health,DOH,1,2020-03-13T11:42:32.000Z,,2020-04-02T11:42:32.000Z,2020-03-13T11:42:32.000Z,,,,Open,,20-00091832,Standard,341 OGLETHORPE STREET NE,399883.23,143681.86,38.96104565,-77.0013473,WASHINGTON,DC,20011,35037,4
-77.009880527897309,38.913889673099355,11,S0311,Rodent Inspection and Treatment,DOH- Department Of Health,DOH,1,2020-03-03T08:56:08.000Z,2020-03-04T10:23:54.000Z,2020-03-23T09:56:08.000Z,2020-03-03T08:56:08.000Z,1,2020-03-04T10:23:54.000Z,,Closed,,20-00078037,Standard,20 S STREET NW,399143.29,138446.35,38.91388222,-77.00987824,WASHINGTON,DC,20001,226994,5
-77.037181080735465,38.917954410796625,12,S0311,Rodent Inspection and Treatment,DOH- Department Of Health,DOH,1,2020-03-06T11:03:40.000Z,2020-03-09T14:23:07.000Z,2020-03-26T12:03:40.000Z,2020-03-06T11:03:40.000Z,1,2020-03-09T14:21:00.000Z,,Closed,,20-00082629,Standard,1608 V STREET NW,396775.78,138898.18,38.91794695,-77.03717878,WASHINGTON,DC,20009,241842,1
-76.986631105240747,38.885077254484777,13,S0311,Rodent Inspection and Treatment,DOH- Department Of Health,DOH,1,2020-02-18T16:36:11.000Z,2020-02-24T08:36:09.000Z,2020-03-09T17:36:11.000Z,2020-02-18T16:36:11.000Z,1,2020-02-24T08:35:00.000Z,,Closed,,20-00061895,Standard,307 KENTUCKY AVENUE SE,401160.11,135247.98,38.8850698,-76.98662883,WASHINGTON,DC,20003,40873,6
-77.016058727050478,38.942379221143661,14,S0311,Rodent Inspection and Treatment,DOH- Department Of Health,DOH,1,2020-02-18T09:19:08.000Z,2020-02-24T08:56:35.000Z,2020-03-09T10:19:08.000Z,2020-02-18T09:19:08.000Z,1,2020-02-21T09:46:00.000Z,,Closed,,20-00060661,Standard,315 UPSHUR STREET NW,398608.03,141609.01,38.94237176,-77.01605644,WASHINGTON,DC,20011,244114,4
-77.016183881460904,38.942375420399301,15,S0311,Rodent Inspection and Treatment,DOH- Department Of Health,DOH,1,2020-02-17T16:13:52.000Z,2020-02-20T11:11:35.000Z,2020-03-06T16:13:51.000Z,2020-02-17T16:13:52.000Z,1,2020-02-20T11:11:34.000Z,,Closed,,20-00060092,Standard,319 UPSHUR STREET NW,398597.18,141608.59,38.94236796,-77.01618159,WASHINGTON,DC,20011,244116,4
-77.016183881460904,38.942375420399301,16,S0311,Rodent Inspection and Treatment,DOH- Department Of Health,DOH,1,2020-02-17T16:16:12.000Z,2020-02-20T14:37:30.000Z,2020-03-06T16:16:12.000Z,2020-02-17T16:16:12.000Z,1,2020-02-20T11:00:00.000Z,,Closed,,20-00060096,Standard,319 UPSHUR STREET NW,398597.18,141608.59,38.94236796,-77.01618159,WASHINGTON,DC,20011,244116,4
-76.99886208369341,38.94729271705009,17,S0311,Rodent Inspection and Treatment,DOH- Department Of Health,DOH,1,2020-03-12T15:43:38.000Z,,2020-04-01T15:43:38.000Z,2020-03-12T15:43:38.000Z,,,,Open,,20-00090738,Standard,4719 6TH STREET NE,400098.84,142154.33,38.94728525,-76.9988598,WASHINGTON,DC,20017,17945,5
-77.072488937153153,38.913732749706313,18,S0311,Rodent Inspection and Treatment,DOH- Department Of Health,DOH,1,2020-03-12T15:47:12.000Z,2020-03-13T15:43:31.000Z,2020-04-01T15:47:12.000Z,2020-03-12T15:47:12.000Z,1,2020-03-13T11:10:00.000Z,,Closed,,20-00090744,Standard,3641 R STREET NW,393713.44,138431.38,38.9137253,-77.07248663,WASHINGTON,DC,20007,270469,2
-77.032430084999831,38.935554383368014,19,S0311,Rodent Inspection and Treatment,DOH- Department Of Health,DOH,1,2020-03-05T21:22:35.000Z,2020-03-13T09:35:36.000Z,2020-03-25T22:22:35.000Z,2020-03-05T21:22:35.000Z,1,2020-03-13T09:34:00.000Z,,Closed,,20-00082172,Standard,3521 14TH STREET NW,397188.49,140851.77,38.93554692,-77.03242779,WASHINGTON,DC,20010,230200,1
-77.045093813053398,38.907523840205272,20,S0311,Rodent Inspection and Treatment,DOH- Department Of Health,DOH,1,2020-02-29T00:52:46.000Z,2020-03-03T08:04:30.000Z,2020-03-19T01:52:46.000Z,2020-02-29T00:52:46.000Z,1,2020-03-03T00:14:00.000Z,,Closed,,20-00075219,Standard,1303 NEW HAMPSHIRE AVENUE NW,396089,137740.61,38.90751639,-77.04509152,WASHINGTON,DC,20036,242705,2
-77.023646405382109,38.915372632152476,21,S0311,Rodent Inspection and Treatment,DOH- Department Of Health,DOH,1,2020-03-03T14:30:29.000Z,2020-03-05T08:23:32.000Z,2020-03-23T15:30:29.000Z,2020-03-03T14:30:29.000Z,1,2020-03-05T08:21:00.000Z,,Closed,,20-00078867,Standard,1851 9TH STREET NW,397949.46,138611.19,38.91536518,-77.02364411,WASHINGTON,DC,20001,239901,1
-77.032797788642512,38.96338733625101,22,S0311,Rodent Inspection and Treatment,DOH- Department Of Health,DOH,1,2020-03-05T01:39:57.000Z,2020-03-06T14:37:30.000Z,2020-03-25T02:39:57.000Z,2020-03-05T01:39:57.000Z,1,2020-03-06T10:15:00.000Z,,Closed,,20-00080898,Standard,1371 PEABODY STREET NW,397157.72,143941.49,38.96337987,-77.03279549,WASHINGTON,DC,20011,258185,4
-77.032427898767864,38.963459415365477,23,S0311,Rodent Inspection and Treatment,DOH- Department Of Health,DOH,1,2020-03-05T01:44:23.000Z,2020-03-06T14:35:12.000Z,2020-03-25T02:44:23.000Z,2020-03-05T01:44:23.000Z,1,2020-03-06T10:05:00.000Z,,Closed,,20-00080899,Standard,1363 PEABODY STREET NW,397189.78,143949.48,38.96345195,-77.0324256,WASHINGTON,DC,20011,258184,4
-76.99399738637122,38.936712421915075,24,S0311,Rodent Inspection and Treatment,DOH- Department Of Health,DOH,1,2020-03-16T09:07:07.000Z,,2020-04-03T09:07:07.000Z,2020-03-16T09:07:07.000Z,,,,Open,,20-00094007,Standard,3746 10TH STREET NE,400520.62,140979.84,38.93670463,-76.9939951,WASHINGTON,DC,20017,30930,5
-77.003986184394748,38.918328068761852,25,S0311,Rodent Inspection and Treatment,DOH- Department Of Health,DOH,1,2020-03-15T22:33:33.000Z,,2020-04-02T22:33:32.000Z,2020-03-15T22:33:33.000Z,,,,Open,,20-00093808,Standard,155 RHODE ISLAND AVENUE NE,399654.51,138939.01,38.91832061,-77.0039839,WASHINGTON,DC,20002,60737,5
-77.016390887921105,38.955211107316323,26,S0311,Rodent Inspection and Treatment,DOH- Department Of Health,DOH,1,2020-03-15T18:28:17.000Z,,2020-04-02T18:28:17.000Z,2020-03-15T18:28:17.000Z,,,,Open,,20-00093738,Standard,5324 KANSAS AVENUE NW,398579.49,143033.47,38.95520364,-77.0163886,WASHINGTON,DC,20011,249497,4
-76.955393492888817,38.887056751776186,27,S0311,Rodent Inspection and Treatment,DOH- Department Of Health,DOH,1,2020-03-16T04:48:45.000Z,,2020-04-03T04:48:45.000Z,2020-03-16T04:48:45.000Z,,,,Open,,20-00093843,Standard,3532 MINNESOTA AVENUE SE,403870.24,135468.58,38.8870493,-76.95539122,WASHINGTON,DC,20019,33462,7
-77.001530107990419,38.915764085128167,28,S0311,Rodent Inspection and Treatment,DOH- Department Of Health,DOH,1,2020-03-15T11:51:35.000Z,,2020-04-02T11:51:35.000Z,2020-03-15T11:51:35.000Z,,,,Open,,20-00093552,Standard,310 T STREET NE,399867.5,138654.38,38.91575663,-77.00152782,WASHINGTON,DC,20002,40671,5
-76.980381124287376,38.898106264250188,29,S0311,Rodent Inspection and Treatment,DOH- Department Of Health,DOH,1,2020-03-14T10:34:55.000Z,,2020-04-02T10:34:55.000Z,2020-03-14T10:34:55.000Z,,,,Open,,20-00092959,Standard,1649 GALES STREET NE,401702.06,136694.4,38.89809881,-76.98037885,WASHINGTON,DC,20002,58588,6
-77.062610077437014,38.906967428034847,30,S0311,Rodent Inspection and Treatment,DOH- Department Of Health,DOH,1,2020-03-09T08:21:56.000Z,2020-03-13T08:35:46.000Z,2020-03-27T08:21:56.000Z,2020-03-09T08:21:56.000Z,1,2020-03-12T11:05:00.000Z,,Closed,,20-00084607,Standard,3139 N STREET NW,394569.69,137679.74,38.90695964,-77.06260777,WASHINGTON,DC,20007,223434,2
-76.994195285632685,38.93703718108425,31,S0311,Rodent Inspection and Treatment,DOH- Department Of Health,DOH,1,2020-03-16T08:29:48.000Z,,2020-04-03T08:29:48.000Z,2020-03-16T08:29:48.000Z,,,,Open,,20-00093946,Standard,921 PERRY PLACE NE,400503.46,141015.89,38.93702972,-76.994193,WASHINGTON,DC,20017,82565,5
-77.023969787264335,38.926190485345991,32,S0311,Rodent Inspection and Treatment,DOH- Department Of Health,DOH,1,2020-03-15T14:38:19.000Z,,2020-04-02T14:38:19.000Z,2020-03-15T14:38:19.000Z,,,,Open,,20-00093628,Standard,733 GIRARD STREET NW,397921.73,139812.07,38.92618303,-77.02396749,WASHINGTON,DC,20001,232526,1
-77.031355167628604,38.895010139724491,33,S0311,Rodent Inspection and Treatment,DOH- Department Of Health,DOH,1,2020-03-16T05:10:15.000Z,,2020-04-03T05:10:15.000Z,2020-03-16T05:10:15.000Z,,,,Open,,20-00093846,Standard,1350 PENNSYLVANIA AVENUE NW,397280.14,136350.99,38.89500269,-77.03135287,WASHINGTON,DC,20004,293203,2
-77.02294585978234,38.914837856876389,34,S0311,Rodent Inspection and Treatment,DOH- Department Of Health,DOH,1,2020-03-03T13:07:36.000Z,2020-03-05T08:19:29.000Z,2020-03-23T14:07:36.000Z,2020-03-03T13:07:36.000Z,1,2020-03-05T08:14:00.000Z,,Closed,,20-00078657,Standard,1800 - 1899 BLOCK OF 8TH STREET NW,398010.2,138551.810003315,38.9148300665769,-77.0229435681937,WASHINGTON,DC,20001,802099,1
-77.045871816810276,38.922580521882196,35,S0311,Rodent Inspection and Treatment,DOH- Department Of Health,DOH,1,2020-03-05T13:11:47.000Z,2020-03-13T09:30:42.000Z,2020-03-25T14:11:47.000Z,2020-03-05T13:11:47.000Z,1,2020-03-13T09:29:00.000Z,,Closed,,20-00081561,Standard,1935 BILTMORE STREET NW,396022.36,139412.06,38.92257307,-77.04586952,WASHINGTON,DC,20009,235301,1
-77.018635690742911,38.92971325822522,36,S0311,Rodent Inspection and Treatment,DOH- Department Of Health,DOH,1,2020-03-15T12:28:50.000Z,,2020-04-02T12:28:50.000Z,2020-03-15T12:28:50.000Z,,,,Open,,20-00093559,Standard,427 IRVING STREET NW,398384.34,140203.02,38.9297058,-77.0186334,WASHINGTON,DC,20010,229329,1
-77.029368772070072,38.910979858611348,37,S0311,Rodent Inspection and Treatment,DOH- Department Of Health,DOH,1,2020-03-12T14:29:04.000Z,2020-03-16T08:28:44.000Z,2020-04-01T14:29:04.000Z,2020-03-12T14:29:04.000Z,1,2020-03-13T13:20:00.000Z,,Closed,,20-00090571,Standard,1204 Q STREET NW,397453.03,138123.7,38.9109724,-77.02936648,WASHINGTON,DC,20009,225339,2
-77.026484547252551,38.924633665308171,38,S0311,Rodent Inspection and Treatment,DOH- Department Of Health,DOH,1,2020-03-12T14:29:43.000Z,,2020-04-01T14:29:43.000Z,2020-03-12T14:29:43.000Z,,,,Open,,20-00090573,Standard,1026 FAIRMONT STREET NW,397703.62,139639.31,38.92462621,-77.02648225,WASHINGTON,DC,20001,231936,1
-77.030005133855553,38.937068875956982,39,S0311,Rodent Inspection and Treatment,DOH- Department Of Health,DOH,1,2020-03-13T15:35:07.000Z,,2020-04-02T15:35:07.000Z,2020-03-13T15:35:07.000Z,,,,Open,,20-00092401,Standard,3708 13TH STREET NW,397398.79,141019.82,38.93706142,-77.03000284,WASHINGTON,DC,20010,225284,4
-77.008170920625815,38.914992876020648,40,S0311,Rodent Inspection and Treatment,DOH- Department Of Health,DOH,1,2020-02-19T10:16:36.000Z,2020-02-21T12:53:42.000Z,2020-03-10T11:16:36.000Z,2020-02-19T10:16:36.000Z,1,2020-02-21T12:53:42.000Z,,Closed,,20-00062608,Standard,22 SEATON PLACE NE,399291.57,138568.8,38.91498542,-77.00816863,WASHINGTON,DC,20002,50668,5
-76.952551132139263,38.863866298006371,41,S0311,Rodent Inspection and Treatment,DOH- Department Of Health,DOH,1,2020-03-14T14:36:41.000Z,,2020-04-02T14:36:41.000Z,2020-03-14T14:36:41.000Z,,,,Open,,20-00093179,Standard,2033 38TH STREET SE,404118.18,132894.39,38.86385885,-76.95254887,WASHINGTON,DC,20020,145920,7
-76.982480427132842,38.893579082666363,42,S0311,Rodent Inspection and Treatment,DOH- Department Of Health,DOH,1,2020-03-14T16:50:28.000Z,,2020-04-02T16:50:28.000Z,2020-03-14T16:50:28.000Z,,,,Open,,20-00093274,Standard,304 16TH STREET NE,401520.05,136191.81,38.89357163,-76.98247815,WASHINGTON,DC,20002,152263,6
-77.020618081213669,38.955179089424107,43,S0311,Rodent Inspection and Treatment,DOH- Department Of Health,DOH,1,2020-03-09T10:09:07.000Z,2020-03-10T14:51:46.000Z,2020-03-27T10:09:06.000Z,2020-03-09T10:09:07.000Z,1,2020-03-10T09:49:00.000Z,,Closed,,20-00084847,Standard,516 JEFFERSON STREET NW,398213.09,143029.99,38.95517163,-77.02061579,WASHINGTON,DC,20011,246840,4
-77.048130145723263,38.907444616498026,44,S0311,Rodent Inspection and Treatment,DOH- Department Of Health,DOH,1,2020-03-09T10:15:16.000Z,2020-03-12T07:55:35.000Z,2020-03-27T10:15:16.000Z,2020-03-09T10:15:16.000Z,1,2020-03-12T11:58:00.000Z,,Closed,,20-00084865,Standard,2137 N STREET NW,395825.64,137731.95,38.90743716,-77.04812785,WASHINGTON,DC,20037,242400,2
-77.079576556405669,38.943378470647204,45,S0311,Rodent Inspection and Treatment,DOH- Department Of Health,DOH,1,2020-03-13T13:58:49.000Z,,2020-04-02T13:58:49.000Z,2020-03-13T13:58:49.000Z,,,,Open,,20-00092200,Standard,4013 VAN NESS STREET NW,393101.62,141722.82,38.94337101,-77.07957425,WASHINGTON,DC,20016,222995,3
-76.996439579902841,38.889050030557627,46,S0311,Rodent Inspection and Treatment,DOH- Department Of Health,DOH,1,2020-03-12T11:18:39.000Z,,2020-04-01T11:18:39.000Z,2020-03-12T11:18:39.000Z,,,,Open,,20-00090073,Standard,21 7TH STREET SE,400309.09,135688.91,38.88904224,-76.9964373,WASHINGTON,DC,20003,52001,6
-77.023804176946953,38.927903810810278,47,S0311,Rodent Inspection and Treatment,DOH- Department Of Health,DOH,1,2020-02-25T13:31:32.000Z,2020-03-03T07:28:47.000Z,2020-03-16T14:31:32.000Z,2020-02-25T13:31:32.000Z,1,2020-03-03T10:04:36.000Z,,Closed,,20-00070053,Standard,724 COLUMBIA ROAD NW,397936.14,140002.26,38.92789635,-77.02380188,WASHINGTON,DC,20001,232767,1
-76.985182711599748,38.899815587902538,48,S0311,Rodent Inspection and Treatment,DOH- Department Of Health,DOH,1,2020-02-19T11:28:24.000Z,2020-02-24T08:35:28.000Z,2020-03-10T12:28:24.000Z,2020-02-19T11:28:24.000Z,1,2020-02-24T08:35:00.000Z,,Closed,,20-00062791,Standard,1400 MARYLAND AVENUE NE,401285.51,136884.07,38.89980813,-76.98518043,WASHINGTON,DC,20002,286124,6
-77.04236010125085,38.920381924356008,49,S0311,Rodent Inspection and Treatment,DOH- Department Of Health,DOH,1,2020-02-20T16:35:26.000Z,2020-02-25T08:14:03.000Z,2020-03-11T17:35:26.000Z,2020-02-20T16:35:26.000Z,1,2020-02-24T08:12:00.000Z,,Closed,,20-00064881,Standard,1806 BELMONT ROAD NW,396326.77,139167.85,38.92037447,-77.0423578,WASHINGTON,DC,20009,226577,1
-77.001828360020383,38.904896775611491,50,S0311,Rodent Inspection and Treatment,DOH- Department Of Health,DOH,1,2020-03-14T19:19:28.000Z,,2020-04-02T19:19:28.000Z,2020-03-14T19:19:28.000Z,,,,Open,,20-00093371,Standard,1149 3RD STREET NE,399841.61,137448.02,38.90488932,-77.00182608,WASHINGTON,DC,20002,72802,6
-77.051283129978501,38.924816930662743,51,S0311,Rodent Inspection and Treatment,DOH- Department Of Health,DOH,1,2020-02-19T14:36:48.000Z,2020-02-24T15:24:11.000Z,2020-03-10T15:36:48.000Z,2020-02-19T14:36:48.000Z,1,2020-02-24T15:23:00.000Z,,Closed,,20-00063200,Standard,2638 WOODLEY PLACE NW,395553.25,139660.57,38.92480947,-77.05128083,WASHINGTON,DC,20008,219116,3
-77.022199179603291,38.929786233533854,52,S0311,Rodent Inspection and Treatment,DOH- Department Of Health,DOH,1,2020-03-11T18:24:13.000Z,2020-03-12T11:22:44.000Z,2020-03-31T18:24:13.000Z,2020-03-11T18:24:13.000Z,1,2020-03-12T11:22:43.000Z,,Closed,,20-00089245,Standard,630 KENYON STREET NW,398075.36,140211.19,38.92977877,-77.02219689,WASHINGTON,DC,20010,229241,1
-76.994259515343288,38.904271469333786,53,S0311,Rodent Inspection and Treatment,DOH- Department Of Health,DOH,1,2020-02-22T17:56:34.000Z,2020-02-25T08:18:51.000Z,2020-03-12T18:56:34.000Z,2020-02-22T17:56:34.000Z,1,2020-02-25T08:16:00.000Z,,Closed,,20-00067159,Standard,829 FLORIDA AVENUE NE,400498.12,137378.62,38.90426401,-76.99425723,WASHINGTON,DC,20002,81027,6
-76.994356370927434,38.950753629912711,54,S0311,Rodent Inspection and Treatment,DOH- Department Of Health,DOH,1,2020-02-28T11:59:56.000Z,2020-03-03T07:56:42.000Z,2020-03-19T12:59:56.000Z,2020-02-28T11:59:56.000Z,1,2020-03-03T07:55:00.000Z,,Closed,,20-00074394,Standard,8TH STREET NE AND SOUTH DAKOTA AVENUE NE,400489.399998408,142538.537004324,38.9507458313089,-76.9943540860474,WASHINGTON,DC,20017,906186,5
-77.002315749111872,38.885419233933931,55,S0311,Rodent Inspection and Treatment,DOH- Department Of Health,DOH,1,2020-03-05T09:28:13.000Z,2020-03-09T09:19:18.000Z,2020-03-25T10:28:13.000Z,2020-03-05T09:28:13.000Z,1,2020-03-09T09:17:00.000Z,,Closed,,20-00081145,Standard,319 3RD STREET SE,399799.28,135285.86,38.88541145,-77.00231347,WASHINGTON,DC,20003,278339,6
-77.014797638794221,38.914226516001179,56,S0311,Rodent Inspection and Treatment,DOH- Department Of Health,DOH,1,2020-02-27T13:58:57.000Z,2020-02-28T11:59:57.000Z,2020-03-18T14:58:57.000Z,2020-02-27T13:58:57.000Z,1,2020-02-28T11:59:57.000Z,,Closed,,20-00073326,Standard,211 S STREET NW,398716.85,138483.8,38.91421906,-77.01479535,WASHINGTON,DC,20001,230031,5
-77.000008979346788,38.96103069290637,57,S0311,Rodent Inspection and Treatment,DOH- Department Of Health,DOH,1,2020-03-12T13:21:09.000Z,,2020-04-01T13:21:09.000Z,2020-03-12T13:21:09.000Z,,,,Open,,20-00090416,Standard,529 OGLETHORPE STREET NE,399999.42,143679.37,38.96102323,-77.00000669,WASHINGTON,DC,20011,10917,4
-77.013333124765481,38.919638268002764,58,S0311,Rodent Inspection and Treatment,DOH- Department Of Health,DOH,1,2020-03-12T17:33:54.000Z,,2020-04-01T17:33:54.000Z,2020-03-12T17:33:54.000Z,,,,Open,,20-00090958,Standard,2215 FLAGLER PLACE NW,398843.95,139084.53,38.91963081,-77.01333084,WASHINGTON,DC,20001,227952,5
-77.018668199282885,38.909396499839495,59,S0311,Rodent Inspection and Treatment,DOH- Department Of Health,DOH,1,2020-03-02T19:54:03.000Z,2020-03-09T15:05:36.000Z,2020-03-20T20:54:03.000Z,2020-03-02T19:54:03.000Z,1,2020-03-09T15:05:35.000Z,,Closed,,20-00077764,Standard,1425 5TH STREET NW,398381.06,137947.69,38.90938904,-77.01866591,WASHINGTON,DC,20001,237431,6
-77.007612999740147,38.917581188145817,60,S0311,Rodent Inspection and Treatment,DOH- Department Of Health,DOH,1,2020-02-16T15:38:55.000Z,2020-02-21T12:56:17.000Z,2020-03-06T15:38:55.000Z,2020-02-16T15:38:55.000Z,1,2020-02-21T12:56:17.000Z,,Closed,,20-00059517,Standard,42 RHODE ISLAND AVENUE NE,399339.98,138856.12,38.91757373,-77.00761071,WASHINGTON,DC,20002,25890,5
-76.980600552162443,38.897914512827754,61,S0311,Rodent Inspection and Treatment,DOH- Department Of Health,DOH,1,2020-02-17T03:08:59.000Z,2020-02-25T08:25:51.000Z,2020-03-06T03:08:51.000Z,2020-02-17T03:08:59.000Z,1,2020-02-25T08:24:00.000Z,,Closed,,20-00059696,Standard,1668 KRAMER STREET NE,401683.03,136673.11,38.89790706,-76.98059827,WASHINGTON,DC,20002,58185,6
-77.075881181853504,38.912861561211059,62,S0311,Rodent Inspection and Treatment,DOH- Department Of Health,DOH,1,2020-03-13T22:12:57.000Z,,2020-04-02T22:12:57.000Z,2020-03-13T22:12:57.000Z,,,,Open,,20-00092800,Standard,3950 GEORGETOWN COURT NW,393419.16,138334.91,38.91285411,-77.07587887,WASHINGTON,DC,20007,274361,2
-76.98927691769768,38.843965910776532,63,S0311,Rodent Inspection and Treatment,DOH- Department Of Health,DOH,1,2020-02-21T07:48:02.000Z,2020-02-28T10:40:39.000Z,2020-03-12T08:48:02.000Z,2020-02-21T07:48:02.000Z,1,2020-02-28T10:40:38.000Z,,Closed,,20-00065275,Standard,1224 SAVANNAH PLACE SE,400931.09,130684.29,38.84395847,-76.98927464,WASHINGTON,DC,20032,70893,8
-77.008326469383618,38.912036778832849,64,S0311,Rodent Inspection and Treatment,DOH- Department Of Health,DOH,1,2020-02-26T23:58:54.000Z,2020-02-28T12:18:44.000Z,2020-03-18T00:58:54.000Z,2020-02-26T23:58:54.000Z,1,2020-02-28T12:18:43.000Z,,Closed,,20-00072392,Standard,10 QUINCY PLACE NE,399278.05,138240.65,38.91202932,-77.00832418,WASHINGTON,DC,20002,76060,5
-77.009394351883273,38.911739692833443,65,S0311,Rodent Inspection and Treatment,DOH- Department Of Health,DOH,1,2020-03-11T21:53:31.000Z,,2020-03-31T21:53:31.000Z,2020-03-11T21:53:31.000Z,,,,Open,,20-00089374,Standard,1620 NORTH CAPITOL STREET NW,399185.43,138207.68,38.91173224,-77.00939206,WASHINGTON,DC,20002,279269,5
